{"type":"FeatureCollection","name":"arena-conda","features":[{"type":"Feature","geometry":{"type":"LineString","coordinates":[[-46.56809,-23.53096],[-46.5686,-23.53109],[-46.56828,-23.53221],[-46.56832,-23.53228],[-46.56825,-23.53231],[-46.5677,-23.5342],[-46.57081,-23.53571],[-46.57152,-23.53589],[-46.5721,-23.53595],[-46.57634,-23.53507],[-46.5799,-23.53491],[-46.58101,-23.53499],[-46.58165,-23.53222],[-46.58217,-23.53241],[-46.58289,-23.53284],[-46.58365,-23.5312],[-46.58379,-23.53051],[-46.58375,-23.53007],[-46.58303,-23.52809],[-46.58313,-23.52774],[-46.58341,-23.5275],[-46.58383,-23.52746],[-46.58811,-23.52856],[-46.58894,-23.5287],[-46.5895,-23.52864],[-46.59367,-23.52761],[-46.59754,-23.52621],[-46.60091,-23.5235],[-46.60185,-23.52288],[-46.60296,-23.52236],[-46.60467,-23.52211],[-46.60617,-23.52224],[-46.60862,-23.5227],[-46.60945,-23.52273],[-46.6105,-23.52259],[-46.6113,-23.52234],[-46.61222,-23.52187],[-46.61516,-23.51971],[-46.616,-23.5192],[-46.61721,-23.51868],[-46.61791,-23.51848],[-46.61919,-23.51833],[-46.62007,-23.51838],[-46.62245,-23.51885],[-46.62394,-23.51892],[-46.6305,-23.51859],[-46.6314,-23.51862],[-46.6398,-23.51805],[-46.64392,-23.51766],[-46.65096,-23.51669],[-46.65382,-23.51643],[-46.65621,-23.51602],[-46.6626,-23.51524],[-46.66607,-23.51489],[-46.66863,-23.51448],[-46.67698,-23.51342],[-46.67792,-23.51318],[-46.67879,-23.51281],[-46.6795,-23.51238],[-46.68201,-23.51052],[-46.68258,-23.51019],[-46.68377,-23.5097],[-46.68497,-23.50942],[-46.68915,-23.50871],[-46.69191,-23.50804],[-46.69486,-23.50752],[-46.69623,-23.50741],[-46.69717,-23.50746],[-46.70647,-23.50826],[-46.71748,-23.50758],[-46.71842,-23.50774],[-46.7193,-23.50799],[-46.7201,-23.50841],[-46.72118,-23.50926],[-46.72183,-23.51006],[-46.72302,-23.51177],[-46.72385,-23.51249],[-46.72496,-23.51324],[-46.72766,-23.51481],[-46.73205,-23.51699],[-46.73289,-23.51723],[-46.73377,-23.51732],[-46.74127,-23.51705],[-46.74153,-23.51698],[-46.74223,-23.517],[-46.74392,-23.51722],[-46.74475,-23.51746],[-46.74541,-23.51775],[-46.74624,-23.51832],[-46.74722,-23.51939],[-46.74782,-23.52041],[-46.74856,-23.52218],[-46.74924,-23.52319],[-46.74989,-23.52372],[-46.75121,-23.52441],[-46.75205,-23.52464],[-46.75305,-23.52476],[-46.75372,-23.52473],[-46.75459,-23.52458],[-46.76644,-23.52082],[-46.76766,-23.52054],[-46.76874,-23.52042],[-46.77247,-23.52048],[-46.77271,-23.52041],[-46.77471,-23.52032],[-46.77504,-23.52024],[-46.77726,-23.52009],[-46.7817,-23.51941],[-46.7836,-23.519],[-46.78537,-23.51843],[-46.79164,-23.5159],[-46.79393,-23.51487],[-46.7965,-23.51343],[-46.79789,-23.51284],[-46.80174,-23.51149],[-46.80352,-23.51097],[-46.80462,-23.51073],[-46.80492,-23.51051],[-46.80539,-23.50996],[-46.80622,-23.50949],[-46.80661,-23.5094],[-46.8071,-23.50942],[-46.80745,-23.50954],[-46.80776,-23.50975],[-46.80888,-23.51116],[-46.80968,-23.51194],[-46.81037,-23.51282],[-46.8104,-23.51299],[-46.81422,-23.51746],[-46.81485,-23.5179],[-46.81605,-23.51834],[-46.81639,-23.5188],[-46.81644,-23.51915],[-46.81635,-23.52088],[-46.81663,-23.52286],[-46.81656,-23.52302],[-46.81815,-23.53197],[-46.81819,-23.53318],[-46.81785,-23.53766],[-46.8179,-23.53918],[-46.81825,-23.54104],[-46.82027,-23.54716],[-46.82061,-23.54852],[-46.82068,-23.5492],[-46.82055,-23.55065],[-46.8197,-23.55352],[-46.81946,-23.55517],[-46.81952,-23.55634],[-46.8203,-23.56263],[-46.8203,-23.56357],[-46.8201,-23.56452],[-46.81989,-23.56506],[-46.8194,-23.56591],[-46.81906,-23.56634],[-46.81848,-23.56688],[-46.81721,-23.56767],[-46.81492,-23.56864],[-46.81447,-23.56891],[-46.81387,-23.5694],[-46.81331,-23.57011],[-46.81279,-23.57103],[-46.80935,-23.57851],[-46.80878,-23.5803],[-46.80848,-23.5822],[-46.80848,-23.58408],[-46.80872,-23.58588],[-46.81178,-23.59735],[-46.81249,-23.59919],[-46.81297,-23.60077],[-46.81347,-23.60362],[-46.8144,-23.60716],[-46.81476,-23.60814],[-46.81564,-23.60953],[-46.81618,-23.61015],[-46.81675,-23.61066],[-46.82624,-23.61708],[-46.82727,-23.61802],[-46.82795,-23.61881],[-46.82858,-23.61974],[-46.82908,-23.62074],[-46.82955,-23.62226],[-46.82968,-23.62408],[-46.82975,-23.62725],[-46.82992,-23.62848],[-46.83016,-23.62934],[-46.83052,-23.63011],[-46.83126,-23.63131],[-46.83266,-23.63337],[-46.8332,-23.63388],[-46.83427,-23.63546],[-46.83461,-23.63674],[-46.83469,-23.63827],[-46.83501,-23.63898],[-46.83608,-23.64031],[-46.83815,-23.6424],[-46.84257,-23.64713],[-46.84386,-23.64842],[-46.84639,-23.65047],[-46.84715,-23.65118],[-46.84769,-23.65186],[-46.84817,-23.65266],[-46.84905,-23.65452],[-46.85039,-23.65645],[-46.85072,-23.65728],[-46.85109,-23.65882],[-46.85144,-23.65973],[-46.85187,-23.66045],[-46.85253,-23.66128],[-46.85307,-23.66213],[-46.855,-23.66647],[-46.85555,-23.66787],[-46.85615,-23.67007],[-46.85673,-23.67464],[-46.85706,-23.67585],[-46.8581,-23.67818],[-46.85845,-23.67915],[-46.85916,-23.68322],[-46.85951,-23.68474],[-46.86,-23.68574],[-46.86273,-23.69001],[-46.86436,-23.69465],[-46.86653,-23.69844],[-46.867,-23.69905],[-46.86778,-23.69979],[-46.87101,-23.70203],[-46.87143,-23.70239],[-46.87207,-23.70312],[-46.88063,-23.71605],[-46.88172,-23.71766],[-46.88206,-23.71805],[-46.88246,-23.71844],[-46.88344,-23.71916],[-46.88602,-23.72041],[-46.88767,-23.72178],[-46.88813,-23.72206],[-46.88913,-23.72236],[-46.89082,-23.72259],[-46.89145,-23.72287],[-46.89225,-23.7235],[-46.89265,-23.7241],[-46.89358,-23.72704],[-46.8953,-23.73346],[-46.89732,-23.73946],[-46.89762,-23.74002],[-46.89892,-23.7417],[-46.89948,-23.74267],[-46.89974,-23.74343],[-46.90158,-23.75249],[-46.90282,-23.75811],[-46.90332,-23.75903],[-46.90481,-23.76128],[-46.91121,-23.77062],[-46.91265,-23.77227],[-46.91327,-23.77311],[-46.91545,-23.77688],[-46.91581,-23.77782],[-46.91595,-23.77865],[-46.91597,-23.77951],[-46.91583,-23.78043],[-46.91523,-23.78203],[-46.91402,-23.78466],[-46.91385,-23.78527],[-46.91387,-23.78631],[-46.91399,-23.78732],[-46.91542,-23.79417],[-46.91537,-23.79491],[-46.91474,-23.79676],[-46.91478,-23.79755],[-46.915,-23.7981],[-46.91766,-23.80206],[-46.91807,-23.80257],[-46.91876,-23.803],[-46.92094,-23.80363],[-46.9215,-23.80401],[-46.92361,-23.80633],[-46.92419,-23.80724],[-46.92436,-23.80807],[-46.92416,-23.80885],[-46.92328,-23.81122],[-46.92316,-23.8117],[-46.92314,-23.81251],[-46.92435,-23.81824],[-46.92559,-23.82271],[-46.92589,-23.82593],[-46.92621,-23.82696],[-46.92652,-23.82761],[-46.92974,-23.83335],[-46.92985,-23.83393],[-46.9299,-23.83539],[-46.93153,-23.83998],[-46.93162,-23.84129],[-46.93182,-23.84199],[-46.9321,-23.84239],[-46.93256,-23.84278],[-46.93612,-23.84449],[-46.93668,-23.84491],[-46.937,-23.84527],[-46.93747,-23.84611],[-46.93946,-23.85271],[-46.94021,-23.85507],[-46.94043,-23.85549],[-46.94118,-23.8562],[-46.94559,-23.85956],[-46.94614,-23.86013],[-46.94872,-23.86416],[-46.94939,-23.86499],[-46.94997,-23.86549],[-46.95097,-23.86611],[-46.9642,-23.87296],[-46.96547,-23.87384],[-46.96602,-23.87444],[-46.96864,-23.87811],[-46.96923,-23.87881],[-46.97675,-23.88603],[-46.98259,-23.89084],[-46.98327,-23.89153],[-46.98371,-23.8921],[-46.98714,-23.89772],[-46.99027,-23.90178],[-46.99128,-23.90324],[-46.99165,-23.90396],[-46.99177,-23.90496],[-46.99171,-23.91071],[-46.99158,-23.91119],[-46.99116,-23.91191],[-46.98982,-23.91337],[-46.98943,-23.91391],[-46.98924,-23.91446],[-46.98928,-23.9154],[-46.99018,-23.91852],[-46.99217,-23.92181],[-46.99571,-23.92861],[-46.99621,-23.92927],[-46.99686,-23.9297],[-46.99894,-23.93056],[-47.0002,-23.93096],[-47.00117,-23.93103],[-47.00533,-23.93103],[-47.00655,-23.93116],[-47.00736,-23.93149],[-47.01137,-23.93351],[-47.01264,-23.93386],[-47.01788,-23.93448],[-47.02196,-23.93488],[-47.03179,-23.93494],[-47.03308,-23.93504],[-47.03453,-23.93574],[-47.0415,-23.93983],[-47.04239,-23.94012],[-47.04276,-23.94017],[-47.0464,-23.94008],[-47.05144,-23.94062],[-47.05292,-23.94067],[-47.05939,-23.94011],[-47.06054,-23.93981],[-47.06156,-23.93932],[-47.06408,-23.93744],[-47.06458,-23.93712],[-47.06517,-23.93688],[-47.0677,-23.93632],[-47.07423,-23.93518],[-47.07468,-23.93517],[-47.07546,-23.93528],[-47.07821,-23.93624],[-47.08042,-23.93641],[-47.08108,-23.93673],[-47.08203,-23.9374],[-47.08281,-23.93783],[-47.08345,-23.93799],[-47.08598,-23.93837],[-47.08699,-23.93871],[-47.09239,-23.94153],[-47.09456,-23.94246],[-47.09553,-23.94303],[-47.09684,-23.94413],[-47.0973,-23.94466],[-47.10026,-23.94857],[-47.10119,-23.95],[-47.10168,-23.95056],[-47.10283,-23.95147],[-47.1043,-23.95236],[-47.10673,-23.95422],[-47.10752,-23.95464],[-47.11388,-23.95745],[-47.11679,-23.95918],[-47.119,-23.96009],[-47.12144,-23.96172],[-47.12318,-23.96308],[-47.12429,-23.96371],[-47.12636,-23.96467],[-47.12963,-23.96593],[-47.13117,-23.96666],[-47.13225,-23.96751],[-47.13297,-23.9683],[-47.13586,-23.97206],[-47.13744,-23.97329],[-47.13867,-23.97414],[-47.13971,-23.97465],[-47.14265,-23.97552],[-47.14341,-23.97602],[-47.14396,-23.97669],[-47.14432,-23.97728],[-47.14644,-23.98312],[-47.14685,-23.98397],[-47.14832,-23.98649],[-47.14865,-23.98785],[-47.14864,-23.98886],[-47.14843,-23.98982],[-47.14765,-23.99242],[-47.14763,-23.99422],[-47.14782,-23.99504],[-47.14817,-23.9958],[-47.14997,-23.99875],[-47.15139,-24.00128],[-47.15193,-24.00195],[-47.15241,-24.00228],[-47.15285,-24.00248],[-47.15385,-24.0027],[-47.15627,-24.00298],[-47.15686,-24.00315],[-47.15752,-24.0035],[-47.15809,-24.00401],[-47.1585,-24.00461],[-47.15974,-24.00787],[-47.16038,-24.00863],[-47.16127,-24.00927],[-47.16458,-24.01054],[-47.16526,-24.01097],[-47.16589,-24.01158],[-47.16618,-24.012],[-47.16768,-24.01498],[-47.16828,-24.01601],[-47.17188,-24.02069],[-47.17253,-24.02226],[-47.17303,-24.02515],[-47.17325,-24.02594],[-47.17355,-24.02655],[-47.17409,-24.0272],[-47.17575,-24.02845],[-47.18086,-24.03183],[-47.18315,-24.03323],[-47.18904,-24.03716],[-47.18981,-24.03748],[-47.19159,-24.03782],[-47.19234,-24.03821],[-47.19279,-24.0387],[-47.19298,-24.03916],[-47.19317,-24.04164],[-47.19346,-24.04268],[-47.19346,-24.04421],[-47.19354,-24.04452],[-47.19383,-24.04506],[-47.19429,-24.04548],[-47.19466,-24.04567],[-47.19668,-24.04624],[-47.19724,-24.04658],[-47.19768,-24.047],[-47.19849,-24.04832],[-47.19874,-24.04858],[-47.19974,-24.04923],[-47.20004,-24.04954],[-47.20077,-24.05069],[-47.20131,-24.05126],[-47.20178,-24.05152],[-47.20219,-24.05164],[-47.20289,-24.05167],[-47.20453,-24.0513],[-47.20498,-24.05127],[-47.20606,-24.05139],[-47.20679,-24.05135],[-47.20886,-24.0507],[-47.20979,-24.05067],[-47.21062,-24.05088],[-47.21224,-24.05173],[-47.21378,-24.05188],[-47.21446,-24.05214],[-47.21501,-24.05256],[-47.2153,-24.05306],[-47.21534,-24.05362],[-47.21523,-24.05592],[-47.21538,-24.05652],[-47.21565,-24.05684],[-47.21819,-24.05888],[-47.21862,-24.05909],[-47.22022,-24.05958],[-47.22252,-24.05956],[-47.2232,-24.05977],[-47.22374,-24.06013],[-47.22469,-24.06097],[-47.2269,-24.06182],[-47.22841,-24.0629],[-47.22893,-24.06318],[-47.23119,-24.0637],[-47.23514,-24.06518],[-47.24211,-24.07019],[-47.243,-24.07058],[-47.24608,-24.07146],[-47.24696,-24.07196],[-47.24903,-24.0736],[-47.25008,-24.07476],[-47.25049,-24.07543],[-47.25109,-24.07667],[-47.25156,-24.07801],[-47.25182,-24.07984],[-47.25165,-24.08092],[-47.25165,-24.08124],[-47.25182,-24.08184],[-47.2522,-24.08233],[-47.25335,-24.08327],[-47.25382,-24.08375],[-47.25405,-24.08415],[-47.25427,-24.08563],[-47.25454,-24.08614],[-47.25493,-24.08655],[-47.25659,-24.08789],[-47.25686,-24.08825],[-47.25711,-24.08891],[-47.25719,-24.08935],[-47.25713,-24.09068],[-47.25695,-24.09123],[-47.25615,-24.09244],[-47.25601,-24.09276],[-47.25589,-24.09321],[-47.25591,-24.09389],[-47.25704,-24.09737],[-47.2588,-24.10211],[-47.25931,-24.10269],[-47.25967,-24.10296],[-47.2618,-24.10384],[-47.26253,-24.10441],[-47.26284,-24.10485],[-47.26304,-24.10532],[-47.26347,-24.10726],[-47.26398,-24.10803],[-47.26442,-24.10838],[-47.26478,-24.10854],[-47.26667,-24.10907],[-47.26752,-24.1095],[-47.26812,-24.11004],[-47.26887,-24.11133],[-47.26886,-24.1155],[-47.269,-24.11995],[-47.26923,-24.12064],[-47.26952,-24.12104],[-47.26996,-24.12146],[-47.27115,-24.12223],[-47.27132,-24.12249],[-47.27137,-24.1229],[-47.2713,-24.12363],[-47.27164,-24.12557],[-47.27229,-24.12706],[-47.27224,-24.12755],[-47.27156,-24.1295],[-47.27145,-24.13003],[-47.27146,-24.13185],[-47.27231,-24.13453],[-47.27266,-24.13671],[-47.27332,-24.138],[-47.27347,-24.13851],[-47.27339,-24.13905],[-47.2725,-24.14081],[-47.27229,-24.14157],[-47.27214,-24.14291],[-47.27229,-24.14343],[-47.2726,-24.14388],[-47.27286,-24.14411],[-47.27446,-24.14505],[-47.27491,-24.14521],[-47.27566,-24.14528],[-47.27776,-24.14508],[-47.27855,-24.14494],[-47.28214,-24.14384],[-47.28429,-24.14334],[-47.28544,-24.14322],[-47.28662,-24.14331],[-47.28741,-24.1435],[-47.28972,-24.1444],[-47.29292,-24.14594],[-47.29461,-24.14645],[-47.29885,-24.1472],[-47.29999,-24.14705],[-47.30089,-24.14684],[-47.30235,-24.14698],[-47.30289,-24.14714],[-47.30593,-24.14853],[-47.30777,-24.14917],[-47.31994,-24.1518],[-47.32148,-24.15236],[-47.32227,-24.15276],[-47.32339,-24.15353],[-47.32415,-24.15424],[-47.32488,-24.15514],[-47.32644,-24.15776],[-47.32718,-24.15977],[-47.32755,-24.16054],[-47.32854,-24.16174],[-47.3521,-24.18076],[-47.35282,-24.18126],[-47.35763,-24.18386],[-47.35823,-24.18432],[-47.35889,-24.18501],[-47.35932,-24.18556],[-47.35971,-24.18628],[-47.36002,-24.18709],[-47.36014,-24.18766],[-47.3602,-24.18875],[-47.35993,-24.19071],[-47.35989,-24.19165],[-47.36008,-24.19256],[-47.36046,-24.19332],[-47.36089,-24.19385],[-47.3616,-24.19445],[-47.36793,-24.1981],[-47.36954,-24.19934],[-47.37051,-24.20042],[-47.37141,-24.20183],[-47.37192,-24.20305],[-47.37215,-24.20388],[-47.37234,-24.20557],[-47.3722,-24.20726],[-47.37197,-24.2082],[-47.37165,-24.20908],[-47.37121,-24.20995],[-47.36681,-24.21757],[-47.36616,-24.21858],[-47.36557,-24.21973],[-47.36515,-24.22111],[-47.36492,-24.22384],[-47.36474,-24.22502],[-47.36447,-24.22592],[-47.36397,-24.22678],[-47.36122,-24.22993],[-47.36076,-24.23073],[-47.36055,-24.23141],[-47.36048,-24.23199],[-47.3606,-24.23511],[-47.36083,-24.23654],[-47.36134,-24.23811],[-47.36182,-24.23914],[-47.36233,-24.24003],[-47.36323,-24.24126],[-47.36524,-24.24326],[-47.36987,-24.24741],[-47.37433,-24.25278],[-47.37564,-24.25486],[-47.37683,-24.25908],[-47.37723,-24.26012],[-47.37817,-24.26151],[-47.3794,-24.26254],[-47.38005,-24.26291],[-47.38097,-24.26326],[-47.38816,-24.26524],[-47.38926,-24.26562],[-47.4226,-24.27932],[-47.42404,-24.27969],[-47.42794,-24.27997],[-47.42922,-24.28028],[-47.43627,-24.28377],[-47.43792,-24.2845],[-47.43972,-24.28493],[-47.44883,-24.28671],[-47.45292,-24.28716],[-47.4566,-24.28745],[-47.45811,-24.28773],[-47.45879,-24.28792],[-47.46299,-24.28954],[-47.46807,-24.29139],[-47.46907,-24.29164],[-47.47616,-24.29303],[-47.47688,-24.29325],[-47.47777,-24.29362],[-47.479,-24.29428],[-47.48059,-24.29564],[-47.48545,-24.30155],[-47.48638,-24.3024],[-47.48914,-24.30409],[-47.49269,-24.30613],[-47.49391,-24.3066],[-47.4946,-24.30676],[-47.49558,-24.30687],[-47.49751,-24.30689],[-47.49908,-24.30711],[-47.49967,-24.3073],[-47.50357,-24.30895],[-47.50456,-24.30921],[-47.50756,-24.30961],[-47.50863,-24.30987],[-47.52765,-24.31661],[-47.52862,-24.31704],[-47.52936,-24.31747],[-47.53332,-24.32014],[-47.53419,-24.32055],[-47.53527,-24.32091],[-47.54013,-24.3219],[-47.55083,-24.32385],[-47.56334,-24.32621],[-47.56668,-24.3269],[-47.57915,-24.3292],[-47.58037,-24.32954],[-47.58121,-24.32986],[-47.59206,-24.33446],[-47.59377,-24.33479],[-47.59465,-24.3348],[-47.59584,-24.33464],[-47.61748,-24.32977],[-47.61888,-24.32951],[-47.62059,-24.32953],[-47.62189,-24.32966],[-47.62654,-24.3304],[-47.62736,-24.33059],[-47.63132,-24.33109],[-47.63815,-24.33218],[-47.63934,-24.33246],[-47.64018,-24.33292],[-47.64071,-24.33338],[-47.641,-24.33376],[-47.64979,-24.34695],[-47.65059,-24.34792],[-47.65173,-24.34881],[-47.66271,-24.35541],[-47.66342,-24.35572],[-47.66399,-24.35587],[-47.66508,-24.35603],[-47.66645,-24.35595],[-47.67134,-24.35453],[-47.6721,-24.35437],[-47.67316,-24.35429],[-47.67457,-24.35446],[-47.6835,-24.35644],[-47.68486,-24.357],[-47.68596,-24.35776],[-47.69131,-24.36328],[-47.69212,-24.36427],[-47.69355,-24.36649],[-47.69432,-24.36738],[-47.69489,-24.36787],[-47.69585,-24.36844],[-47.69711,-24.36902],[-47.69916,-24.36982],[-47.70035,-24.37018],[-47.70483,-24.37119],[-47.70553,-24.37152],[-47.70606,-24.37192],[-47.7065,-24.3724],[-47.70679,-24.37288],[-47.70805,-24.3754],[-47.70878,-24.3763],[-47.70937,-24.37682],[-47.71355,-24.37995],[-47.71448,-24.38079],[-47.71489,-24.38144],[-47.71511,-24.38212],[-47.71527,-24.38463],[-47.7154,-24.38522],[-47.71556,-24.38561],[-47.71596,-24.38623],[-47.71673,-24.38691],[-47.71759,-24.38733],[-47.7183,-24.38749],[-47.71971,-24.38757],[-47.72058,-24.38771],[-47.7215,-24.38807],[-47.72231,-24.38852],[-47.72277,-24.389],[-47.72298,-24.38936],[-47.72369,-24.39221],[-47.72396,-24.39271],[-47.72439,-24.39323],[-47.73054,-24.39801],[-47.73122,-24.3984],[-47.73187,-24.39862],[-47.73399,-24.39895],[-47.73515,-24.39935],[-47.73553,-24.3996],[-47.74048,-24.40374],[-47.7411,-24.40418],[-47.76496,-24.41817],[-47.76664,-24.41891],[-47.77701,-24.42231],[-47.77815,-24.42287],[-47.77904,-24.4235],[-47.78688,-24.43063],[-47.81137,-24.45316],[-47.81282,-24.45502],[-47.83211,-24.48244],[-47.83314,-24.48421],[-47.83608,-24.49063],[-47.83686,-24.4922],[-47.83746,-24.49317],[-47.83827,-24.49406],[-47.84607,-24.50142],[-47.84705,-24.5026],[-47.84765,-24.50381],[-47.85713,-24.53105],[-47.86118,-24.54305],[-47.86426,-24.55177],[-47.86704,-24.55993],[-47.86771,-24.56149],[-47.86803,-24.56204],[-47.86891,-24.56323],[-47.86997,-24.56429],[-47.8709,-24.56502],[-47.87296,-24.56616],[-47.87763,-24.56818],[-47.87814,-24.56848],[-47.87909,-24.56925],[-47.8805,-24.57099],[-47.88301,-24.57431],[-47.88387,-24.57569],[-47.88434,-24.57684],[-47.88463,-24.57785],[-47.8849,-24.57956],[-47.88486,-24.58123],[-47.88453,-24.58294],[-47.88413,-24.58406],[-47.8836,-24.58513],[-47.87674,-24.59701],[-47.87646,-24.59762],[-47.87611,-24.59884],[-47.876,-24.60025],[-47.87618,-24.60149],[-47.87654,-24.60254],[-47.87722,-24.60373],[-47.87969,-24.60688],[-47.88146,-24.60891],[-47.8973,-24.62405],[-47.92092,-24.64636],[-47.92215,-24.64722],[-47.92306,-24.64761],[-47.9242,-24.64794],[-47.9615,-24.65417],[-47.9623,-24.65442],[-47.96336,-24.65489],[-47.96451,-24.65572],[-47.96665,-24.65774],[-47.97611,-24.66684],[-47.97699,-24.66786],[-47.97773,-24.66895],[-47.9784,-24.67028],[-47.9804,-24.67686],[-47.98076,-24.67766],[-47.98139,-24.67866],[-47.98275,-24.68004],[-47.99738,-24.6941],[-48.01852,-24.7093],[-48.01975,-24.70992],[-48.03652,-24.71702],[-48.0377,-24.71774],[-48.04292,-24.72157],[-48.0444,-24.72233],[-48.04576,-24.72268],[-48.04695,-24.72279],[-48.07579,-24.72148],[-48.07872,-24.72138],[-48.08004,-24.72146],[-48.08258,-24.72224],[-48.08484,-24.72308],[-48.08593,-24.72358],[-48.09492,-24.72912],[-48.09644,-24.73002],[-48.09756,-24.73053],[-48.09894,-24.73087],[-48.10037,-24.73096],[-48.10153,-24.73085],[-48.10581,-24.7299],[-48.10655,-24.72988],[-48.10704,-24.72995],[-48.10781,-24.7302],[-48.11102,-24.73189],[-48.11396,-24.73328],[-48.1206,-24.73686],[-48.12164,-24.73752],[-48.12226,-24.73801],[-48.12371,-24.73947],[-48.12454,-24.7402],[-48.12547,-24.74078],[-48.12638,-24.74118],[-48.13197,-24.74273],[-48.13347,-24.74301],[-48.13454,-24.74302],[-48.13892,-24.7427],[-48.13994,-24.74277],[-48.14062,-24.74291],[-48.14128,-24.74311],[-48.14722,-24.74565],[-48.14844,-24.74651],[-48.15055,-24.74882],[-48.15147,-24.74955],[-48.16004,-24.75392],[-48.16102,-24.75458],[-48.16185,-24.75538],[-48.16441,-24.7588],[-48.16496,-24.75966],[-48.16525,-24.76029],[-48.1655,-24.76114],[-48.16591,-24.76314],[-48.16648,-24.7645],[-48.16714,-24.76543],[-48.16922,-24.76762],[-48.16992,-24.76869],[-48.17043,-24.76998],[-48.17094,-24.77409],[-48.1713,-24.77556],[-48.17178,-24.77667],[-48.17305,-24.77873],[-48.17385,-24.77978],[-48.17503,-24.78093],[-48.18038,-24.78472],[-48.18116,-24.7849],[-48.18183,-24.78474],[-48.18224,-24.78446],[-48.18259,-24.78395],[-48.18302,-24.78238],[-48.18332,-24.78179],[-48.18367,-24.7814],[-48.18428,-24.781],[-48.19032,-24.77955],[-48.19112,-24.77928],[-48.1966,-24.77646],[-48.1985,-24.77581],[-48.20127,-24.77507],[-48.20182,-24.77484],[-48.2033,-24.77394],[-48.20414,-24.77353],[-48.20489,-24.77334],[-48.20557,-24.77328],[-48.20657,-24.7734],[-48.20769,-24.77383],[-48.20871,-24.77464],[-48.21133,-24.77743],[-48.21152,-24.77792],[-48.21154,-24.77821],[-48.21146,-24.77863],[-48.21131,-24.77892],[-48.20955,-24.78049],[-48.20917,-24.78092],[-48.20888,-24.78143],[-48.20869,-24.78221],[-48.20858,-24.78329],[-48.20796,-24.7863],[-48.208,-24.7869],[-48.20835,-24.78748],[-48.21031,-24.7887],[-48.21069,-24.78914],[-48.21081,-24.78991],[-48.21045,-24.79221],[-48.21051,-24.7926],[-48.21075,-24.79313],[-48.211,-24.79341],[-48.2115,-24.79375],[-48.21325,-24.7944],[-48.21395,-24.79473],[-48.21428,-24.795],[-48.21451,-24.79532],[-48.21473,-24.796],[-48.21466,-24.79665],[-48.21338,-24.79969],[-48.2132,-24.80063],[-48.21318,-24.80142],[-48.21328,-24.80218],[-48.21372,-24.80349],[-48.21415,-24.80424],[-48.21526,-24.80574],[-48.21555,-24.80631],[-48.21571,-24.80682],[-48.21575,-24.80782],[-48.21555,-24.80849],[-48.21517,-24.80918],[-48.21379,-24.81101],[-48.21344,-24.81162],[-48.21298,-24.81297],[-48.2129,-24.8139],[-48.21298,-24.81485],[-48.21317,-24.81563],[-48.2134,-24.81623],[-48.21462,-24.8186],[-48.21476,-24.81913],[-48.21473,-24.82059],[-48.21422,-24.82152],[-48.21418,-24.82183],[-48.21458,-24.82239],[-48.21499,-24.82262],[-48.21545,-24.82269],[-48.21717,-24.8226],[-48.21784,-24.82287],[-48.21819,-24.82329],[-48.2183,-24.82368],[-48.21825,-24.82411],[-48.21768,-24.82541],[-48.21772,-24.82595],[-48.21878,-24.82813],[-48.21937,-24.8291],[-48.22187,-24.83215],[-48.22224,-24.83333],[-48.22277,-24.83568],[-48.22274,-24.83625],[-48.22227,-24.83686],[-48.22046,-24.83777],[-48.22007,-24.8382],[-48.21994,-24.83845],[-48.21985,-24.83904],[-48.2199,-24.83931],[-48.2206,-24.8409],[-48.22071,-24.84167],[-48.22048,-24.84259],[-48.21969,-24.84451],[-48.2194,-24.84569],[-48.21937,-24.84689],[-48.21986,-24.8493],[-48.21967,-24.84995],[-48.21924,-24.85049],[-48.21898,-24.85068],[-48.21838,-24.85094],[-48.21722,-24.8513],[-48.21651,-24.85167],[-48.21623,-24.85197],[-48.21594,-24.8526],[-48.21592,-24.85341],[-48.21641,-24.85692],[-48.21741,-24.85894],[-48.21874,-24.86514],[-48.21864,-24.86571],[-48.21849,-24.86592],[-48.21661,-24.86782],[-48.21632,-24.86834],[-48.21619,-24.8693],[-48.21633,-24.87188],[-48.21649,-24.87247],[-48.2168,-24.87292],[-48.21747,-24.8734],[-48.22088,-24.87509],[-48.2213,-24.87515],[-48.22157,-24.87511],[-48.22285,-24.87468],[-48.22383,-24.87448],[-48.22454,-24.87457],[-48.22496,-24.87473],[-48.22537,-24.87499],[-48.22805,-24.87746],[-48.2287,-24.87815],[-48.22923,-24.87899],[-48.22938,-24.8796],[-48.22933,-24.88029],[-48.22921,-24.88066],[-48.22878,-24.8814],[-48.22686,-24.88292],[-48.22643,-24.88336],[-48.22626,-24.88368],[-48.22615,-24.88452],[-48.22656,-24.88534],[-48.22707,-24.88579],[-48.2284,-24.88658],[-48.2394,-24.89284],[-48.24079,-24.89345],[-48.24154,-24.89362],[-48.24363,-24.89388],[-48.24445,-24.89424],[-48.24509,-24.89492],[-48.24715,-24.89952],[-48.24777,-24.90042],[-48.24839,-24.90113],[-48.24935,-24.90204],[-48.25066,-24.90289],[-48.25233,-24.90368],[-48.25429,-24.90449],[-48.25486,-24.90496],[-48.25515,-24.90552],[-48.25523,-24.90591],[-48.25522,-24.90641],[-48.25509,-24.90689],[-48.25413,-24.90829],[-48.25327,-24.90934],[-48.25287,-24.91027],[-48.25289,-24.91105],[-48.25333,-24.91259],[-48.25357,-24.91313],[-48.254,-24.91381],[-48.25612,-24.91604],[-48.25702,-24.91715],[-48.25983,-24.9213],[-48.26074,-24.92231],[-48.26215,-24.92347],[-48.26348,-24.92428],[-48.27227,-24.92874],[-48.27535,-24.93027],[-48.27711,-24.931],[-48.30538,-24.94032],[-48.30673,-24.94087],[-48.30764,-24.94135],[-48.3084,-24.94179],[-48.30969,-24.94269],[-48.31136,-24.94431],[-48.31227,-24.9455],[-48.31485,-24.94963],[-48.31535,-24.95022],[-48.31612,-24.95094],[-48.31723,-24.95163],[-48.3185,-24.95211],[-48.33003,-24.95421],[-48.33145,-24.95478],[-48.33234,-24.95535],[-48.33325,-24.9561],[-48.34573,-24.96718],[-48.3494,-24.97111],[-48.35018,-24.97161],[-48.35092,-24.97189],[-48.35159,-24.97197],[-48.35272,-24.97186],[-48.35887,-24.96965],[-48.35981,-24.96942],[-48.3609,-24.96933],[-48.36309,-24.96931],[-48.36444,-24.96935],[-48.36593,-24.96966],[-48.36694,-24.97006],[-48.37013,-24.97163],[-48.37082,-24.97176],[-48.37176,-24.97175],[-48.38031,-24.97018],[-48.38124,-24.96987],[-48.38428,-24.96834],[-48.38527,-24.96793],[-48.38699,-24.96751],[-48.38821,-24.96744],[-48.38893,-24.96745],[-48.39036,-24.96766],[-48.39408,-24.96845],[-48.39541,-24.96888],[-48.39676,-24.9697],[-48.39932,-24.97186],[-48.39974,-24.97214],[-48.40037,-24.9724],[-48.40124,-24.9726],[-48.40209,-24.97266],[-48.4029,-24.97252],[-48.40356,-24.9723],[-48.40434,-24.97194],[-48.405,-24.9714],[-48.4107,-24.96532],[-48.4118,-24.96392],[-48.41341,-24.96236],[-48.41442,-24.9615],[-48.41507,-24.96115],[-48.41593,-24.96086],[-48.41659,-24.96075],[-48.4185,-24.96066],[-48.41931,-24.96052],[-48.41981,-24.96033],[-48.4206,-24.95972],[-48.42095,-24.95921],[-48.42115,-24.95871],[-48.42139,-24.9569],[-48.42166,-24.9562],[-48.42206,-24.95564],[-48.42449,-24.95278],[-48.42482,-24.95224],[-48.42488,-24.95186],[-48.42482,-24.95157],[-48.42364,-24.94933],[-48.42358,-24.94884],[-48.42369,-24.9482],[-48.42393,-24.94776],[-48.42444,-24.94726],[-48.4253,-24.94692],[-48.42598,-24.94687],[-48.42875,-24.9469],[-48.43022,-24.94704],[-48.43662,-24.94929],[-48.43913,-24.95024],[-48.44046,-24.95099],[-48.44122,-24.95158],[-48.44388,-24.95401],[-48.44467,-24.95442],[-48.44531,-24.95454],[-48.44625,-24.95443],[-48.44873,-24.95322],[-48.44911,-24.95309],[-48.44983,-24.95308],[-48.4505,-24.95337],[-48.45216,-24.95509],[-48.4524,-24.95526],[-48.45288,-24.95542],[-48.45308,-24.95546],[-48.45357,-24.95539],[-48.45576,-24.95468],[-48.45648,-24.95464],[-48.4569,-24.95468],[-48.4628,-24.95615],[-48.46335,-24.95641],[-48.4639,-24.95683],[-48.4646,-24.95785],[-48.4663,-24.96079],[-48.46696,-24.96127],[-48.46773,-24.96134],[-48.47349,-24.96092],[-48.4746,-24.96096],[-48.47537,-24.96112],[-48.4765,-24.96153],[-48.47713,-24.96185],[-48.47981,-24.96392],[-48.48064,-24.96446],[-48.48153,-24.96487],[-48.48254,-24.96514],[-48.4849,-24.96546],[-48.48569,-24.96566],[-48.48972,-24.96735],[-48.49194,-24.96781],[-48.4931,-24.9682],[-48.49365,-24.96848],[-48.49533,-24.9697],[-48.49631,-24.97017],[-48.49768,-24.9705],[-48.49959,-24.9707],[-48.49994,-24.97082],[-48.5007,-24.97137],[-48.50208,-24.97287],[-48.50476,-24.97459],[-48.50511,-24.97499],[-48.50538,-24.97556],[-48.50596,-24.97983],[-48.50744,-24.98565],[-48.50759,-24.9866],[-48.50769,-24.98808],[-48.50784,-24.99294],[-48.50795,-24.99393],[-48.50833,-24.99577],[-48.50876,-24.99718],[-48.50912,-24.99875],[-48.50903,-25.00036],[-48.50773,-25.00679],[-48.50767,-25.00875],[-48.50781,-25.01027],[-48.5082,-25.01192],[-48.50905,-25.01441],[-48.51021,-25.01756],[-48.51074,-25.01834],[-48.51127,-25.01872],[-48.51179,-25.0189],[-48.51415,-25.01919],[-48.51496,-25.01947],[-48.51548,-25.01978],[-48.51598,-25.0203],[-48.51633,-25.02087],[-48.51723,-25.02336],[-48.51744,-25.02376],[-48.51782,-25.02421],[-48.51837,-25.02453],[-48.51875,-25.02463],[-48.51937,-25.02464],[-48.523,-25.02433],[-48.52382,-25.02444],[-48.52441,-25.02472],[-48.52482,-25.02505],[-48.52514,-25.02547],[-48.52571,-25.02731],[-48.526,-25.02785],[-48.52635,-25.02821],[-48.52662,-25.02844],[-48.52732,-25.02879],[-48.53108,-25.02978],[-48.53228,-25.0303],[-48.53276,-25.03067],[-48.53325,-25.03119],[-48.5361,-25.03502],[-48.53667,-25.03554],[-48.5373,-25.03576],[-48.54147,-25.0361],[-48.54506,-25.03586],[-48.54581,-25.03608],[-48.54632,-25.03636],[-48.54748,-25.0377],[-48.54831,-25.03891],[-48.54918,-25.04097],[-48.54952,-25.04149],[-48.5498,-25.04175],[-48.55033,-25.04198],[-48.55212,-25.04208],[-48.55282,-25.04232],[-48.5533,-25.04284],[-48.55365,-25.04357],[-48.55405,-25.04464],[-48.55414,-25.04525],[-48.55403,-25.0461],[-48.5532,-25.0486],[-48.55318,-25.04912],[-48.55336,-25.0497],[-48.55474,-25.05181],[-48.55536,-25.05293],[-48.55543,-25.05325],[-48.5556,-25.05701],[-48.55581,-25.05753],[-48.55612,-25.0579],[-48.55691,-25.05829],[-48.55932,-25.05901],[-48.56189,-25.05968],[-48.56246,-25.05992],[-48.56321,-25.06064],[-48.56453,-25.06282],[-48.56506,-25.06333],[-48.56548,-25.06353],[-48.56602,-25.06366],[-48.56683,-25.06361],[-48.56886,-25.06292],[-48.56944,-25.06294],[-48.56988,-25.0631],[-48.57036,-25.0635],[-48.57184,-25.06559],[-48.57233,-25.0661],[-48.57323,-25.06666],[-48.57442,-25.06694],[-48.57528,-25.06694],[-48.57616,-25.06675],[-48.57784,-25.06609],[-48.57873,-25.06605],[-48.57952,-25.06629],[-48.58311,-25.06791],[-48.5835,-25.06823],[-48.5839,-25.06871],[-48.58634,-25.07283],[-48.58689,-25.07351],[-48.58732,-25.07383],[-48.58786,-25.07409],[-48.59234,-25.07549],[-48.59318,-25.07579],[-48.59387,-25.07615],[-48.59451,-25.0767],[-48.60155,-25.08488],[-48.60363,-25.08674],[-48.60459,-25.0873],[-48.60568,-25.08751],[-48.60638,-25.08749],[-48.60841,-25.08701],[-48.60925,-25.08668],[-48.60984,-25.08618],[-48.61026,-25.08557],[-48.61072,-25.08429],[-48.61111,-25.08349],[-48.61151,-25.0831],[-48.61203,-25.08274],[-48.61269,-25.08255],[-48.61348,-25.08248],[-48.61763,-25.0823],[-48.61799,-25.08223],[-48.61962,-25.0814],[-48.62036,-25.08116],[-48.62233,-25.08096],[-48.62336,-25.08097],[-48.62999,-25.08307],[-48.63272,-25.08356],[-48.63337,-25.08348],[-48.63483,-25.08277],[-48.63559,-25.08256],[-48.63656,-25.08251],[-48.63785,-25.08275],[-48.6386,-25.08277],[-48.64044,-25.08223],[-48.64117,-25.08224],[-48.64152,-25.08234],[-48.64205,-25.08262],[-48.64248,-25.08307],[-48.64501,-25.08808],[-48.64645,-25.08997],[-48.64701,-25.09055],[-48.65337,-25.09615],[-48.65418,-25.09666],[-48.6547,-25.09688],[-48.65672,-25.09748],[-48.65853,-25.09776],[-48.65907,-25.0976],[-48.66018,-25.09696],[-48.66103,-25.0966],[-48.66247,-25.09627],[-48.66384,-25.09633],[-48.66683,-25.09682],[-48.6719,-25.09718],[-48.67263,-25.09736],[-48.67321,-25.09767],[-48.67459,-25.09911],[-48.67511,-25.09952],[-48.67571,-25.09978],[-48.67629,-25.09987],[-48.67698,-25.09982],[-48.67755,-25.09963],[-48.67929,-25.09853],[-48.67959,-25.09837],[-48.68019,-25.09822],[-48.68072,-25.0982],[-48.68493,-25.09856],[-48.68711,-25.0985],[-48.68777,-25.09868],[-48.68931,-25.09946],[-48.68996,-25.09963],[-48.69433,-25.09982],[-48.69543,-25.09999],[-48.69624,-25.1002],[-48.69737,-25.10065],[-48.69845,-25.10124],[-48.69944,-25.10189],[-48.70078,-25.10296],[-48.70159,-25.10329],[-48.70212,-25.10334],[-48.70515,-25.10324],[-48.70641,-25.10331],[-48.71434,-25.10456],[-48.71551,-25.10446],[-48.72959,-25.1006],[-48.73048,-25.10052],[-48.7309,-25.10056],[-48.73172,-25.10082],[-48.73778,-25.10358],[-48.73824,-25.10394],[-48.74065,-25.10644],[-48.74123,-25.10687],[-48.74189,-25.10724],[-48.74727,-25.10956],[-48.74991,-25.11086],[-48.75081,-25.11112],[-48.75173,-25.11109],[-48.75482,-25.11075],[-48.75929,-25.10966],[-48.76081,-25.10938],[-48.78552,-25.10685],[-48.78656,-25.10684],[-48.78803,-25.10701],[-48.79815,-25.10904],[-48.79936,-25.10917],[-48.80017,-25.10907],[-48.80088,-25.10888],[-48.8018,-25.10841],[-48.8076,-25.10411],[-48.80907,-25.10294],[-48.81095,-25.10091],[-48.81157,-25.10038],[-48.81213,-25.10005],[-48.81281,-25.09979],[-48.81324,-25.09966],[-48.81414,-25.09957],[-48.82503,-25.10035],[-48.82626,-25.10055],[-48.83011,-25.10144],[-48.83179,-25.10188],[-48.83285,-25.10224],[-48.83656,-25.10403],[-48.83747,-25.10444],[-48.83833,-25.10473],[-48.83941,-25.10498],[-48.84678,-25.10576],[-48.84811,-25.10616],[-48.84889,-25.10656],[-48.84954,-25.10701],[-48.85194,-25.1093],[-48.85279,-25.11033],[-48.85309,-25.11091],[-48.85336,-25.11177],[-48.85353,-25.1127],[-48.85402,-25.11653],[-48.85428,-25.11764],[-48.8552,-25.1205],[-48.85692,-25.12528],[-48.85739,-25.12688],[-48.8575,-25.12907],[-48.85732,-25.13577],[-48.85719,-25.13651],[-48.85613,-25.13981],[-48.85614,-25.14075],[-48.85627,-25.14119],[-48.8591,-25.14779],[-48.85936,-25.14903],[-48.85937,-25.15095],[-48.8595,-25.15153],[-48.85989,-25.15218],[-48.86095,-25.15359],[-48.86135,-25.15453],[-48.8614,-25.15516],[-48.86131,-25.15601],[-48.86135,-25.15676],[-48.86229,-25.16005],[-48.86225,-25.16048],[-48.86173,-25.16192],[-48.86161,-25.16247],[-48.86164,-25.16315],[-48.86184,-25.16377],[-48.86236,-25.16453],[-48.86677,-25.16889],[-48.86714,-25.16972],[-48.86812,-25.17356],[-48.86837,-25.17404],[-48.86897,-25.17472],[-48.86971,-25.17522],[-48.87061,-25.17554],[-48.87655,-25.17656],[-48.87755,-25.17675],[-48.87816,-25.17695],[-48.87873,-25.17736],[-48.87929,-25.17792],[-48.88037,-25.17927],[-48.88253,-25.1817],[-48.88396,-25.18262],[-48.88519,-25.18329],[-48.88567,-25.18371],[-48.88611,-25.18439],[-48.88616,-25.18509],[-48.88603,-25.18558],[-48.88547,-25.18665],[-48.88505,-25.18771],[-48.88461,-25.18921],[-48.88455,-25.1901],[-48.88483,-25.19084],[-48.88518,-25.19127],[-48.88566,-25.19162],[-48.88734,-25.19231],[-48.88801,-25.19272],[-48.88846,-25.19319],[-48.88921,-25.19423],[-48.88968,-25.1947],[-48.89139,-25.19603],[-48.89414,-25.1979],[-48.89473,-25.19858],[-48.8961,-25.20141],[-48.89618,-25.20183],[-48.89613,-25.20267],[-48.89574,-25.20394],[-48.89544,-25.20527],[-48.89546,-25.20622],[-48.89587,-25.20729],[-48.89657,-25.2085],[-48.8973,-25.21106],[-48.89768,-25.21167],[-48.89836,-25.21228],[-48.90224,-25.21484],[-48.90313,-25.21574],[-48.9037,-25.21654],[-48.904,-25.21723],[-48.90622,-25.22367],[-48.90799,-25.22995],[-48.90808,-25.23097],[-48.90809,-25.23404],[-48.908,-25.23501],[-48.90778,-25.23588],[-48.90734,-25.23691],[-48.9065,-25.23832],[-48.9042,-25.24069],[-48.90268,-25.24285],[-48.90246,-25.24369],[-48.90258,-25.2444],[-48.90296,-25.245],[-48.90409,-25.24628],[-48.90491,-25.24708],[-48.90598,-25.24778],[-48.90824,-25.24898],[-48.909,-25.24961],[-48.90964,-25.25038],[-48.91287,-25.25589],[-48.9132,-25.25671],[-48.91429,-25.26101],[-48.91491,-25.26304],[-48.91542,-25.26411],[-48.91766,-25.26791],[-48.93198,-25.28729],[-48.9327,-25.28791],[-48.93351,-25.28842],[-48.93384,-25.28874],[-48.93406,-25.28909],[-48.93434,-25.28987],[-48.93441,-25.29065],[-48.93437,-25.29153],[-48.93457,-25.29225],[-48.935,-25.29328],[-48.93547,-25.29397],[-48.93623,-25.29478],[-48.9389,-25.29695],[-48.9393,-25.29737],[-48.94034,-25.29808],[-48.94123,-25.29892],[-48.94178,-25.29967],[-48.94314,-25.30266],[-48.94373,-25.30334],[-48.94488,-25.30417],[-48.94584,-25.30466],[-48.94701,-25.30503],[-48.9482,-25.30517],[-48.94922,-25.30515],[-48.96254,-25.30272],[-48.96358,-25.30266],[-48.96431,-25.30279],[-48.96549,-25.30315],[-48.97787,-25.30709],[-48.98025,-25.30777],[-48.98186,-25.30791],[-48.98295,-25.30784],[-48.99454,-25.30602],[-48.99541,-25.30607],[-48.99622,-25.30623],[-48.99688,-25.30654],[-49.00226,-25.3105],[-49.00273,-25.31073],[-49.00356,-25.31098],[-49.00419,-25.31104],[-49.00493,-25.31097],[-49.00732,-25.31043],[-49.00901,-25.31018],[-49.01235,-25.3104],[-49.01335,-25.31056],[-49.01426,-25.31087],[-49.01529,-25.31143],[-49.01616,-25.31213],[-49.01675,-25.31278],[-49.01757,-25.31437],[-49.01867,-25.31721],[-49.01927,-25.31808],[-49.01983,-25.3186],[-49.02168,-25.31965],[-49.02261,-25.3203],[-49.0269,-25.32567],[-49.02999,-25.32921],[-49.03636,-25.33677],[-49.04333,-25.34399],[-49.0438,-25.34469],[-49.04416,-25.34544],[-49.04435,-25.34624],[-49.04438,-25.34719],[-49.04427,-25.34791],[-49.04403,-25.34867],[-49.04183,-25.35305],[-49.04146,-25.35404],[-49.04095,-25.35606],[-49.04075,-25.35766],[-49.04076,-25.35944],[-49.04095,-25.36107],[-49.04127,-25.36251],[-49.04178,-25.36407],[-49.04251,-25.36567],[-49.05179,-25.38093],[-49.05239,-25.38207],[-49.05333,-25.38452],[-49.05854,-25.40116],[-49.05912,-25.40271],[-49.06012,-25.40486],[-49.06069,-25.40591],[-49.06215,-25.40823],[-49.06363,-25.41015],[-49.07498,-25.42401],[-49.07637,-25.42528],[-49.08847,-25.43393],[-49.08967,-25.43507],[-49.09062,-25.43627],[-49.09126,-25.43732],[-49.09172,-25.43828],[-49.09224,-25.43987],[-49.09248,-25.44136],[-49.09251,-25.44255],[-49.0923,-25.44432],[-49.09213,-25.44504],[-49.09172,-25.44616],[-49.08849,-25.45328],[-49.08812,-25.4545],[-49.08793,-25.45554],[-49.08785,-25.45633],[-49.08787,-25.45736],[-49.08815,-25.45924],[-49.0889,-25.46156],[-49.09192,-25.46982],[-49.0927,-25.47163],[-49.09359,-25.47306],[-49.09446,-25.47417],[-49.09525,-25.47501],[-49.09626,-25.47591],[-49.09748,-25.4768],[-49.10522,-25.48181],[-49.10648,-25.48273],[-49.10795,-25.48413],[-49.10891,-25.4853],[-49.13072,-25.5151],[-49.13403,-25.51943],[-49.1379,-25.52415],[-49.14723,-25.53453],[-49.1492,-25.53686],[-49.14994,-25.53809],[-49.15033,-25.53893],[-49.15075,-25.54036],[-49.15094,-25.54184],[-49.1509,-25.54328],[-49.14982,-25.55503],[-49.14992,-25.55637],[-49.15012,-25.55734],[-49.15035,-25.55812],[-49.15096,-25.55946],[-49.15195,-25.56091],[-49.15283,-25.56187],[-49.15338,-25.56236],[-49.15488,-25.56342],[-49.15628,-25.5641],[-49.15784,-25.5646],[-49.16703,-25.56608],[-49.17337,-25.56755],[-49.19611,-25.57128],[-49.20007,-25.57188],[-49.20133,-25.572],[-49.20328,-25.57196],[-49.23338,-25.56809],[-49.23929,-25.56685],[-49.25887,-25.56246],[-49.26144,-25.56161],[-49.26267,-25.56111],[-49.26475,-25.56008],[-49.28053,-25.55094],[-49.28219,-25.55004],[-49.28442,-25.54899],[-49.286,-25.54834],[-49.28863,-25.54741],[-49.29131,-25.54667],[-49.30642,-25.54354],[-49.30801,-25.54295],[-49.30887,-25.54248],[-49.30978,-25.54178],[-49.31102,-25.54054],[-49.3118,-25.53961],[-49.31207,-25.53933],[-49.31227,-25.53891],[-49.31229,-25.53853],[-49.31199,-25.53817],[-49.31166,-25.53803],[-49.31145,-25.53803],[-49.31111,-25.53822],[-49.31096,-25.53844],[-49.31086,-25.53909],[-49.31098,-25.53973],[-49.31117,-25.54019],[-49.31141,-25.54062],[-49.31164,-25.54094],[-49.31321,-25.54245],[-49.31611,-25.54492],[-49.31767,-25.54602],[-49.31859,-25.54654],[-49.31996,-25.54715],[-49.33058,-25.55124],[-49.34367,-25.55614],[-49.34494,-25.55642],[-49.35369,-25.55771],[-49.36084,-25.55781],[-49.36214,-25.55776],[-49.36497,-25.5575],[-49.36657,-25.55766],[-49.36749,-25.55793],[-49.36832,-25.5583],[-49.37211,-25.56033],[-49.37485,-25.56187],[-49.37604,-25.56266],[-49.3816,-25.56716],[-49.38275,-25.56818],[-49.38617,-25.57219],[-49.38711,-25.57314],[-49.40812,-25.58919],[-49.41248,-25.59186],[-49.4132,-25.59234],[-49.4137,-25.59278],[-49.41424,-25.59336],[-49.41485,-25.59422],[-49.41717,-25.59795],[-49.41783,-25.59925],[-49.41875,-25.60075],[-49.42007,-25.60414],[-49.4224,-25.60889],[-49.42261,-25.60948],[-49.42295,-25.6118],[-49.42319,-25.61239],[-49.42352,-25.61284],[-49.42394,-25.61323],[-49.427,-25.61575],[-49.42762,-25.61618],[-49.42803,-25.61633],[-49.43998,-25.61893],[-49.44126,-25.61935],[-49.44419,-25.62049],[-49.44502,-25.6209],[-49.44913,-25.62404],[-49.45257,-25.62604],[-49.45606,-25.62899],[-49.45701,-25.63002],[-49.45928,-25.63293],[-49.45999,-25.63359],[-49.46049,-25.63394],[-49.46165,-25.63452],[-49.46626,-25.63627],[-49.46718,-25.63677],[-49.46799,-25.6374],[-49.46862,-25.63804],[-49.48302,-25.65697],[-49.48379,-25.65765],[-49.48451,-25.65812],[-49.49369,-25.66332],[-49.49456,-25.66409],[-49.49598,-25.6663],[-49.49682,-25.6671],[-49.49793,-25.66771],[-49.49855,-25.66793],[-49.49918,-25.668],[-49.50539,-25.66813],[-49.50599,-25.66824],[-49.50652,-25.66848],[-49.50693,-25.6688],[-49.51065,-25.67249],[-49.51143,-25.67306],[-49.51365,-25.67412],[-49.51502,-25.67457],[-49.51611,-25.67524],[-49.52052,-25.67734],[-49.52253,-25.67886],[-49.52557,-25.68137],[-49.52617,-25.68171],[-49.53373,-25.68484],[-49.53448,-25.68495],[-49.53512,-25.6852],[-49.53694,-25.6868],[-49.53922,-25.68896],[-49.54003,-25.68959],[-49.5426,-25.69017],[-49.54329,-25.69039],[-49.55488,-25.6951],[-49.55542,-25.69526],[-49.55605,-25.69541],[-49.56142,-25.69621],[-49.56511,-25.69605],[-49.56577,-25.69616],[-49.56627,-25.69634],[-49.57272,-25.69966],[-49.57354,-25.70026],[-49.57555,-25.7022],[-49.57622,-25.70264],[-49.5769,-25.70288],[-49.57777,-25.70297],[-49.58175,-25.70291],[-49.58271,-25.70313],[-49.58428,-25.70375],[-49.58489,-25.70391],[-49.58707,-25.70385],[-49.58755,-25.70392],[-49.58807,-25.70416],[-49.58929,-25.70525],[-49.59032,-25.70601],[-49.59143,-25.70677],[-49.59187,-25.70695],[-49.5925,-25.70697],[-49.59396,-25.70686],[-49.59846,-25.70709],[-49.59925,-25.70726],[-49.59981,-25.70759],[-49.60003,-25.70782],[-49.6012,-25.70971],[-49.6018,-25.71027],[-49.60246,-25.71045],[-49.60508,-25.71035],[-49.60551,-25.71047],[-49.60584,-25.71068],[-49.60612,-25.71106],[-49.60636,-25.71223],[-49.60662,-25.7128],[-49.60977,-25.71595],[-49.61032,-25.7163],[-49.61094,-25.71647],[-49.61463,-25.71692],[-49.61535,-25.71687],[-49.62128,-25.71383],[-49.62222,-25.71355],[-49.62285,-25.71353],[-49.63033,-25.71398],[-49.63567,-25.71432],[-49.63677,-25.71448],[-49.63751,-25.71482],[-49.64027,-25.71674],[-49.64124,-25.71727],[-49.64238,-25.71804],[-49.64304,-25.71827],[-49.64363,-25.71831],[-49.64402,-25.71826],[-49.6477,-25.71725],[-49.64828,-25.71715],[-49.64878,-25.71716],[-49.6537,-25.71779],[-49.65433,-25.71794],[-49.65819,-25.71925],[-49.65909,-25.71944],[-49.65995,-25.71951],[-49.67774,-25.71849],[-49.67872,-25.71829],[-49.6794,-25.71805],[-49.68501,-25.71592],[-49.68587,-25.71584],[-49.68682,-25.71609],[-49.69626,-25.72013],[-49.69684,-25.72042],[-49.69726,-25.72078],[-49.69805,-25.72217],[-49.69886,-25.724],[-49.69926,-25.72472],[-49.69965,-25.72511],[-49.69998,-25.72563],[-49.70017,-25.72621],[-49.70017,-25.72673],[-49.70128,-25.72921],[-49.70208,-25.73046],[-49.70313,-25.7315],[-49.70375,-25.73165],[-49.7043,-25.73157],[-49.70477,-25.7313],[-49.70554,-25.73056],[-49.70666,-25.73029],[-49.70786,-25.7302],[-49.70845,-25.73036],[-49.70895,-25.73067],[-49.70938,-25.73122],[-49.7095,-25.73155],[-49.7106,-25.7358],[-49.71055,-25.73671],[-49.70995,-25.73882],[-49.70997,-25.73925],[-49.71006,-25.73948],[-49.71046,-25.74],[-49.72291,-25.75092],[-49.7243,-25.75199],[-49.72528,-25.75286],[-49.72572,-25.75336],[-49.73655,-25.76285],[-49.73696,-25.76312],[-49.7374,-25.76315],[-49.73755,-25.76334],[-49.73768,-25.76375],[-49.73838,-25.7644],[-49.74173,-25.76909],[-49.74272,-25.77036],[-49.74324,-25.77088],[-49.74382,-25.77124],[-49.74479,-25.77168],[-49.74956,-25.77369],[-49.75011,-25.77381],[-49.75571,-25.7744],[-49.80919,-25.77993],[-49.81052,-25.7798],[-49.81156,-25.77951],[-49.81975,-25.77609],[-49.82127,-25.77583],[-49.82294,-25.77591],[-49.82459,-25.77626],[-49.82546,-25.77661],[-49.82641,-25.77715],[-49.82818,-25.77852],[-49.82878,-25.77881],[-49.82927,-25.77891],[-49.83084,-25.77897],[-49.83135,-25.77906],[-49.83521,-25.78073],[-49.83578,-25.78091],[-49.83659,-25.78095],[-49.83689,-25.78089],[-49.8385,-25.78026],[-49.83908,-25.78012],[-49.8396,-25.78013],[-49.84031,-25.78031],[-49.84434,-25.78202],[-49.84477,-25.78229],[-49.84513,-25.78269],[-49.84529,-25.78304],[-49.8455,-25.78452],[-49.84562,-25.78484],[-49.84603,-25.78529],[-49.84641,-25.78546],[-49.84682,-25.78552],[-49.84751,-25.78535],[-49.84793,-25.78499],[-49.84906,-25.78371],[-49.84958,-25.78341],[-49.84986,-25.78333],[-49.85081,-25.78332],[-49.8547,-25.78394],[-49.85623,-25.78412],[-49.85792,-25.78395],[-49.86146,-25.78341],[-49.86218,-25.78321],[-49.86307,-25.78276],[-49.86712,-25.78016],[-49.87003,-25.77931],[-49.87059,-25.77921],[-49.87242,-25.77912],[-49.87564,-25.77927],[-49.87652,-25.77945],[-49.87744,-25.78013],[-49.87765,-25.78042],[-49.87781,-25.78087],[-49.87798,-25.78651],[-49.87808,-25.78711],[-49.87824,-25.78751],[-49.8784,-25.78781],[-49.8788,-25.78827],[-49.87923,-25.78861],[-49.88127,-25.78981],[-49.89411,-25.79716],[-49.89635,-25.79802],[-49.89752,-25.79876],[-49.89865,-25.79988],[-49.90569,-25.80761],[-49.90695,-25.80948],[-49.90893,-25.81088],[-49.90922,-25.81119],[-49.9094,-25.81155],[-49.90949,-25.81225],[-49.90962,-25.81529],[-49.90989,-25.81607],[-49.91041,-25.81682],[-49.91447,-25.82198],[-49.9149,-25.82233],[-49.9153,-25.82254],[-49.91803,-25.82311],[-49.9197,-25.82354],[-49.92231,-25.82495],[-49.92457,-25.82579],[-49.92509,-25.82626],[-49.92526,-25.82649],[-49.92551,-25.82711],[-49.92609,-25.83358],[-49.92649,-25.83485],[-49.92779,-25.83816],[-49.92813,-25.83875],[-49.92847,-25.83911],[-49.92867,-25.83927],[-49.92943,-25.83959],[-49.93231,-25.84002],[-49.93319,-25.84031],[-49.93351,-25.8405],[-49.93451,-25.84138],[-49.93872,-25.84607],[-49.93985,-25.84716],[-49.94292,-25.84988],[-49.94331,-25.85011],[-49.94375,-25.85023],[-49.94514,-25.8501],[-49.94588,-25.85021],[-49.94728,-25.8511],[-49.95092,-25.85362],[-49.95227,-25.85431],[-49.95513,-25.8554],[-49.95607,-25.85558],[-49.95686,-25.8555],[-49.96002,-25.85488],[-49.96119,-25.85478],[-49.9645,-25.85481],[-49.96596,-25.85492],[-49.96701,-25.85528],[-49.97069,-25.85734],[-49.97127,-25.85777],[-49.97153,-25.8581],[-49.97172,-25.8586],[-49.97193,-25.86048],[-49.97206,-25.86089],[-49.97384,-25.8638],[-49.97448,-25.86531],[-49.97768,-25.87786],[-49.97831,-25.87885],[-49.97887,-25.87935],[-49.97971,-25.87984],[-49.98091,-25.8802],[-49.99395,-25.88317],[-49.995,-25.88335],[-49.99594,-25.88332],[-50.00886,-25.88194],[-50.00941,-25.88167],[-50.01029,-25.88091],[-50.01109,-25.88075],[-50.01444,-25.88084],[-50.01514,-25.88102],[-50.01673,-25.88172],[-50.01756,-25.88178],[-50.01811,-25.88161],[-50.02264,-25.87961],[-50.02415,-25.87931],[-50.02831,-25.87897],[-50.0289,-25.87875],[-50.02977,-25.8782],[-50.03023,-25.878],[-50.03069,-25.87792],[-50.03188,-25.87789],[-50.03244,-25.87776],[-50.03283,-25.87757],[-50.03538,-25.87538],[-50.03608,-25.87495],[-50.03673,-25.87471],[-50.03757,-25.87459],[-50.03804,-25.87461],[-50.04292,-25.87506],[-50.04406,-25.87503],[-50.04492,-25.87485],[-50.04564,-25.87458],[-50.05018,-25.87215],[-50.05044,-25.87207],[-50.05093,-25.87204],[-50.0523,-25.87215],[-50.05405,-25.87279],[-50.05447,-25.87285],[-50.05502,-25.8728],[-50.05605,-25.87252],[-50.05681,-25.87223],[-50.05878,-25.87106],[-50.05946,-25.87084],[-50.06553,-25.86977],[-50.06618,-25.86958],[-50.06662,-25.86928],[-50.06685,-25.86892],[-50.06713,-25.8675],[-50.06709,-25.86719],[-50.06742,-25.86641],[-50.06771,-25.86594],[-50.07278,-25.86217],[-50.07308,-25.86176],[-50.07375,-25.86032],[-50.074,-25.86005],[-50.07426,-25.85989],[-50.07473,-25.85975],[-50.07719,-25.85929],[-50.07801,-25.85904],[-50.0799,-25.8574],[-50.08031,-25.85723],[-50.08074,-25.85717],[-50.08141,-25.8573],[-50.08391,-25.85829],[-50.08463,-25.85851],[-50.08785,-25.85903],[-50.09011,-25.8599],[-50.09061,-25.85987],[-50.092,-25.85907],[-50.09274,-25.85888],[-50.09327,-25.85894],[-50.09578,-25.85972],[-50.09653,-25.85983],[-50.09758,-25.85976],[-50.10087,-25.85905],[-50.10181,-25.85899],[-50.10283,-25.8591],[-50.10558,-25.86015],[-50.10815,-25.86126],[-50.10953,-25.86177],[-50.11205,-25.86251],[-50.11275,-25.86261],[-50.11383,-25.8626],[-50.11794,-25.86224],[-50.11863,-25.86228],[-50.11898,-25.86237],[-50.11967,-25.86276],[-50.12093,-25.86384],[-50.12219,-25.8647],[-50.12348,-25.8653],[-50.12442,-25.86553],[-50.12531,-25.86552],[-50.13137,-25.86439],[-50.13262,-25.86399],[-50.13572,-25.86247],[-50.13645,-25.86231],[-50.13734,-25.86242],[-50.13926,-25.86332],[-50.13991,-25.86352],[-50.14814,-25.86516],[-50.14845,-25.86529],[-50.14879,-25.86567],[-50.15078,-25.87032],[-50.15139,-25.87106],[-50.15209,-25.87136],[-50.16043,-25.87335],[-50.16381,-25.87425],[-50.17052,-25.87783],[-50.17156,-25.87849],[-50.17261,-25.87938],[-50.17324,-25.88007],[-50.17448,-25.8818],[-50.17501,-25.88231],[-50.17802,-25.88452],[-50.17885,-25.8849],[-50.18193,-25.88551],[-50.18245,-25.88566],[-50.18268,-25.8858],[-50.18305,-25.8862],[-50.18358,-25.88701],[-50.18485,-25.89031],[-50.18516,-25.89084],[-50.18548,-25.89116],[-50.18675,-25.89169],[-50.19061,-25.89301],[-50.19156,-25.89306],[-50.19233,-25.89293],[-50.20169,-25.89029],[-50.2024,-25.8902],[-50.20538,-25.89025],[-50.20656,-25.89011],[-50.20896,-25.889],[-50.21024,-25.88866],[-50.2116,-25.8886],[-50.22382,-25.8893],[-50.22802,-25.88946],[-50.24449,-25.88712],[-50.2455,-25.88705],[-50.24703,-25.88723],[-50.24771,-25.88743],[-50.24851,-25.88778],[-50.2603,-25.895],[-50.26116,-25.89536],[-50.26229,-25.89564],[-50.26366,-25.89573],[-50.26495,-25.89555],[-50.28338,-25.89079],[-50.28503,-25.89043],[-50.28612,-25.89036],[-50.28736,-25.89049],[-50.29466,-25.89237],[-50.29611,-25.8926],[-50.30896,-25.89139],[-50.30975,-25.89139],[-50.31063,-25.89156],[-50.31174,-25.89204],[-50.32414,-25.89864],[-50.32541,-25.89904],[-50.327,-25.89919],[-50.33314,-25.8983],[-50.35619,-25.89462],[-50.3569,-25.89458],[-50.36607,-25.89484],[-50.36728,-25.89465],[-50.37047,-25.89367],[-50.37159,-25.89352],[-50.3723,-25.8936],[-50.37582,-25.89434],[-50.37636,-25.89433],[-50.37685,-25.8942],[-50.37747,-25.8938],[-50.38068,-25.89023],[-50.38115,-25.88932],[-50.3848,-25.8795],[-50.38484,-25.879],[-50.38478,-25.87869],[-50.38423,-25.87686],[-50.38416,-25.87493],[-50.38422,-25.87481],[-50.38437,-25.87473],[-50.38452,-25.87475],[-50.38538,-25.87511],[-50.38744,-25.87579],[-50.38837,-25.87556],[-50.39028,-25.87557],[-50.39481,-25.8715],[-50.39509,-25.87117],[-50.39525,-25.87064],[-50.3952,-25.86915],[-50.39494,-25.86837],[-50.39512,-25.86817],[-50.39529,-25.86818],[-50.39658,-25.86873],[-50.42306,-25.87535],[-50.4244,-25.8758],[-50.42495,-25.87605],[-50.42619,-25.87683],[-50.42709,-25.87765],[-50.42805,-25.8789],[-50.43812,-25.89675],[-50.43911,-25.89875],[-50.44861,-25.91553],[-50.44959,-25.9169],[-50.45028,-25.91763],[-50.45197,-25.91889],[-50.49339,-25.94327],[-50.57614,-25.99145],[-50.59634,-26.00331],[-50.6038,-26.00733],[-50.6061,-26.0081],[-50.61091,-26.00956],[-50.61241,-26.01012],[-50.61361,-26.01085],[-50.61551,-26.01245],[-50.6164,-26.01291],[-50.61709,-26.01313],[-50.62613,-26.01519],[-50.62811,-26.01556],[-50.62909,-26.01556],[-50.63261,-26.0152],[-50.63353,-26.01517],[-50.63419,-26.01522],[-50.6412,-26.01633],[-50.64232,-26.01674],[-50.64822,-26.02013],[-50.64889,-26.0204],[-50.64949,-26.02048],[-50.65454,-26.02062],[-50.67246,-26.02479],[-50.67323,-26.02519],[-50.67545,-26.02696],[-50.67619,-26.02725],[-50.67795,-26.02746],[-50.67833,-26.02759],[-50.67864,-26.02778],[-50.68225,-26.03081],[-50.68318,-26.03125],[-50.68452,-26.03174],[-50.68609,-26.03266],[-50.68694,-26.03307],[-50.68944,-26.03353],[-50.69179,-26.03439],[-50.69285,-26.03465],[-50.69347,-26.03465],[-50.69686,-26.03404],[-50.69757,-26.03397],[-50.69823,-26.03411],[-50.6995,-26.03464],[-50.69994,-26.03502],[-50.70022,-26.03543],[-50.70347,-26.04162],[-50.70549,-26.04659],[-50.70598,-26.04743],[-50.70647,-26.04797],[-50.70675,-26.04816],[-50.709,-26.04906],[-50.70964,-26.0495],[-50.70992,-26.04984],[-50.71155,-26.05281],[-50.71239,-26.05384],[-50.71354,-26.05483],[-50.7232,-26.06241],[-50.72381,-26.06282],[-50.73839,-26.07184],[-50.74096,-26.07326],[-50.74815,-26.077],[-50.76246,-26.08563],[-50.77511,-26.09336],[-50.77592,-26.09368],[-50.77659,-26.09371],[-50.78223,-26.0926],[-50.78324,-26.0926],[-50.78396,-26.09279],[-50.79185,-26.09588],[-50.79267,-26.09632],[-50.79526,-26.09843],[-50.81107,-26.10807],[-50.81211,-26.10898],[-50.81516,-26.11301],[-50.816,-26.11386],[-50.8224,-26.11802],[-50.82335,-26.11852],[-50.82435,-26.11887],[-50.82527,-26.11905],[-50.83512,-26.12027],[-50.84071,-26.1212],[-50.84124,-26.12135],[-50.84201,-26.12174],[-50.85069,-26.1282],[-50.85189,-26.129],[-50.85833,-26.13291],[-50.8649,-26.13764],[-50.86566,-26.13836],[-50.87672,-26.15112],[-50.88034,-26.15406],[-50.88547,-26.15867],[-50.88785,-26.16],[-50.891,-26.16116],[-50.89159,-26.16145],[-50.89684,-26.16502],[-50.902,-26.16791],[-50.90316,-26.16835],[-50.90885,-26.16951],[-50.90979,-26.16998],[-50.91156,-26.17118],[-50.91283,-26.17221],[-50.92264,-26.18159],[-50.9233,-26.18204],[-50.92382,-26.18221],[-50.92431,-26.18225],[-50.92512,-26.18214],[-50.9261,-26.18167],[-50.92873,-26.1802],[-50.92966,-26.17985],[-50.93035,-26.17966],[-50.93138,-26.17952],[-50.93283,-26.17958],[-50.93461,-26.17994],[-50.93541,-26.18024],[-50.93625,-26.1809],[-50.93851,-26.18349],[-50.93883,-26.18375],[-50.93924,-26.18399],[-50.93989,-26.18423],[-50.94023,-26.1843],[-50.94099,-26.18429],[-50.94715,-26.18273],[-50.94789,-26.18247],[-50.94857,-26.18201],[-50.95037,-26.18015],[-50.95108,-26.17971],[-50.95156,-26.17952],[-50.95249,-26.17939],[-50.95504,-26.17937],[-50.95588,-26.17944],[-50.95695,-26.17965],[-50.95821,-26.18017],[-50.96066,-26.18167],[-50.96166,-26.18213],[-50.96229,-26.18225],[-50.96275,-26.18225],[-50.96452,-26.182],[-50.96602,-26.18201],[-50.96755,-26.18234],[-50.9685,-26.18276],[-50.96894,-26.18303],[-50.96972,-26.18364],[-50.97146,-26.18555],[-50.97558,-26.18932],[-50.97972,-26.1943],[-50.98057,-26.19521],[-50.98117,-26.19571],[-50.98261,-26.19654],[-50.98342,-26.19683],[-50.98511,-26.19712],[-51.00154,-26.19818],[-51.0039,-26.19798],[-51.01835,-26.19598],[-51.0197,-26.19589],[-51.02047,-26.19592],[-51.05151,-26.19796],[-51.05292,-26.1983],[-51.05402,-26.19873],[-51.05833,-26.20079],[-51.05928,-26.20109],[-51.05992,-26.20116],[-51.06064,-26.20108],[-51.06103,-26.20095],[-51.0669,-26.19821],[-51.06774,-26.19796],[-51.06865,-26.19792],[-51.07361,-26.19813],[-51.07468,-26.19805],[-51.07603,-26.19769],[-51.07863,-26.19658],[-51.08052,-26.19628],[-51.08257,-26.19551],[-51.08349,-26.19542],[-51.08613,-26.196],[-51.08856,-26.19667],[-51.09202,-26.19859],[-51.09256,-26.19882],[-51.0932,-26.19898],[-51.09464,-26.19898],[-51.09555,-26.19873],[-51.09672,-26.19809],[-51.09882,-26.19673],[-51.09924,-26.19658],[-51.09992,-26.19651],[-51.10057,-26.19661],[-51.10258,-26.19741],[-51.10306,-26.19754],[-51.10665,-26.19745],[-51.10843,-26.19754],[-51.10952,-26.19779],[-51.11185,-26.19878],[-51.11234,-26.19912],[-51.11274,-26.19957],[-51.113,-26.2002],[-51.11299,-26.20203],[-51.1128,-26.20602],[-51.11297,-26.20681],[-51.1135,-26.2076],[-51.11389,-26.20793],[-51.11446,-26.20824],[-51.12785,-26.21348],[-51.12856,-26.21384],[-51.12901,-26.21427],[-51.12989,-26.21566],[-51.13577,-26.22563],[-51.13666,-26.22664],[-51.13777,-26.22746],[-51.13899,-26.22802],[-51.14006,-26.22865],[-51.14036,-26.22902],[-51.14095,-26.23019],[-51.14134,-26.23066],[-51.14221,-26.23117],[-51.14489,-26.2324],[-51.14626,-26.23349],[-51.14689,-26.23369],[-51.14861,-26.23371],[-51.15095,-26.23448],[-51.15163,-26.23496],[-51.15259,-26.23596],[-51.15325,-26.23628],[-51.15507,-26.23683],[-51.15573,-26.23725],[-51.15619,-26.23769],[-51.15806,-26.23991],[-51.15844,-26.24074],[-51.15938,-26.24365],[-51.16072,-26.24583],[-51.1616,-26.24928],[-51.16271,-26.25196],[-51.16291,-26.25375],[-51.16312,-26.25427],[-51.16346,-26.25472],[-51.16389,-26.25509],[-51.16665,-26.25638],[-51.16727,-26.25678],[-51.16752,-26.25703],[-51.16809,-26.25811],[-51.16892,-26.26004],[-51.16976,-26.26174],[-51.17373,-26.26813],[-51.17943,-26.27534],[-51.18123,-26.27757],[-51.18164,-26.27801],[-51.1824,-26.27862],[-51.18958,-26.28301],[-51.19377,-26.28475],[-51.19467,-26.28485],[-51.19612,-26.28457],[-51.1965,-26.28459],[-51.19695,-26.28473],[-51.19722,-26.28494],[-51.19795,-26.28633],[-51.19896,-26.28746],[-51.19905,-26.28777],[-51.19908,-26.28862],[-51.1993,-26.28927],[-51.19973,-26.28963],[-51.20071,-26.29016],[-51.20115,-26.29048],[-51.20139,-26.29084],[-51.20237,-26.29316],[-51.20277,-26.29382],[-51.20339,-26.29427],[-51.20653,-26.29587],[-51.20686,-26.29613],[-51.2073,-26.29666],[-51.20762,-26.2974],[-51.20826,-26.30018],[-51.20896,-26.3014],[-51.2112,-26.30448],[-51.21407,-26.30711],[-51.21675,-26.31048],[-51.21849,-26.31297],[-51.2233,-26.32092],[-51.22377,-26.32147],[-51.22571,-26.32319],[-51.2263,-26.32357],[-51.22665,-26.3237],[-51.22763,-26.32383],[-51.22917,-26.32359],[-51.22961,-26.32356],[-51.23015,-26.32363],[-51.23088,-26.32395],[-51.23251,-26.32512],[-51.23351,-26.32553],[-51.23532,-26.32586],[-51.23769,-26.3259],[-51.2392,-26.32613],[-51.24032,-26.32656],[-51.24426,-26.32867],[-51.24487,-26.32886],[-51.24631,-26.32904],[-51.24704,-26.32932],[-51.24751,-26.32968],[-51.24935,-26.33153],[-51.2536,-26.33595],[-51.25427,-26.337],[-51.25476,-26.33836],[-51.25612,-26.34348],[-51.25618,-26.34429],[-51.25594,-26.34489],[-51.25532,-26.34558],[-51.25278,-26.34682],[-51.2514,-26.34765],[-51.25108,-26.34805],[-51.25087,-26.34852],[-51.25076,-26.34936],[-51.25085,-26.34976],[-51.25115,-26.35029],[-51.25514,-26.35626],[-51.25591,-26.35704],[-51.25727,-26.35806],[-51.25822,-26.35903],[-51.25884,-26.36006],[-51.25971,-26.36223],[-51.25985,-26.36286],[-51.25985,-26.36373],[-51.2596,-26.36474],[-51.25922,-26.36553],[-51.25737,-26.36812],[-51.25696,-26.3688],[-51.2566,-26.37],[-51.25663,-26.37135],[-51.2571,-26.3742],[-51.2574,-26.37516],[-51.25788,-26.37591],[-51.25838,-26.37642],[-51.25907,-26.37692],[-51.26021,-26.37734],[-51.26304,-26.37811],[-51.26359,-26.37836],[-51.26385,-26.37856],[-51.26432,-26.37912],[-51.26573,-26.38167],[-51.26635,-26.38264],[-51.26682,-26.38322],[-51.26798,-26.38427],[-51.26945,-26.38514],[-51.27283,-26.38663],[-51.27622,-26.38788],[-51.277,-26.38825],[-51.27763,-26.38868],[-51.27825,-26.38941],[-51.27863,-26.39039],[-51.27885,-26.39433],[-51.27898,-26.39483],[-51.27922,-26.39524],[-51.27969,-26.39574],[-51.28482,-26.39956],[-51.2855,-26.39995],[-51.2871,-26.40054],[-51.28756,-26.40082],[-51.28801,-26.4013],[-51.28924,-26.40311],[-51.28942,-26.40371],[-51.28942,-26.40415],[-51.28915,-26.40495],[-51.28746,-26.40769],[-51.28518,-26.41278],[-51.28505,-26.41351],[-51.28518,-26.41456],[-51.28547,-26.41516],[-51.2859,-26.41565],[-51.28651,-26.41608],[-51.28725,-26.41638],[-51.29238,-26.41706],[-51.29556,-26.4179],[-51.29688,-26.41849],[-51.30551,-26.42327],[-51.31403,-26.42957],[-51.315,-26.42991],[-51.31646,-26.43019],[-51.31716,-26.43052],[-51.31774,-26.43098],[-51.31876,-26.43202],[-51.31919,-26.43257],[-51.31956,-26.43347],[-51.31996,-26.43588],[-51.31998,-26.43644],[-51.31978,-26.43707],[-51.31917,-26.43804],[-51.31892,-26.43895],[-51.3186,-26.4435],[-51.31864,-26.44413],[-51.31873,-26.44453],[-51.31911,-26.44503],[-51.32045,-26.44587],[-51.32095,-26.44634],[-51.32121,-26.44679],[-51.32135,-26.44739],[-51.32134,-26.44777],[-51.3212,-26.44826],[-51.32089,-26.44875],[-51.32019,-26.44958],[-51.31994,-26.45008],[-51.3198,-26.45088],[-51.31986,-26.45132],[-51.32,-26.45176],[-51.32292,-26.4582],[-51.32312,-26.45918],[-51.32372,-26.46415],[-51.32395,-26.46517],[-51.32425,-26.46582],[-51.32478,-26.46652],[-51.32648,-26.46787],[-51.3267,-26.46811],[-51.32701,-26.46867],[-51.32805,-26.47233],[-51.328,-26.47299],[-51.32754,-26.47444],[-51.32758,-26.47523],[-51.32799,-26.47599],[-51.32959,-26.47726],[-51.32997,-26.47799],[-51.33004,-26.47838],[-51.32979,-26.48048],[-51.32983,-26.48119],[-51.33004,-26.48163],[-51.33041,-26.48205],[-51.33188,-26.48295],[-51.33228,-26.48329],[-51.33429,-26.48601],[-51.3348,-26.48656],[-51.33552,-26.48714],[-51.33653,-26.48772],[-51.34061,-26.48954],[-51.34221,-26.49018],[-51.34304,-26.49066],[-51.3461,-26.49323],[-51.34686,-26.49401],[-51.34706,-26.49432],[-51.34735,-26.49529],[-51.34732,-26.4961],[-51.34712,-26.49702],[-51.34707,-26.49765],[-51.34717,-26.49868],[-51.34771,-26.50182],[-51.34793,-26.50262],[-51.34815,-26.50309],[-51.34887,-26.50419],[-51.34959,-26.50495],[-51.35584,-26.51106],[-51.35658,-26.51203],[-51.35687,-26.51263],[-51.3571,-26.51345],[-51.35719,-26.51449],[-51.35677,-26.51873],[-51.35679,-26.51909],[-51.35709,-26.5204],[-51.35788,-26.52188],[-51.35803,-26.52233],[-51.35803,-26.52288],[-51.35747,-26.52421],[-51.35735,-26.52519],[-51.3574,-26.52557],[-51.35765,-26.52613],[-51.35816,-26.52678],[-51.35856,-26.5271],[-51.35911,-26.52738],[-51.35971,-26.52752],[-51.3615,-26.5276],[-51.36218,-26.52773],[-51.37178,-26.53081],[-51.3724,-26.53106],[-51.37328,-26.53156],[-51.37392,-26.53208],[-51.37514,-26.53351],[-51.37628,-26.53452],[-51.38078,-26.53686],[-51.38444,-26.53826],[-51.38577,-26.53884],[-51.38657,-26.53937],[-51.38712,-26.53985],[-51.38855,-26.54151],[-51.38911,-26.54185],[-51.38975,-26.54206],[-51.39059,-26.5421],[-51.39207,-26.54181],[-51.39293,-26.54176],[-51.39959,-26.5427],[-51.40087,-26.54264],[-51.4021,-26.54235],[-51.40326,-26.54182],[-51.404,-26.54135],[-51.40559,-26.53993],[-51.40649,-26.53933],[-51.40735,-26.53895],[-51.40867,-26.53858],[-51.40981,-26.53851],[-51.41855,-26.53842],[-51.41981,-26.5382],[-51.42197,-26.53769],[-51.42242,-26.53765],[-51.42323,-26.53775],[-51.42403,-26.5381],[-51.42441,-26.53841],[-51.42474,-26.53883],[-51.42825,-26.54556],[-51.42886,-26.54631],[-51.42922,-26.54661],[-51.42992,-26.54695],[-51.43225,-26.54757],[-51.43285,-26.54786],[-51.43372,-26.5486],[-51.43465,-26.5498],[-51.4352,-26.55035],[-51.43614,-26.55101],[-51.43949,-26.55259],[-51.44028,-26.55321],[-51.44081,-26.55392],[-51.44212,-26.55718],[-51.44296,-26.55886],[-51.44336,-26.55984],[-51.44643,-26.57083],[-51.44658,-26.57171],[-51.44703,-26.57731],[-51.44735,-26.57863],[-51.44812,-26.58019],[-51.45233,-26.58635],[-51.45244,-26.58664],[-51.45249,-26.5872],[-51.45221,-26.58894],[-51.45225,-26.58938],[-51.45254,-26.5901],[-51.45296,-26.59059],[-51.45403,-26.59166],[-51.45464,-26.59207],[-51.45529,-26.59231],[-51.45689,-26.5926],[-51.4581,-26.59292],[-51.45988,-26.59376],[-51.46052,-26.59415],[-51.46125,-26.59476],[-51.4622,-26.59572],[-51.46335,-26.59705],[-51.46378,-26.59782],[-51.4638,-26.5984],[-51.46368,-26.59882],[-51.46324,-26.59969],[-51.46317,-26.60019],[-51.46331,-26.60088],[-51.46398,-26.602],[-51.46449,-26.60245],[-51.47319,-26.60762],[-51.47403,-26.60802],[-51.47468,-26.60824],[-51.478,-26.60898],[-51.48119,-26.6096],[-51.49625,-26.61297],[-51.49688,-26.6133],[-51.49736,-26.61395],[-51.50357,-26.63005],[-51.50385,-26.63056],[-51.50441,-26.63131],[-51.50564,-26.63242],[-51.50933,-26.63548],[-51.51006,-26.63631],[-51.51277,-26.64075],[-51.51291,-26.64122],[-51.51305,-26.64274],[-51.51377,-26.64504],[-51.51412,-26.64578],[-51.51468,-26.64623],[-51.51581,-26.64693],[-51.51636,-26.64719],[-51.5173,-26.64741],[-51.5216,-26.64811],[-51.52282,-26.6484],[-51.52364,-26.64873],[-51.52501,-26.64967],[-51.53206,-26.65549],[-51.54265,-26.66206],[-51.54684,-26.66486],[-51.54727,-26.66524],[-51.54754,-26.6655],[-51.54814,-26.66644],[-51.5518,-26.67531],[-51.55229,-26.67634],[-51.55293,-26.67715],[-51.55347,-26.67764],[-51.55445,-26.67829],[-51.56028,-26.68137],[-51.56409,-26.6835],[-51.56491,-26.68413],[-51.5657,-26.68498],[-51.56608,-26.68561],[-51.56642,-26.68645],[-51.56763,-26.69247],[-51.56812,-26.6936],[-51.56866,-26.69433],[-51.56927,-26.69495],[-51.57335,-26.69774],[-51.57473,-26.69857],[-51.57558,-26.69929],[-51.57877,-26.70141],[-51.58271,-26.70386],[-51.58367,-26.70412],[-51.58444,-26.70416],[-51.58597,-26.70402],[-51.58919,-26.70356],[-51.59027,-26.70353],[-51.59415,-26.7038],[-51.59542,-26.70411],[-51.5961,-26.70437],[-51.61224,-26.71311],[-51.61349,-26.71397],[-51.61639,-26.71647],[-51.61828,-26.71787],[-51.61995,-26.71894],[-51.62358,-26.72086],[-51.6278,-26.72286],[-51.63407,-26.72607],[-51.63959,-26.72878],[-51.64118,-26.72975],[-51.6573,-26.74333],[-51.66037,-26.7468],[-51.66146,-26.74813],[-51.66178,-26.74865],[-51.66399,-26.75497],[-51.66763,-26.76212],[-51.66871,-26.76408],[-51.66939,-26.76504],[-51.67081,-26.76654],[-51.68766,-26.78227],[-51.6882,-26.78297],[-51.68856,-26.78386],[-51.68866,-26.78476],[-51.68839,-26.78853],[-51.68844,-26.78972],[-51.68862,-26.79025],[-51.68891,-26.79077],[-51.68973,-26.79169],[-51.69297,-26.79489],[-51.69379,-26.79547],[-51.69452,-26.79578],[-51.69561,-26.79604],[-51.69728,-26.79632],[-51.70046,-26.79677],[-51.70495,-26.79752],[-51.71005,-26.79865],[-51.71143,-26.79909],[-51.7126,-26.79979],[-51.72094,-26.80602],[-51.72213,-26.80712],[-51.72281,-26.80792],[-51.72356,-26.80904],[-51.72392,-26.80996],[-51.72407,-26.81082],[-51.72415,-26.81354],[-51.72404,-26.81436],[-51.72388,-26.81477],[-51.72089,-26.82053],[-51.72078,-26.82121],[-51.72099,-26.82169],[-51.72134,-26.82197],[-51.72174,-26.82211],[-51.7241,-26.82207],[-51.72446,-26.82216],[-51.72491,-26.82247],[-51.72547,-26.82306],[-51.72585,-26.82372],[-51.72739,-26.82823],[-51.72792,-26.82915],[-51.72856,-26.82972],[-51.73108,-26.83137],[-51.73365,-26.83279],[-51.73698,-26.83601],[-51.73815,-26.83663],[-51.73983,-26.83709],[-51.74062,-26.83715],[-51.74242,-26.83691],[-51.74336,-26.83701],[-51.7453,-26.83773],[-51.74598,-26.83821],[-51.74638,-26.83864],[-51.74662,-26.83907],[-51.74767,-26.843],[-51.74774,-26.84383],[-51.74766,-26.84464],[-51.74746,-26.84539],[-51.7453,-26.85034],[-51.74342,-26.85431],[-51.74311,-26.85523],[-51.743,-26.85655],[-51.7432,-26.85766],[-51.74356,-26.85858],[-51.74407,-26.85935],[-51.74515,-26.86072],[-51.74586,-26.86196],[-51.75006,-26.87121],[-51.75027,-26.87215],[-51.75023,-26.87285],[-51.74958,-26.87477],[-51.74952,-26.87535],[-51.74969,-26.8762],[-51.75008,-26.87684],[-51.75101,-26.87769],[-51.75695,-26.88216],[-51.75774,-26.88325],[-51.75889,-26.88593],[-51.75958,-26.88693],[-51.76022,-26.88751],[-51.76245,-26.88906],[-51.76287,-26.88942],[-51.76324,-26.88989],[-51.76345,-26.89035],[-51.76398,-26.89217],[-51.76431,-26.89271],[-51.76472,-26.8931],[-51.76985,-26.89675],[-51.77028,-26.89715],[-51.77104,-26.89822],[-51.77246,-26.90199],[-51.77367,-26.90433],[-51.77431,-26.9052],[-51.77506,-26.90588],[-51.77567,-26.90629],[-51.7767,-26.90679],[-51.78155,-26.90776],[-51.78235,-26.90802],[-51.78566,-26.90948],[-51.78624,-26.90982],[-51.78666,-26.91019],[-51.78693,-26.91061],[-51.78729,-26.9115],[-51.78773,-26.91193],[-51.78825,-26.91218],[-51.7886,-26.91227],[-51.78916,-26.91225],[-51.79154,-26.91182],[-51.79283,-26.91168],[-51.79427,-26.91182],[-51.79541,-26.91218],[-51.79657,-26.91282],[-51.80425,-26.918],[-51.80709,-26.92001],[-51.80777,-26.92066],[-51.80858,-26.92164],[-51.80928,-26.92267],[-51.80989,-26.92382],[-51.81051,-26.92539],[-51.81181,-26.92962],[-51.81242,-26.93075],[-51.81372,-26.9324],[-51.81445,-26.93318],[-51.82124,-26.9394],[-51.82186,-26.94008],[-51.82237,-26.94102],[-51.82419,-26.94581],[-51.8245,-26.94649],[-51.82496,-26.94719],[-51.82584,-26.9481],[-51.82804,-26.94978],[-51.83185,-26.95366],[-51.83251,-26.95412],[-51.83472,-26.9553],[-51.83538,-26.95574],[-51.83581,-26.95621],[-51.83612,-26.95673],[-51.83709,-26.95909],[-51.83762,-26.96018],[-51.83819,-26.96113],[-51.83904,-26.96225],[-51.83965,-26.96291],[-51.8408,-26.96393],[-51.84358,-26.96575],[-51.84444,-26.96605],[-51.84628,-26.96603],[-51.84718,-26.96621],[-51.85009,-26.96728],[-51.85176,-26.96859],[-51.8526,-26.96908],[-51.85403,-26.96924],[-51.85447,-26.96909],[-51.8547,-26.96869],[-51.8549,-26.96804],[-51.85493,-26.96719],[-51.8547,-26.96568],[-51.8547,-26.96493],[-51.85556,-26.95421],[-51.85581,-26.95312],[-51.85623,-26.95219],[-51.85883,-26.94895],[-51.87268,-26.9325],[-51.87825,-26.92383],[-51.87944,-26.92265],[-51.88084,-26.92172],[-51.88606,-26.91905],[-51.89188,-26.9172],[-51.89406,-26.91684],[-51.90335,-26.91566],[-51.90454,-26.91542],[-51.90491,-26.91505],[-51.90505,-26.91463],[-51.90516,-26.91251],[-51.90471,-26.91164],[-51.90464,-26.91121],[-51.90489,-26.90978],[-51.90515,-26.90923],[-51.90548,-26.90879],[-51.90597,-26.90836],[-51.9079,-26.90717],[-51.90881,-26.90688],[-51.90945,-26.90682],[-51.90992,-26.90685],[-51.91052,-26.907],[-51.91106,-26.90723],[-51.91171,-26.90768],[-51.91579,-26.9109],[-51.91998,-26.91499],[-51.92088,-26.91562],[-51.92162,-26.91601],[-51.92658,-26.91809],[-51.92805,-26.91846],[-51.9389,-26.92045],[-51.94025,-26.92049],[-51.94102,-26.92038],[-51.94202,-26.92012],[-51.94406,-26.91941],[-51.94502,-26.91923],[-51.94581,-26.91929],[-51.94645,-26.91945],[-51.94922,-26.92053],[-51.95051,-26.92088],[-51.95192,-26.92106],[-51.95225,-26.92105],[-51.95279,-26.92091],[-51.95326,-26.92065],[-51.95402,-26.91999],[-51.95935,-26.9149],[-51.96607,-26.9104],[-51.96813,-26.9091],[-51.96911,-26.90827],[-51.96998,-26.90711],[-51.97242,-26.90184],[-51.97289,-26.90137],[-51.97427,-26.90042],[-51.97735,-26.89758],[-51.97814,-26.89656],[-51.97961,-26.89429],[-51.97985,-26.89399],[-51.98045,-26.89352],[-51.98107,-26.89323],[-51.98248,-26.89287],[-51.98343,-26.8925],[-51.9841,-26.89204],[-51.9868,-26.88962],[-51.98777,-26.88908],[-51.98838,-26.88883],[-51.98948,-26.88855],[-51.99062,-26.88845],[-51.99472,-26.88855],[-51.99612,-26.88838],[-51.99868,-26.88759],[-51.99936,-26.88725],[-52.00071,-26.88641],[-52.00123,-26.88622],[-52.0042,-26.88578],[-52.00584,-26.88544],[-52.0102,-26.88421],[-52.01091,-26.88387],[-52.01123,-26.88363],[-52.01193,-26.88279],[-52.01603,-26.87663],[-52.01736,-26.87458],[-52.01812,-26.87315],[-52.0192,-26.87183],[-52.02156,-26.86824],[-52.02352,-26.86543],[-52.02767,-26.85971],[-52.02842,-26.85893],[-52.02997,-26.85765],[-52.03158,-26.85617],[-52.03255,-26.85572],[-52.03447,-26.85536],[-52.03514,-26.8553],[-52.03685,-26.8555],[-52.03749,-26.85568],[-52.04117,-26.85632],[-52.04797,-26.85764],[-52.04963,-26.85772],[-52.05047,-26.8576],[-52.05828,-26.85551],[-52.0594,-26.85507],[-52.06484,-26.85241],[-52.06562,-26.85216],[-52.06698,-26.85195],[-52.06816,-26.852],[-52.08688,-26.85454],[-52.08992,-26.85493],[-52.09088,-26.85497],[-52.09237,-26.85484],[-52.10374,-26.85342],[-52.10456,-26.85342],[-52.10571,-26.85356],[-52.10733,-26.85411],[-52.1107,-26.85558],[-52.11156,-26.85606],[-52.11237,-26.85666],[-52.11647,-26.86046],[-52.11748,-26.86119],[-52.11845,-26.86168],[-52.1193,-26.86194],[-52.12017,-26.86209],[-52.13033,-26.86353],[-52.13132,-26.86375],[-52.13233,-26.86416],[-52.13323,-26.86472],[-52.1339,-26.8653],[-52.13505,-26.86664],[-52.13582,-26.86738],[-52.13683,-26.86815],[-52.1376,-26.86853],[-52.146,-26.87158],[-52.14721,-26.87188],[-52.15096,-26.8723],[-52.15218,-26.87268],[-52.15372,-26.87333],[-52.15423,-26.87359],[-52.15535,-26.87434],[-52.15849,-26.87598],[-52.1592,-26.87643],[-52.1596,-26.87678],[-52.16023,-26.87768],[-52.16105,-26.88031],[-52.16144,-26.88122],[-52.16189,-26.88177],[-52.16245,-26.88219],[-52.16283,-26.88237],[-52.16347,-26.88257],[-52.16416,-26.88264],[-52.16763,-26.88247],[-52.16865,-26.88253],[-52.16952,-26.88266],[-52.17362,-26.8836],[-52.17436,-26.88371],[-52.17521,-26.88372],[-52.17636,-26.88359],[-52.17764,-26.8832],[-52.17877,-26.88259],[-52.18118,-26.88082],[-52.18276,-26.8799],[-52.18369,-26.87954],[-52.18767,-26.87831],[-52.18868,-26.87783],[-52.1899,-26.87761],[-52.19157,-26.87685],[-52.19312,-26.87571],[-52.19824,-26.87056],[-52.19898,-26.86992],[-52.20023,-26.86911],[-52.20439,-26.86671],[-52.20598,-26.86598],[-52.20659,-26.86579],[-52.20828,-26.8655],[-52.22119,-26.86361],[-52.22637,-26.86215],[-52.22752,-26.86192],[-52.23722,-26.86156],[-52.23796,-26.86145],[-52.23845,-26.86129],[-52.23912,-26.8609],[-52.24092,-26.85934],[-52.24203,-26.85865],[-52.24837,-26.85567],[-52.24926,-26.85538],[-52.25075,-26.8552],[-52.25478,-26.85536],[-52.25726,-26.85571],[-52.25832,-26.85602],[-52.25892,-26.85633],[-52.26105,-26.85692],[-52.26164,-26.85703],[-52.26226,-26.85697],[-52.26297,-26.85738],[-52.26567,-26.85831],[-52.26619,-26.85868],[-52.26738,-26.85981],[-52.2716,-26.86468],[-52.27283,-26.86692],[-52.27415,-26.86956],[-52.27454,-26.87012],[-52.27521,-26.87085],[-52.27612,-26.87153],[-52.27735,-26.87215],[-52.28256,-26.87448],[-52.28394,-26.87489],[-52.28481,-26.8749],[-52.28557,-26.87472],[-52.29006,-26.87286],[-52.29139,-26.87242],[-52.29286,-26.8723],[-52.29521,-26.87237],[-52.29683,-26.87227],[-52.29885,-26.87188],[-52.3006,-26.87129],[-52.30228,-26.87123],[-52.31234,-26.86935],[-52.31312,-26.86924],[-52.31406,-26.86923],[-52.31547,-26.86947],[-52.31674,-26.86994],[-52.31775,-26.87058],[-52.32005,-26.87242],[-52.3212,-26.87304],[-52.33932,-26.88004],[-52.34035,-26.88037],[-52.34106,-26.8805],[-52.34217,-26.88055],[-52.34303,-26.88046],[-52.34821,-26.87907],[-52.34945,-26.87894],[-52.35067,-26.87899],[-52.35269,-26.87943],[-52.35585,-26.88028],[-52.35721,-26.8805],[-52.35825,-26.88052],[-52.35923,-26.88045],[-52.36014,-26.88061],[-52.36251,-26.88076],[-52.36885,-26.88107],[-52.36986,-26.881],[-52.37149,-26.88123],[-52.37649,-26.88151],[-52.37921,-26.88205],[-52.38018,-26.88208],[-52.38118,-26.88228],[-52.38226,-26.88269],[-52.3912,-26.88452],[-52.39188,-26.88457],[-52.39269,-26.88483],[-52.3938,-26.88507],[-52.39478,-26.88516],[-52.3957,-26.88551],[-52.39744,-26.8858],[-52.39799,-26.88574],[-52.39875,-26.88545],[-52.40368,-26.8825],[-52.40441,-26.88225],[-52.40486,-26.88228],[-52.40525,-26.8824],[-52.40785,-26.88394],[-52.40893,-26.88438],[-52.41155,-26.88504],[-52.41415,-26.88553],[-52.42196,-26.88601],[-52.42494,-26.88613],[-52.43204,-26.88533],[-52.43396,-26.88501],[-52.43688,-26.88561],[-52.4379,-26.88573],[-52.43908,-26.88615],[-52.44036,-26.88635],[-52.44088,-26.88636],[-52.44171,-26.8862],[-52.44439,-26.88543],[-52.44496,-26.88541],[-52.44575,-26.88552],[-52.44675,-26.88591],[-52.44852,-26.88707],[-52.44923,-26.88744],[-52.45021,-26.88764],[-52.45345,-26.88806],[-52.45424,-26.88822],[-52.45461,-26.88837],[-52.45516,-26.88875],[-52.46308,-26.89579],[-52.46346,-26.89626],[-52.46366,-26.89704],[-52.46273,-26.90351],[-52.46275,-26.90387],[-52.46299,-26.90436],[-52.46316,-26.90457],[-52.46486,-26.90583],[-52.47633,-26.91362],[-52.47753,-26.91429],[-52.47886,-26.91461],[-52.48083,-26.9148],[-52.49234,-26.91631],[-52.49303,-26.91668],[-52.49332,-26.91702],[-52.49943,-26.92916],[-52.49949,-26.92952],[-52.49938,-26.93009],[-52.49829,-26.93354],[-52.49824,-26.93413],[-52.49951,-26.93855],[-52.50002,-26.93935],[-52.50061,-26.9398],[-52.50273,-26.94091],[-52.50373,-26.94132],[-52.50543,-26.94241],[-52.50839,-26.94405],[-52.50964,-26.94457],[-52.5146,-26.94596],[-52.52429,-26.95099],[-52.52486,-26.9511],[-52.52549,-26.95094],[-52.52607,-26.95045],[-52.52717,-26.94911],[-52.52759,-26.94891],[-52.52818,-26.94884],[-52.5295,-26.94902],[-52.52988,-26.94922],[-52.53062,-26.9498],[-52.53534,-26.95118],[-52.53626,-26.95155],[-52.53796,-26.95253],[-52.53875,-26.95287],[-52.53915,-26.9533],[-52.54004,-26.95404],[-52.54176,-26.95528],[-52.5447,-26.9586],[-52.54542,-26.95916],[-52.54587,-26.95996],[-52.54752,-26.96192],[-52.54838,-26.96276],[-52.54931,-26.96339],[-52.55472,-26.96602],[-52.55522,-26.96619],[-52.55569,-26.96621],[-52.55635,-26.96598],[-52.55665,-26.96576],[-52.55813,-26.96425],[-52.55879,-26.9639],[-52.55915,-26.96381],[-52.55991,-26.96382],[-52.56142,-26.96428],[-52.56205,-26.96438],[-52.56444,-26.96432],[-52.56508,-26.96449],[-52.56551,-26.96469],[-52.56684,-26.96576],[-52.56758,-26.96614],[-52.56941,-26.9664],[-52.57045,-26.96673],[-52.57088,-26.96701],[-52.57197,-26.96806],[-52.57234,-26.96831],[-52.57388,-26.96872],[-52.57539,-26.9696],[-52.57855,-26.97046],[-52.58119,-26.97093],[-52.58205,-26.97118],[-52.58252,-26.9716],[-52.58323,-26.97303],[-52.58372,-26.97353],[-52.58417,-26.9737],[-52.58744,-26.97437],[-52.58808,-26.97474],[-52.58851,-26.97535],[-52.58865,-26.97593],[-52.58854,-26.97658],[-52.58818,-26.97774],[-52.58825,-26.97841],[-52.5885,-26.97873],[-52.59142,-26.98105],[-52.59216,-26.98128],[-52.59459,-26.98136],[-52.59592,-26.9816],[-52.60086,-26.9837],[-52.60135,-26.98379],[-52.60259,-26.98372],[-52.6032,-26.98386],[-52.60346,-26.98399],[-52.60384,-26.98442],[-52.60488,-26.98618],[-52.60541,-26.98662],[-52.60589,-26.98683],[-52.60687,-26.98692],[-52.60946,-26.98652],[-52.60984,-26.98659],[-52.61021,-26.98676],[-52.61073,-26.9873],[-52.6109,-26.98799],[-52.61077,-26.98852],[-52.60973,-26.99091],[-52.60967,-26.99129],[-52.60978,-26.99195],[-52.61093,-26.9937],[-52.61257,-26.99589],[-52.61316,-26.99645],[-52.61375,-26.99675],[-52.61438,-26.99688],[-52.61518,-26.99687],[-52.62012,-26.99625],[-52.62358,-26.99576],[-52.62453,-26.99554],[-52.62634,-26.99498],[-52.62701,-26.99491],[-52.6274,-26.99498],[-52.62787,-26.99522],[-52.6296,-26.99644],[-52.63013,-26.99666],[-52.63103,-26.99686],[-52.63462,-26.99681],[-52.63567,-26.99663],[-52.63785,-26.99596],[-52.63847,-26.99592],[-52.63896,-26.99598],[-52.63956,-26.9962],[-52.64391,-26.99831],[-52.64447,-26.9984],[-52.64596,-26.99898],[-52.64626,-26.99925],[-52.64621,-26.99973],[-52.6444,-27.0027],[-52.64395,-27.00364],[-52.64337,-27.00541],[-52.64252,-27.0075],[-52.64156,-27.00896],[-52.64019,-27.01074],[-52.6393,-27.01209],[-52.63898,-27.01272],[-52.63704,-27.01732],[-52.63629,-27.01928],[-52.63439,-27.0255],[-52.6342,-27.02632],[-52.63371,-27.03009],[-52.63362,-27.0314],[-52.63386,-27.0351],[-52.63459,-27.03861],[-52.63608,-27.04301],[-52.63622,-27.04371],[-52.63618,-27.04491],[-52.6353,-27.04863],[-52.63519,-27.04975],[-52.63539,-27.05107],[-52.63621,-27.05303],[-52.63649,-27.05406],[-52.63656,-27.05465],[-52.63638,-27.0573],[-52.63601,-27.05881],[-52.63544,-27.06003],[-52.63502,-27.06068],[-52.63426,-27.06156],[-52.63125,-27.06411],[-52.63005,-27.06504],[-52.6292,-27.06646],[-52.62805,-27.06948],[-52.62792,-27.06952],[-52.62768,-27.06931],[-52.62446,-27.06837],[-52.62214,-27.07687],[-52.6192,-27.07619],[-52.6125,-27.07748],[-52.61346,-27.07969],[-52.61333,-27.0798],[-52.61059,-27.08879],[-52.61029,-27.08995],[-52.61034,-27.09003],[-52.61026,-27.09006],[-52.60926,-27.09357],[-52.60932,-27.09363],[-52.60923,-27.09367],[-52.60842,-27.09688],[-52.60797,-27.09854],[-52.60787,-27.09869],[-52.60917,-27.099],[-52.60928,-27.09897],[-52.60935,-27.09909],[-52.60927,-27.09915],[-52.60903,-27.10027],[-52.60865,-27.1015],[-52.60869,-27.10159],[-52.60859,-27.10164],[-52.60829,-27.10261],[-52.60817,-27.10341],[-52.60766,-27.10517],[-52.60756,-27.10521],[-52.60751,-27.10513],[-52.60779,-27.10428]]},"properties":{"route_id":"arena-conda","tipo":"rota","clube":"Chapecoense","estadio":"Arena Condá","cidade":"Chapecó","estado":"SC","distancia_km":898.9,"modo_rota":"carro","match_status":"concluida","status":"Traçado fornecido para deslocamento do Brasileirão 2026.","projecao":false,"fonte_rota":"ROTA - ARENA CONDA.shp","metodo_rota":"Traçado viário existente convertido do shapefile do usuário.","data_partida":null,"Name":"Rotas de Parque São Jorge, São Paulo - SP até Arena Condá - Rua Clevelândia - Centro, Chapecó - SC","ajuste_origem_m":0.0}},{"type":"Feature","geometry":{"type":"Point","coordinates":[-52.60779,-27.10428]},"properties":{"route_id":"arena-conda","tipo":"estadio_destino","clube":"Chapecoense","estadio":"Arena Condá","cidade":"Chapecó","estado":"SC","distancia_km":898.9,"status":"Traçado fornecido para deslocamento do Brasileirão 2026.","projecao":false,"data_partida":null}}]}