{"type":"FeatureCollection","name":"beira-rio","features":[{"type":"Feature","geometry":{"type":"LineString","coordinates":[[-46.56809,-23.53096],[-46.56495,-23.52699],[-46.56481,-23.52695],[-46.56473,-23.52711],[-46.56458,-23.52702],[-46.56141,-23.52447],[-46.56086,-23.52422],[-46.55969,-23.52411],[-46.55904,-23.52396],[-46.5584,-23.52375],[-46.55804,-23.52359],[-46.55796,-23.52354],[-46.55781,-23.52346],[-46.55772,-23.5234],[-46.55735,-23.52355],[-46.55694,-23.52428],[-46.55696,-23.52443],[-46.55707,-23.52447],[-46.55716,-23.52442],[-46.55755,-23.52396],[-46.55773,-23.52364],[-46.55783,-23.52351],[-46.558,-23.52324],[-46.55812,-23.52308],[-46.55813,-23.52306],[-46.55879,-23.52208],[-46.559,-23.52173],[-46.55894,-23.52139],[-46.5588,-23.52125],[-46.55851,-23.52119],[-46.55825,-23.5213],[-46.55814,-23.52145],[-46.55812,-23.52166],[-46.55842,-23.52203],[-46.55877,-23.5222],[-46.55893,-23.52229],[-46.55925,-23.52251],[-46.55958,-23.52265],[-46.5606,-23.52273],[-46.56299,-23.52264],[-46.5643,-23.52282],[-46.56537,-23.52313],[-46.56605,-23.52342],[-46.56874,-23.52489],[-46.57042,-23.52546],[-46.5713,-23.5256],[-46.57207,-23.52564],[-46.57307,-23.52555],[-46.57403,-23.52569],[-46.57468,-23.52564],[-46.57479,-23.52571],[-46.57553,-23.52569],[-46.57684,-23.52582],[-46.59026,-23.52922],[-46.5913,-23.52941],[-46.59234,-23.52941],[-46.5932,-23.52928],[-46.59407,-23.52905],[-46.59461,-23.52883],[-46.59538,-23.52838],[-46.59691,-23.52723],[-46.59788,-23.52626],[-46.59961,-23.52472],[-46.6014,-23.52332],[-46.60231,-23.5228],[-46.60327,-23.52244],[-46.60484,-23.52217],[-46.60617,-23.52224],[-46.60839,-23.52267],[-46.60909,-23.52273],[-46.60994,-23.5227],[-46.61084,-23.5225],[-46.61151,-23.52225],[-46.61222,-23.52187],[-46.61563,-23.51941],[-46.61654,-23.51894],[-46.61791,-23.51848],[-46.61919,-23.51833],[-46.62007,-23.51838],[-46.62245,-23.51885],[-46.62394,-23.51892],[-46.6305,-23.51859],[-46.6314,-23.51862],[-46.6398,-23.51805],[-46.64392,-23.51766],[-46.65096,-23.51669],[-46.65382,-23.51643],[-46.65621,-23.51602],[-46.6626,-23.51524],[-46.66607,-23.51489],[-46.66863,-23.51448],[-46.67698,-23.51342],[-46.67792,-23.51318],[-46.67885,-23.51278],[-46.6795,-23.51238],[-46.68201,-23.51052],[-46.68258,-23.51019],[-46.68377,-23.5097],[-46.68497,-23.50942],[-46.68915,-23.50871],[-46.69191,-23.50804],[-46.69486,-23.50752],[-46.69623,-23.50741],[-46.69717,-23.50746],[-46.70647,-23.50826],[-46.71748,-23.50758],[-46.71842,-23.50774],[-46.7193,-23.50799],[-46.7201,-23.50841],[-46.72078,-23.50889],[-46.72136,-23.50945],[-46.72274,-23.51143],[-46.72344,-23.51218],[-46.72385,-23.51249],[-46.72496,-23.51324],[-46.72766,-23.51481],[-46.73205,-23.51699],[-46.73289,-23.51723],[-46.73377,-23.51732],[-46.74127,-23.51705],[-46.74153,-23.51698],[-46.74223,-23.517],[-46.74392,-23.51722],[-46.74475,-23.51746],[-46.74541,-23.51775],[-46.74624,-23.51832],[-46.74722,-23.51939],[-46.74782,-23.52041],[-46.74872,-23.52247],[-46.74924,-23.52319],[-46.74958,-23.5235],[-46.75041,-23.52403],[-46.75121,-23.52441],[-46.7527,-23.52474],[-46.75344,-23.52475],[-46.75459,-23.52458],[-46.76644,-23.52082],[-46.76766,-23.52054],[-46.76874,-23.52042],[-46.77247,-23.52048],[-46.77271,-23.52041],[-46.77471,-23.52032],[-46.77504,-23.52024],[-46.77726,-23.52009],[-46.7817,-23.51941],[-46.7836,-23.519],[-46.78537,-23.51843],[-46.79164,-23.5159],[-46.79393,-23.51487],[-46.7965,-23.51343],[-46.79789,-23.51284],[-46.80174,-23.51149],[-46.80352,-23.51097],[-46.80462,-23.51073],[-46.80492,-23.51051],[-46.80539,-23.50996],[-46.80622,-23.50949],[-46.80661,-23.5094],[-46.8071,-23.50942],[-46.80763,-23.50965],[-46.80793,-23.50992],[-46.80888,-23.51116],[-46.80968,-23.51194],[-46.81037,-23.51282],[-46.8104,-23.51299],[-46.81422,-23.51746],[-46.81485,-23.5179],[-46.81605,-23.51834],[-46.81639,-23.5188],[-46.81644,-23.51915],[-46.81635,-23.52088],[-46.81663,-23.52286],[-46.81656,-23.52302],[-46.81815,-23.53197],[-46.81819,-23.53318],[-46.81785,-23.53766],[-46.8179,-23.53918],[-46.81825,-23.54104],[-46.82027,-23.54716],[-46.82061,-23.54852],[-46.82068,-23.5492],[-46.82055,-23.55065],[-46.8197,-23.55352],[-46.81946,-23.55517],[-46.81952,-23.55634],[-46.8203,-23.56263],[-46.8203,-23.56357],[-46.8201,-23.56452],[-46.81989,-23.56506],[-46.8194,-23.56591],[-46.81906,-23.56634],[-46.81848,-23.56688],[-46.81721,-23.56767],[-46.81492,-23.56864],[-46.81447,-23.56891],[-46.81387,-23.5694],[-46.81331,-23.57011],[-46.81279,-23.57103],[-46.80935,-23.57851],[-46.80878,-23.5803],[-46.80848,-23.5822],[-46.80848,-23.58408],[-46.80872,-23.58588],[-46.81178,-23.59735],[-46.81249,-23.59919],[-46.81297,-23.60077],[-46.81347,-23.60362],[-46.8144,-23.60716],[-46.81476,-23.60814],[-46.81564,-23.60953],[-46.81618,-23.61015],[-46.81675,-23.61066],[-46.82624,-23.61708],[-46.82727,-23.61802],[-46.82795,-23.61881],[-46.82858,-23.61974],[-46.82908,-23.62074],[-46.82955,-23.62226],[-46.82968,-23.62408],[-46.82975,-23.62725],[-46.82992,-23.62848],[-46.83016,-23.62934],[-46.83052,-23.63011],[-46.83126,-23.63131],[-46.83266,-23.63337],[-46.8332,-23.63388],[-46.83427,-23.63546],[-46.83461,-23.63674],[-46.83469,-23.63827],[-46.83501,-23.63898],[-46.83608,-23.64031],[-46.83815,-23.6424],[-46.84257,-23.64713],[-46.84386,-23.64842],[-46.84639,-23.65047],[-46.84715,-23.65118],[-46.84769,-23.65186],[-46.84817,-23.65266],[-46.84905,-23.65452],[-46.85039,-23.65645],[-46.85072,-23.65728],[-46.85109,-23.65882],[-46.85144,-23.65973],[-46.85187,-23.66045],[-46.85253,-23.66128],[-46.85307,-23.66213],[-46.855,-23.66647],[-46.85555,-23.66787],[-46.85615,-23.67007],[-46.85673,-23.67464],[-46.85706,-23.67585],[-46.8581,-23.67818],[-46.85845,-23.67915],[-46.85916,-23.68322],[-46.85951,-23.68474],[-46.86,-23.68574],[-46.86273,-23.69001],[-46.86436,-23.69465],[-46.86653,-23.69844],[-46.867,-23.69905],[-46.86778,-23.69979],[-46.87101,-23.70203],[-46.87143,-23.70239],[-46.87207,-23.70312],[-46.88114,-23.71682],[-46.88172,-23.71766],[-46.88234,-23.71833],[-46.88344,-23.71916],[-46.88602,-23.72041],[-46.88767,-23.72178],[-46.88813,-23.72206],[-46.88913,-23.72236],[-46.89082,-23.72259],[-46.89145,-23.72287],[-46.89225,-23.7235],[-46.89265,-23.7241],[-46.89358,-23.72704],[-46.8953,-23.73346],[-46.89732,-23.73946],[-46.89762,-23.74002],[-46.89892,-23.7417],[-46.89948,-23.74267],[-46.89974,-23.74343],[-46.90158,-23.75249],[-46.90282,-23.75811],[-46.90332,-23.75903],[-46.90481,-23.76128],[-46.91121,-23.77062],[-46.91265,-23.77227],[-46.91327,-23.77311],[-46.91545,-23.77688],[-46.91581,-23.77782],[-46.91595,-23.77865],[-46.91597,-23.77951],[-46.91583,-23.78043],[-46.91523,-23.78203],[-46.91402,-23.78466],[-46.91385,-23.78527],[-46.91387,-23.78631],[-46.91399,-23.78732],[-46.91542,-23.79417],[-46.91537,-23.79491],[-46.91474,-23.79676],[-46.91478,-23.79755],[-46.915,-23.7981],[-46.91766,-23.80206],[-46.91807,-23.80257],[-46.91876,-23.803],[-46.92084,-23.80359],[-46.92136,-23.8039],[-46.92361,-23.80633],[-46.92419,-23.80724],[-46.92436,-23.80807],[-46.92416,-23.80885],[-46.92328,-23.81122],[-46.92316,-23.8117],[-46.92314,-23.81251],[-46.92435,-23.81824],[-46.92559,-23.82271],[-46.92589,-23.82593],[-46.92621,-23.82696],[-46.92652,-23.82761],[-46.92974,-23.83335],[-46.92985,-23.83393],[-46.9299,-23.83539],[-46.93153,-23.83998],[-46.93162,-23.84129],[-46.93182,-23.84199],[-46.9321,-23.84239],[-46.93256,-23.84278],[-46.93612,-23.84449],[-46.93668,-23.84491],[-46.937,-23.84527],[-46.93736,-23.84586],[-46.93757,-23.84641],[-46.93946,-23.85271],[-46.94036,-23.85538],[-46.94079,-23.85588],[-46.94559,-23.85956],[-46.94614,-23.86013],[-46.94872,-23.86416],[-46.94939,-23.86499],[-46.94997,-23.86549],[-46.95097,-23.86611],[-46.9642,-23.87296],[-46.96547,-23.87384],[-46.96602,-23.87444],[-46.96864,-23.87811],[-46.96923,-23.87881],[-46.97675,-23.88603],[-46.98259,-23.89084],[-46.98327,-23.89153],[-46.98371,-23.8921],[-46.98714,-23.89772],[-46.99027,-23.90178],[-46.99128,-23.90324],[-46.99165,-23.90396],[-46.99177,-23.90496],[-46.99171,-23.91071],[-46.99158,-23.91119],[-46.99116,-23.91191],[-46.98982,-23.91337],[-46.98943,-23.91391],[-46.98924,-23.91446],[-46.98928,-23.9154],[-46.99018,-23.91852],[-46.99217,-23.92181],[-46.99587,-23.92887],[-46.99621,-23.92927],[-46.99686,-23.9297],[-46.99894,-23.93056],[-47.0002,-23.93096],[-47.00117,-23.93103],[-47.00533,-23.93103],[-47.00672,-23.93121],[-47.01137,-23.93351],[-47.01264,-23.93386],[-47.01788,-23.93448],[-47.02196,-23.93488],[-47.03179,-23.93494],[-47.03308,-23.93504],[-47.03453,-23.93574],[-47.0415,-23.93983],[-47.04239,-23.94012],[-47.04276,-23.94017],[-47.0464,-23.94008],[-47.05144,-23.94062],[-47.05292,-23.94067],[-47.05939,-23.94011],[-47.06054,-23.93981],[-47.06156,-23.93932],[-47.06433,-23.93727],[-47.06517,-23.93688],[-47.0677,-23.93632],[-47.07423,-23.93518],[-47.07468,-23.93517],[-47.07546,-23.93528],[-47.07821,-23.93624],[-47.08042,-23.93641],[-47.08108,-23.93673],[-47.08236,-23.93761],[-47.08281,-23.93783],[-47.08345,-23.93799],[-47.08598,-23.93837],[-47.08699,-23.93871],[-47.09239,-23.94153],[-47.09456,-23.94246],[-47.09553,-23.94303],[-47.09684,-23.94413],[-47.0973,-23.94466],[-47.10026,-23.94857],[-47.10119,-23.95],[-47.10168,-23.95056],[-47.10283,-23.95147],[-47.1043,-23.95236],[-47.10673,-23.95422],[-47.10752,-23.95464],[-47.11388,-23.95745],[-47.11679,-23.95918],[-47.119,-23.96009],[-47.12144,-23.96172],[-47.12318,-23.96308],[-47.12429,-23.96371],[-47.12636,-23.96467],[-47.12963,-23.96593],[-47.13117,-23.96666],[-47.13225,-23.96751],[-47.13297,-23.9683],[-47.13586,-23.97206],[-47.13744,-23.97329],[-47.13867,-23.97414],[-47.13971,-23.97465],[-47.14265,-23.97552],[-47.14341,-23.97602],[-47.14396,-23.97669],[-47.14432,-23.97728],[-47.14644,-23.98312],[-47.14685,-23.98397],[-47.14832,-23.98649],[-47.14865,-23.98785],[-47.14864,-23.98886],[-47.14843,-23.98982],[-47.14765,-23.99242],[-47.14763,-23.99422],[-47.14782,-23.99504],[-47.14817,-23.9958],[-47.14997,-23.99875],[-47.15139,-24.00128],[-47.15193,-24.00195],[-47.15241,-24.00228],[-47.15285,-24.00248],[-47.15385,-24.0027],[-47.15627,-24.00298],[-47.15686,-24.00315],[-47.15752,-24.0035],[-47.15809,-24.00401],[-47.1585,-24.00461],[-47.15974,-24.00787],[-47.16038,-24.00863],[-47.16127,-24.00927],[-47.16458,-24.01054],[-47.16526,-24.01097],[-47.16589,-24.01158],[-47.16618,-24.012],[-47.16768,-24.01498],[-47.16828,-24.01601],[-47.17188,-24.02069],[-47.17253,-24.02226],[-47.17303,-24.02515],[-47.17325,-24.02594],[-47.17355,-24.02655],[-47.17409,-24.0272],[-47.17575,-24.02845],[-47.18086,-24.03183],[-47.18315,-24.03323],[-47.18904,-24.03716],[-47.18981,-24.03748],[-47.19159,-24.03782],[-47.19234,-24.03821],[-47.19279,-24.0387],[-47.19298,-24.03916],[-47.19317,-24.04164],[-47.19346,-24.04268],[-47.19346,-24.04421],[-47.19354,-24.04452],[-47.19383,-24.04506],[-47.19429,-24.04548],[-47.19466,-24.04567],[-47.19668,-24.04624],[-47.19724,-24.04658],[-47.19768,-24.047],[-47.19849,-24.04832],[-47.19874,-24.04858],[-47.19974,-24.04923],[-47.20004,-24.04954],[-47.20077,-24.05069],[-47.20131,-24.05126],[-47.20178,-24.05152],[-47.20219,-24.05164],[-47.20289,-24.05167],[-47.20453,-24.0513],[-47.20498,-24.05127],[-47.20606,-24.05139],[-47.20679,-24.05135],[-47.20886,-24.0507],[-47.20979,-24.05067],[-47.21062,-24.05088],[-47.21224,-24.05173],[-47.21378,-24.05188],[-47.21436,-24.05209],[-47.21501,-24.05256],[-47.2153,-24.05306],[-47.21534,-24.05362],[-47.21523,-24.05592],[-47.21538,-24.05652],[-47.21565,-24.05684],[-47.21819,-24.05888],[-47.21862,-24.05909],[-47.22022,-24.05958],[-47.22252,-24.05956],[-47.2232,-24.05977],[-47.22374,-24.06013],[-47.22469,-24.06097],[-47.2269,-24.06182],[-47.22841,-24.0629],[-47.22893,-24.06318],[-47.23119,-24.0637],[-47.23514,-24.06518],[-47.24211,-24.07019],[-47.243,-24.07058],[-47.24608,-24.07146],[-47.24696,-24.07196],[-47.24903,-24.0736],[-47.25008,-24.07476],[-47.25049,-24.07543],[-47.25109,-24.07667],[-47.25156,-24.07801],[-47.25182,-24.07984],[-47.25165,-24.08092],[-47.25165,-24.08124],[-47.25182,-24.08184],[-47.2522,-24.08233],[-47.25335,-24.08327],[-47.25382,-24.08375],[-47.25405,-24.08415],[-47.25427,-24.08563],[-47.25454,-24.08614],[-47.25493,-24.08655],[-47.25659,-24.08789],[-47.25686,-24.08825],[-47.25711,-24.08891],[-47.25719,-24.08935],[-47.25713,-24.09068],[-47.25695,-24.09123],[-47.25615,-24.09244],[-47.25601,-24.09276],[-47.25589,-24.09321],[-47.25591,-24.09389],[-47.25704,-24.09737],[-47.2588,-24.10211],[-47.25931,-24.10269],[-47.25967,-24.10296],[-47.2618,-24.10384],[-47.26253,-24.10441],[-47.26284,-24.10485],[-47.26304,-24.10532],[-47.26347,-24.10726],[-47.26398,-24.10803],[-47.26442,-24.10838],[-47.26478,-24.10854],[-47.26667,-24.10907],[-47.26736,-24.10939],[-47.26812,-24.11004],[-47.26887,-24.11133],[-47.26886,-24.1155],[-47.269,-24.11995],[-47.26923,-24.12064],[-47.26952,-24.12104],[-47.26996,-24.12146],[-47.27115,-24.12223],[-47.27132,-24.12249],[-47.27137,-24.1229],[-47.2713,-24.12363],[-47.27164,-24.12557],[-47.27229,-24.12706],[-47.27224,-24.12755],[-47.27156,-24.1295],[-47.27145,-24.13003],[-47.27146,-24.13185],[-47.27231,-24.13453],[-47.27266,-24.13671],[-47.27332,-24.138],[-47.27347,-24.13851],[-47.27339,-24.13905],[-47.27237,-24.14116],[-47.27216,-24.14237],[-47.27218,-24.14313],[-47.2724,-24.14363],[-47.2726,-24.14388],[-47.27286,-24.14411],[-47.27446,-24.14505],[-47.27491,-24.14521],[-47.27566,-24.14528],[-47.27776,-24.14508],[-47.27855,-24.14494],[-47.28252,-24.14373],[-47.28429,-24.14334],[-47.28544,-24.14322],[-47.28662,-24.14331],[-47.28741,-24.1435],[-47.28972,-24.1444],[-47.29292,-24.14594],[-47.29461,-24.14645],[-47.29885,-24.1472],[-47.29999,-24.14705],[-47.30089,-24.14684],[-47.30235,-24.14698],[-47.30289,-24.14714],[-47.30593,-24.14853],[-47.30777,-24.14917],[-47.31994,-24.1518],[-47.32148,-24.15236],[-47.32227,-24.15276],[-47.32339,-24.15353],[-47.32415,-24.15424],[-47.32488,-24.15514],[-47.32644,-24.15776],[-47.32718,-24.15977],[-47.32755,-24.16054],[-47.32854,-24.16174],[-47.3521,-24.18076],[-47.35282,-24.18126],[-47.35763,-24.18386],[-47.35823,-24.18432],[-47.35889,-24.18501],[-47.35932,-24.18556],[-47.35971,-24.18628],[-47.36002,-24.18709],[-47.36014,-24.18766],[-47.3602,-24.18875],[-47.35993,-24.19071],[-47.35989,-24.19165],[-47.36008,-24.19256],[-47.36046,-24.19332],[-47.36089,-24.19385],[-47.3616,-24.19445],[-47.36793,-24.1981],[-47.36954,-24.19934],[-47.37051,-24.20042],[-47.37141,-24.20183],[-47.37192,-24.20305],[-47.37215,-24.20388],[-47.37234,-24.20557],[-47.3722,-24.20726],[-47.37197,-24.2082],[-47.37165,-24.20908],[-47.37121,-24.20995],[-47.36681,-24.21757],[-47.36616,-24.21858],[-47.36557,-24.21973],[-47.36515,-24.22111],[-47.36492,-24.22384],[-47.36474,-24.22502],[-47.36447,-24.22592],[-47.36397,-24.22678],[-47.36122,-24.22993],[-47.36076,-24.23073],[-47.36055,-24.23141],[-47.36048,-24.23199],[-47.3606,-24.23511],[-47.36083,-24.23654],[-47.36134,-24.23811],[-47.36182,-24.23914],[-47.36233,-24.24003],[-47.36323,-24.24126],[-47.36524,-24.24326],[-47.36987,-24.24741],[-47.37433,-24.25278],[-47.37564,-24.25486],[-47.37683,-24.25908],[-47.37723,-24.26012],[-47.37782,-24.26107],[-47.37858,-24.26191],[-47.37973,-24.26274],[-47.38063,-24.26315],[-47.38816,-24.26524],[-47.38926,-24.26562],[-47.4226,-24.27932],[-47.42404,-24.27969],[-47.42794,-24.27997],[-47.42922,-24.28028],[-47.43627,-24.28377],[-47.43792,-24.2845],[-47.43972,-24.28493],[-47.44883,-24.28671],[-47.45292,-24.28716],[-47.4566,-24.28745],[-47.45811,-24.28773],[-47.45879,-24.28792],[-47.46299,-24.28954],[-47.46807,-24.29139],[-47.46907,-24.29164],[-47.47616,-24.29303],[-47.47688,-24.29325],[-47.47777,-24.29362],[-47.479,-24.29428],[-47.48059,-24.29564],[-47.48545,-24.30155],[-47.48625,-24.3023],[-47.48914,-24.30409],[-47.49269,-24.30613],[-47.49391,-24.3066],[-47.4946,-24.30676],[-47.49558,-24.30687],[-47.49751,-24.30689],[-47.49908,-24.30711],[-47.49967,-24.3073],[-47.50357,-24.30895],[-47.50456,-24.30921],[-47.50756,-24.30961],[-47.50863,-24.30987],[-47.52765,-24.31661],[-47.52862,-24.31704],[-47.52936,-24.31747],[-47.53332,-24.32014],[-47.53419,-24.32055],[-47.53527,-24.32091],[-47.54013,-24.3219],[-47.55083,-24.32385],[-47.56334,-24.32621],[-47.56668,-24.3269],[-47.57915,-24.3292],[-47.58037,-24.32954],[-47.58121,-24.32986],[-47.59206,-24.33446],[-47.59377,-24.33479],[-47.59465,-24.3348],[-47.59584,-24.33464],[-47.61748,-24.32977],[-47.61888,-24.32951],[-47.62023,-24.32951],[-47.62189,-24.32966],[-47.62654,-24.3304],[-47.62736,-24.33059],[-47.63132,-24.33109],[-47.63815,-24.33218],[-47.63934,-24.33246],[-47.64018,-24.33292],[-47.64071,-24.33338],[-47.641,-24.33376],[-47.64979,-24.34695],[-47.65059,-24.34792],[-47.65173,-24.34881],[-47.66271,-24.35541],[-47.66342,-24.35572],[-47.66399,-24.35587],[-47.66508,-24.35603],[-47.66645,-24.35595],[-47.67134,-24.35453],[-47.6721,-24.35437],[-47.67316,-24.35429],[-47.67457,-24.35446],[-47.6835,-24.35644],[-47.68486,-24.357],[-47.68596,-24.35776],[-47.69131,-24.36328],[-47.69212,-24.36427],[-47.69355,-24.36649],[-47.69432,-24.36738],[-47.69489,-24.36787],[-47.69585,-24.36844],[-47.69711,-24.36902],[-47.69916,-24.36982],[-47.70035,-24.37018],[-47.70483,-24.37119],[-47.70553,-24.37152],[-47.70606,-24.37192],[-47.7065,-24.3724],[-47.70679,-24.37288],[-47.70805,-24.3754],[-47.70878,-24.3763],[-47.70937,-24.37682],[-47.71355,-24.37995],[-47.71448,-24.38079],[-47.71489,-24.38144],[-47.71511,-24.38212],[-47.71527,-24.38463],[-47.7154,-24.38522],[-47.71556,-24.38561],[-47.71596,-24.38623],[-47.71673,-24.38691],[-47.71759,-24.38733],[-47.7183,-24.38749],[-47.71971,-24.38757],[-47.72058,-24.38771],[-47.7215,-24.38807],[-47.72231,-24.38852],[-47.72277,-24.389],[-47.72298,-24.38936],[-47.72369,-24.39221],[-47.72396,-24.39271],[-47.72439,-24.39323],[-47.73054,-24.39801],[-47.73122,-24.3984],[-47.73187,-24.39862],[-47.73399,-24.39895],[-47.73515,-24.39935],[-47.73553,-24.3996],[-47.74048,-24.40374],[-47.7411,-24.40418],[-47.76496,-24.41817],[-47.76664,-24.41891],[-47.77701,-24.42231],[-47.77787,-24.42271],[-47.77859,-24.42315],[-47.77948,-24.42387],[-47.78591,-24.42981],[-47.78688,-24.43063],[-47.81137,-24.45316],[-47.81282,-24.45502],[-47.83211,-24.48244],[-47.83314,-24.48421],[-47.83608,-24.49063],[-47.83686,-24.4922],[-47.83746,-24.49317],[-47.83827,-24.49406],[-47.84607,-24.50142],[-47.84705,-24.5026],[-47.84765,-24.50381],[-47.85713,-24.53105],[-47.86118,-24.54305],[-47.86426,-24.55177],[-47.86704,-24.55993],[-47.86771,-24.56149],[-47.86803,-24.56204],[-47.86891,-24.56323],[-47.86997,-24.56429],[-47.8709,-24.56502],[-47.87196,-24.56566],[-47.87296,-24.56616],[-47.87763,-24.56818],[-47.87814,-24.56848],[-47.87909,-24.56925],[-47.8805,-24.57099],[-47.88301,-24.57431],[-47.88387,-24.57569],[-47.88434,-24.57684],[-47.88463,-24.57785],[-47.8849,-24.57956],[-47.88486,-24.58123],[-47.88453,-24.58294],[-47.88413,-24.58406],[-47.8836,-24.58513],[-47.87674,-24.59701],[-47.87646,-24.59762],[-47.87611,-24.59884],[-47.876,-24.60025],[-47.87618,-24.60149],[-47.87654,-24.60254],[-47.87722,-24.60373],[-47.87969,-24.60688],[-47.88146,-24.60891],[-47.8973,-24.62405],[-47.92092,-24.64636],[-47.92215,-24.64722],[-47.92306,-24.64761],[-47.9242,-24.64794],[-47.9615,-24.65417],[-47.9623,-24.65442],[-47.96336,-24.65489],[-47.96451,-24.65572],[-47.96665,-24.65774],[-47.97611,-24.66684],[-47.97699,-24.66786],[-47.97773,-24.66895],[-47.9784,-24.67028],[-47.9804,-24.67686],[-47.98076,-24.67766],[-47.98139,-24.67866],[-47.98275,-24.68004],[-47.99738,-24.6941],[-48.01852,-24.7093],[-48.01975,-24.70992],[-48.03652,-24.71702],[-48.0377,-24.71774],[-48.04292,-24.72157],[-48.0444,-24.72233],[-48.04576,-24.72268],[-48.04695,-24.72279],[-48.07579,-24.72148],[-48.07872,-24.72138],[-48.08004,-24.72146],[-48.08258,-24.72224],[-48.08484,-24.72308],[-48.08593,-24.72358],[-48.09492,-24.72912],[-48.09644,-24.73002],[-48.09756,-24.73053],[-48.09894,-24.73087],[-48.10037,-24.73096],[-48.10153,-24.73085],[-48.10581,-24.7299],[-48.10655,-24.72988],[-48.10704,-24.72995],[-48.10781,-24.7302],[-48.11102,-24.73189],[-48.11396,-24.73328],[-48.1206,-24.73686],[-48.12164,-24.73752],[-48.12226,-24.73801],[-48.12371,-24.73947],[-48.12454,-24.7402],[-48.12547,-24.74078],[-48.12638,-24.74118],[-48.13197,-24.74273],[-48.13347,-24.74301],[-48.13454,-24.74302],[-48.13892,-24.7427],[-48.13994,-24.74277],[-48.14062,-24.74291],[-48.14128,-24.74311],[-48.14722,-24.74565],[-48.14844,-24.74651],[-48.15055,-24.74882],[-48.15147,-24.74955],[-48.16004,-24.75392],[-48.16102,-24.75458],[-48.16185,-24.75538],[-48.16441,-24.7588],[-48.16496,-24.75966],[-48.16525,-24.76029],[-48.1655,-24.76114],[-48.16591,-24.76314],[-48.16648,-24.7645],[-48.16714,-24.76543],[-48.16922,-24.76762],[-48.16992,-24.76869],[-48.17043,-24.76998],[-48.17094,-24.77409],[-48.1713,-24.77556],[-48.17178,-24.77667],[-48.17305,-24.77873],[-48.17385,-24.77978],[-48.17503,-24.78093],[-48.18038,-24.78472],[-48.1808,-24.78486],[-48.18132,-24.78488],[-48.18183,-24.78474],[-48.18224,-24.78446],[-48.18259,-24.78395],[-48.18302,-24.78238],[-48.18332,-24.78179],[-48.18367,-24.7814],[-48.18428,-24.781],[-48.19032,-24.77955],[-48.19112,-24.77928],[-48.1966,-24.77646],[-48.1985,-24.77581],[-48.20127,-24.77507],[-48.20182,-24.77484],[-48.2033,-24.77394],[-48.20414,-24.77353],[-48.20489,-24.77334],[-48.20557,-24.77328],[-48.20657,-24.7734],[-48.20769,-24.77383],[-48.20871,-24.77464],[-48.21133,-24.77743],[-48.21152,-24.77792],[-48.21154,-24.77821],[-48.21146,-24.77863],[-48.21131,-24.77892],[-48.20955,-24.78049],[-48.20917,-24.78092],[-48.20888,-24.78143],[-48.20869,-24.78221],[-48.20858,-24.78329],[-48.20796,-24.7863],[-48.208,-24.7869],[-48.20835,-24.78748],[-48.21031,-24.7887],[-48.21069,-24.78914],[-48.21081,-24.78991],[-48.21045,-24.79221],[-48.21051,-24.7926],[-48.21075,-24.79313],[-48.211,-24.79341],[-48.2115,-24.79375],[-48.21325,-24.7944],[-48.21395,-24.79473],[-48.21428,-24.795],[-48.21451,-24.79532],[-48.21473,-24.796],[-48.21466,-24.79665],[-48.21338,-24.79969],[-48.2132,-24.80063],[-48.21318,-24.80142],[-48.21328,-24.80218],[-48.21372,-24.80349],[-48.21415,-24.80424],[-48.21526,-24.80574],[-48.21555,-24.80631],[-48.21571,-24.80682],[-48.21575,-24.80782],[-48.21555,-24.80849],[-48.21517,-24.80918],[-48.21379,-24.81101],[-48.21344,-24.81162],[-48.21298,-24.81297],[-48.2129,-24.8139],[-48.21298,-24.81485],[-48.21317,-24.81563],[-48.2134,-24.81623],[-48.21462,-24.8186],[-48.21476,-24.81913],[-48.21473,-24.82059],[-48.21422,-24.82152],[-48.21418,-24.82183],[-48.21458,-24.82239],[-48.21499,-24.82262],[-48.21545,-24.82269],[-48.21717,-24.8226],[-48.21784,-24.82287],[-48.21819,-24.82329],[-48.2183,-24.82368],[-48.21825,-24.82411],[-48.21768,-24.82541],[-48.21772,-24.82595],[-48.21878,-24.82813],[-48.21937,-24.8291],[-48.22187,-24.83215],[-48.22224,-24.83333],[-48.22277,-24.83568],[-48.22274,-24.83625],[-48.22227,-24.83686],[-48.22046,-24.83777],[-48.22007,-24.8382],[-48.21994,-24.83845],[-48.21985,-24.83904],[-48.2199,-24.83931],[-48.2206,-24.8409],[-48.22071,-24.84167],[-48.22048,-24.84259],[-48.21969,-24.84451],[-48.2194,-24.84569],[-48.21937,-24.84689],[-48.21986,-24.8493],[-48.21967,-24.84995],[-48.21924,-24.85049],[-48.21898,-24.85068],[-48.21838,-24.85094],[-48.21722,-24.8513],[-48.21651,-24.85167],[-48.21623,-24.85197],[-48.21594,-24.8526],[-48.21592,-24.85341],[-48.21641,-24.85692],[-48.21741,-24.85894],[-48.21874,-24.86514],[-48.21864,-24.86571],[-48.21849,-24.86592],[-48.21661,-24.86782],[-48.21632,-24.86834],[-48.21619,-24.8693],[-48.21633,-24.87188],[-48.21649,-24.87247],[-48.2168,-24.87292],[-48.21747,-24.8734],[-48.22088,-24.87509],[-48.2213,-24.87515],[-48.22157,-24.87511],[-48.22285,-24.87468],[-48.22383,-24.87448],[-48.22454,-24.87457],[-48.22496,-24.87473],[-48.22537,-24.87499],[-48.22805,-24.87746],[-48.2287,-24.87815],[-48.22923,-24.87899],[-48.22938,-24.8796],[-48.22933,-24.88029],[-48.22921,-24.88066],[-48.22878,-24.8814],[-48.22686,-24.88292],[-48.22643,-24.88336],[-48.22626,-24.88368],[-48.22615,-24.88452],[-48.22656,-24.88534],[-48.22707,-24.88579],[-48.2284,-24.88658],[-48.2394,-24.89284],[-48.24079,-24.89345],[-48.24154,-24.89362],[-48.24363,-24.89388],[-48.24445,-24.89424],[-48.24509,-24.89492],[-48.24715,-24.89952],[-48.24777,-24.90042],[-48.24839,-24.90113],[-48.24935,-24.90204],[-48.25066,-24.90289],[-48.25233,-24.90368],[-48.25429,-24.90449],[-48.25486,-24.90496],[-48.25515,-24.90552],[-48.25523,-24.90591],[-48.25522,-24.90641],[-48.25509,-24.90689],[-48.25413,-24.90829],[-48.25327,-24.90934],[-48.25287,-24.91027],[-48.25289,-24.91105],[-48.25333,-24.91259],[-48.25357,-24.91313],[-48.254,-24.91381],[-48.25612,-24.91604],[-48.25702,-24.91715],[-48.26007,-24.92159],[-48.26074,-24.92231],[-48.26173,-24.92316],[-48.26269,-24.92383],[-48.27227,-24.92874],[-48.27535,-24.93027],[-48.27711,-24.931],[-48.30538,-24.94032],[-48.30673,-24.94087],[-48.30764,-24.94135],[-48.3084,-24.94179],[-48.30969,-24.94269],[-48.31136,-24.94431],[-48.31227,-24.9455],[-48.31485,-24.94963],[-48.31535,-24.95022],[-48.31612,-24.95094],[-48.31723,-24.95163],[-48.3185,-24.95211],[-48.33003,-24.95421],[-48.33145,-24.95478],[-48.33234,-24.95535],[-48.33325,-24.9561],[-48.34573,-24.96718],[-48.3494,-24.97111],[-48.35018,-24.97161],[-48.35092,-24.97189],[-48.35159,-24.97197],[-48.35272,-24.97186],[-48.35887,-24.96965],[-48.35981,-24.96942],[-48.3609,-24.96933],[-48.36309,-24.96931],[-48.36444,-24.96935],[-48.36593,-24.96966],[-48.36694,-24.97006],[-48.37013,-24.97163],[-48.37082,-24.97176],[-48.37176,-24.97175],[-48.38031,-24.97018],[-48.38124,-24.96987],[-48.38428,-24.96834],[-48.38527,-24.96793],[-48.38699,-24.96751],[-48.38821,-24.96744],[-48.38893,-24.96745],[-48.39036,-24.96766],[-48.39408,-24.96845],[-48.39541,-24.96888],[-48.39676,-24.9697],[-48.39932,-24.97186],[-48.39974,-24.97214],[-48.40037,-24.9724],[-48.40124,-24.9726],[-48.40209,-24.97266],[-48.4029,-24.97252],[-48.40356,-24.9723],[-48.40434,-24.97194],[-48.405,-24.9714],[-48.4107,-24.96532],[-48.4118,-24.96392],[-48.41341,-24.96236],[-48.41442,-24.9615],[-48.41507,-24.96115],[-48.41593,-24.96086],[-48.41659,-24.96075],[-48.4185,-24.96066],[-48.41931,-24.96052],[-48.41981,-24.96033],[-48.4206,-24.95972],[-48.42095,-24.95921],[-48.42115,-24.95871],[-48.42139,-24.9569],[-48.42166,-24.9562],[-48.42206,-24.95564],[-48.42449,-24.95278],[-48.42482,-24.95224],[-48.42488,-24.95186],[-48.42482,-24.95157],[-48.42364,-24.94933],[-48.42358,-24.94884],[-48.42369,-24.9482],[-48.42393,-24.94776],[-48.42444,-24.94726],[-48.4253,-24.94692],[-48.42598,-24.94687],[-48.42875,-24.9469],[-48.43022,-24.94704],[-48.43662,-24.94929],[-48.43913,-24.95024],[-48.44046,-24.95099],[-48.44122,-24.95158],[-48.44388,-24.95401],[-48.44467,-24.95442],[-48.44531,-24.95454],[-48.44625,-24.95443],[-48.44873,-24.95322],[-48.44911,-24.95309],[-48.44983,-24.95308],[-48.4505,-24.95337],[-48.45216,-24.95509],[-48.4524,-24.95526],[-48.45288,-24.95542],[-48.45308,-24.95546],[-48.45357,-24.95539],[-48.45576,-24.95468],[-48.45648,-24.95464],[-48.4569,-24.95468],[-48.4628,-24.95615],[-48.46335,-24.95641],[-48.4639,-24.95683],[-48.4646,-24.95785],[-48.4663,-24.96079],[-48.46696,-24.96127],[-48.46773,-24.96134],[-48.47349,-24.96092],[-48.4746,-24.96096],[-48.47537,-24.96112],[-48.4765,-24.96153],[-48.47713,-24.96185],[-48.47981,-24.96392],[-48.48064,-24.96446],[-48.48153,-24.96487],[-48.48254,-24.96514],[-48.4849,-24.96546],[-48.48569,-24.96566],[-48.48944,-24.96726],[-48.49194,-24.96781],[-48.4931,-24.9682],[-48.49365,-24.96848],[-48.49533,-24.9697],[-48.49631,-24.97017],[-48.49768,-24.9705],[-48.49959,-24.9707],[-48.49994,-24.97082],[-48.5007,-24.97137],[-48.50208,-24.97287],[-48.50476,-24.97459],[-48.50511,-24.97499],[-48.50538,-24.97556],[-48.50596,-24.97983],[-48.50744,-24.98565],[-48.50759,-24.9866],[-48.50769,-24.98808],[-48.50784,-24.99294],[-48.50795,-24.99393],[-48.50833,-24.99577],[-48.50876,-24.99718],[-48.50912,-24.99875],[-48.50903,-25.00036],[-48.50773,-25.00679],[-48.50767,-25.00875],[-48.50781,-25.01027],[-48.5082,-25.01192],[-48.50905,-25.01441],[-48.51021,-25.01756],[-48.51074,-25.01834],[-48.51127,-25.01872],[-48.51179,-25.0189],[-48.51415,-25.01919],[-48.51496,-25.01947],[-48.51548,-25.01978],[-48.51598,-25.0203],[-48.51633,-25.02087],[-48.51723,-25.02336],[-48.51744,-25.02376],[-48.51782,-25.02421],[-48.51837,-25.02453],[-48.51875,-25.02463],[-48.51937,-25.02464],[-48.523,-25.02433],[-48.52382,-25.02444],[-48.52441,-25.02472],[-48.52482,-25.02505],[-48.52514,-25.02547],[-48.52571,-25.02731],[-48.526,-25.02785],[-48.52635,-25.02821],[-48.52662,-25.02844],[-48.52732,-25.02879],[-48.53108,-25.02978],[-48.53228,-25.0303],[-48.53276,-25.03067],[-48.53325,-25.03119],[-48.5361,-25.03502],[-48.53667,-25.03554],[-48.5373,-25.03576],[-48.54147,-25.0361],[-48.54506,-25.03586],[-48.54581,-25.03608],[-48.54632,-25.03636],[-48.54748,-25.0377],[-48.54831,-25.03891],[-48.54918,-25.04097],[-48.54952,-25.04149],[-48.5498,-25.04175],[-48.55033,-25.04198],[-48.55212,-25.04208],[-48.55282,-25.04232],[-48.5533,-25.04284],[-48.55365,-25.04357],[-48.55405,-25.04464],[-48.55414,-25.04525],[-48.55403,-25.0461],[-48.5532,-25.0486],[-48.55318,-25.04912],[-48.55336,-25.0497],[-48.55474,-25.05181],[-48.55536,-25.05293],[-48.55543,-25.05325],[-48.5556,-25.05701],[-48.55581,-25.05753],[-48.55612,-25.0579],[-48.55691,-25.05829],[-48.55932,-25.05901],[-48.56189,-25.05968],[-48.56246,-25.05992],[-48.56321,-25.06064],[-48.56453,-25.06282],[-48.56506,-25.06333],[-48.56548,-25.06353],[-48.56602,-25.06366],[-48.56683,-25.06361],[-48.56886,-25.06292],[-48.56944,-25.06294],[-48.56988,-25.0631],[-48.57036,-25.0635],[-48.57184,-25.06559],[-48.57233,-25.0661],[-48.57323,-25.06666],[-48.57442,-25.06694],[-48.57528,-25.06694],[-48.57616,-25.06675],[-48.57784,-25.06609],[-48.57873,-25.06605],[-48.57952,-25.06629],[-48.58311,-25.06791],[-48.5835,-25.06823],[-48.5839,-25.06871],[-48.58634,-25.07283],[-48.58689,-25.07351],[-48.58732,-25.07383],[-48.58786,-25.07409],[-48.59234,-25.07549],[-48.59318,-25.07579],[-48.59387,-25.07615],[-48.59451,-25.0767],[-48.60155,-25.08488],[-48.60363,-25.08674],[-48.60459,-25.0873],[-48.60568,-25.08751],[-48.60638,-25.08749],[-48.60841,-25.08701],[-48.60925,-25.08668],[-48.60984,-25.08618],[-48.61026,-25.08557],[-48.6108,-25.08409],[-48.61111,-25.08349],[-48.61151,-25.0831],[-48.61203,-25.08274],[-48.61269,-25.08255],[-48.61348,-25.08248],[-48.61763,-25.0823],[-48.61799,-25.08223],[-48.61962,-25.0814],[-48.62036,-25.08116],[-48.62233,-25.08096],[-48.62336,-25.08097],[-48.62999,-25.08307],[-48.63272,-25.08356],[-48.63337,-25.08348],[-48.63483,-25.08277],[-48.63559,-25.08256],[-48.63656,-25.08251],[-48.63785,-25.08275],[-48.6386,-25.08277],[-48.64044,-25.08223],[-48.64117,-25.08224],[-48.64152,-25.08234],[-48.64205,-25.08262],[-48.64248,-25.08307],[-48.64501,-25.08808],[-48.64645,-25.08997],[-48.64701,-25.09055],[-48.65337,-25.09615],[-48.65418,-25.09666],[-48.6547,-25.09688],[-48.65672,-25.09748],[-48.65853,-25.09776],[-48.65907,-25.0976],[-48.66018,-25.09696],[-48.66103,-25.0966],[-48.66247,-25.09627],[-48.66384,-25.09633],[-48.66683,-25.09682],[-48.6719,-25.09718],[-48.67263,-25.09736],[-48.67321,-25.09767],[-48.67459,-25.09911],[-48.67511,-25.09952],[-48.67571,-25.09978],[-48.67629,-25.09987],[-48.67698,-25.09982],[-48.67755,-25.09963],[-48.67929,-25.09853],[-48.67959,-25.09837],[-48.68019,-25.09822],[-48.68072,-25.0982],[-48.68493,-25.09856],[-48.68711,-25.0985],[-48.68777,-25.09868],[-48.68931,-25.09946],[-48.68996,-25.09963],[-48.69433,-25.09982],[-48.69543,-25.09999],[-48.69624,-25.1002],[-48.69737,-25.10065],[-48.69845,-25.10124],[-48.69944,-25.10189],[-48.70078,-25.10296],[-48.70159,-25.10329],[-48.70212,-25.10334],[-48.70515,-25.10324],[-48.70641,-25.10331],[-48.71434,-25.10456],[-48.71551,-25.10446],[-48.72959,-25.1006],[-48.73048,-25.10052],[-48.7309,-25.10056],[-48.73172,-25.10082],[-48.73778,-25.10358],[-48.73824,-25.10394],[-48.74065,-25.10644],[-48.74123,-25.10687],[-48.74189,-25.10724],[-48.74727,-25.10956],[-48.74991,-25.11086],[-48.75081,-25.11112],[-48.75173,-25.11109],[-48.75482,-25.11075],[-48.75929,-25.10966],[-48.76081,-25.10938],[-48.78552,-25.10685],[-48.78656,-25.10684],[-48.78803,-25.10701],[-48.79815,-25.10904],[-48.79936,-25.10917],[-48.80017,-25.10907],[-48.80088,-25.10888],[-48.8018,-25.10841],[-48.8076,-25.10411],[-48.80907,-25.10294],[-48.81095,-25.10091],[-48.81157,-25.10038],[-48.81213,-25.10005],[-48.81281,-25.09979],[-48.81324,-25.09966],[-48.81414,-25.09957],[-48.82503,-25.10035],[-48.82626,-25.10055],[-48.83011,-25.10144],[-48.83179,-25.10188],[-48.83285,-25.10224],[-48.83656,-25.10403],[-48.83747,-25.10444],[-48.83833,-25.10473],[-48.83941,-25.10498],[-48.84678,-25.10576],[-48.84769,-25.106],[-48.84889,-25.10656],[-48.84984,-25.10726],[-48.85194,-25.1093],[-48.85279,-25.11033],[-48.85309,-25.11091],[-48.85336,-25.11177],[-48.85353,-25.1127],[-48.85402,-25.11653],[-48.85428,-25.11764],[-48.8552,-25.1205],[-48.85692,-25.12528],[-48.85739,-25.12688],[-48.8575,-25.12907],[-48.85732,-25.13577],[-48.85719,-25.13651],[-48.85613,-25.13981],[-48.85614,-25.14075],[-48.85627,-25.14119],[-48.8591,-25.14779],[-48.85936,-25.14903],[-48.85937,-25.15095],[-48.8595,-25.15153],[-48.85989,-25.15218],[-48.86095,-25.15359],[-48.86135,-25.15453],[-48.8614,-25.15516],[-48.86132,-25.1566],[-48.86176,-25.15836],[-48.86218,-25.15949],[-48.86229,-25.16005],[-48.86225,-25.16048],[-48.86173,-25.16192],[-48.86161,-25.16247],[-48.86164,-25.16315],[-48.86184,-25.16377],[-48.86236,-25.16453],[-48.86677,-25.16889],[-48.86714,-25.16972],[-48.86812,-25.17356],[-48.86837,-25.17404],[-48.86897,-25.17472],[-48.86971,-25.17522],[-48.87061,-25.17554],[-48.87655,-25.17656],[-48.87755,-25.17675],[-48.87816,-25.17695],[-48.87873,-25.17736],[-48.87929,-25.17792],[-48.88037,-25.17927],[-48.88253,-25.1817],[-48.88396,-25.18262],[-48.88519,-25.18329],[-48.88567,-25.18371],[-48.88611,-25.18439],[-48.88616,-25.18509],[-48.88603,-25.18558],[-48.88547,-25.18665],[-48.88505,-25.18771],[-48.88461,-25.18921],[-48.88455,-25.1901],[-48.88483,-25.19084],[-48.88518,-25.19127],[-48.88566,-25.19162],[-48.88734,-25.19231],[-48.88801,-25.19272],[-48.88846,-25.19319],[-48.88921,-25.19423],[-48.88968,-25.1947],[-48.89139,-25.19603],[-48.89414,-25.1979],[-48.89473,-25.19858],[-48.8961,-25.20141],[-48.89618,-25.20183],[-48.89613,-25.20267],[-48.89574,-25.20394],[-48.89544,-25.20527],[-48.89546,-25.20622],[-48.89587,-25.20729],[-48.89657,-25.2085],[-48.8973,-25.21106],[-48.89768,-25.21167],[-48.89836,-25.21228],[-48.90224,-25.21484],[-48.90313,-25.21574],[-48.9037,-25.21654],[-48.904,-25.21723],[-48.9064,-25.22423],[-48.90799,-25.22995],[-48.90808,-25.23097],[-48.90809,-25.23404],[-48.908,-25.23501],[-48.90778,-25.23588],[-48.90734,-25.23691],[-48.9065,-25.23832],[-48.9042,-25.24069],[-48.90268,-25.24285],[-48.90246,-25.24369],[-48.90263,-25.24452],[-48.90296,-25.245],[-48.90409,-25.24628],[-48.90491,-25.24708],[-48.90598,-25.24778],[-48.90824,-25.24898],[-48.909,-25.24961],[-48.90964,-25.25038],[-48.91219,-25.25467],[-48.91303,-25.25624],[-48.91449,-25.26174],[-48.91491,-25.26304],[-48.91542,-25.26411],[-48.91729,-25.26732],[-48.91878,-25.26949],[-48.92372,-25.27604],[-48.9264,-25.27979],[-48.93198,-25.28729],[-48.9327,-25.28791],[-48.93351,-25.28842],[-48.93384,-25.28874],[-48.93406,-25.28909],[-48.93434,-25.28987],[-48.93441,-25.29065],[-48.93437,-25.29153],[-48.93457,-25.29225],[-48.935,-25.29328],[-48.93563,-25.29417],[-48.93623,-25.29478],[-48.9389,-25.29695],[-48.9393,-25.29737],[-48.94034,-25.29808],[-48.94123,-25.29892],[-48.94178,-25.29967],[-48.94314,-25.30266],[-48.94373,-25.30334],[-48.94517,-25.30434],[-48.94584,-25.30466],[-48.94701,-25.30503],[-48.94845,-25.30518],[-48.94963,-25.3051],[-48.96254,-25.30272],[-48.96358,-25.30266],[-48.96431,-25.30279],[-48.96549,-25.30315],[-48.97787,-25.30709],[-48.98025,-25.30777],[-48.98186,-25.30791],[-48.98295,-25.30784],[-48.99454,-25.30602],[-48.99541,-25.30607],[-48.99622,-25.30623],[-48.99688,-25.30654],[-49.00226,-25.3105],[-49.00273,-25.31073],[-49.00356,-25.31098],[-49.00419,-25.31104],[-49.00493,-25.31097],[-49.00732,-25.31043],[-49.00833,-25.31025],[-49.00922,-25.31018],[-49.01286,-25.31047],[-49.01393,-25.31074],[-49.01464,-25.31104],[-49.01502,-25.31124],[-49.01588,-25.31189],[-49.01675,-25.31278],[-49.01757,-25.31437],[-49.01867,-25.31721],[-49.01913,-25.31792],[-49.01983,-25.3186],[-49.02168,-25.31965],[-49.02261,-25.3203],[-49.0269,-25.32567],[-49.02999,-25.32921],[-49.03636,-25.33677],[-49.04322,-25.34386],[-49.04362,-25.3444],[-49.04416,-25.34544],[-49.04432,-25.34606],[-49.04438,-25.34719],[-49.04427,-25.34791],[-49.04394,-25.34886],[-49.04183,-25.35305],[-49.04114,-25.35516],[-49.04083,-25.3568],[-49.04072,-25.35853],[-49.04076,-25.35944],[-49.04095,-25.36107],[-49.04127,-25.36251],[-49.04178,-25.36407],[-49.04251,-25.36567],[-49.05144,-25.38033],[-49.05239,-25.38207],[-49.05333,-25.38452],[-49.05854,-25.40116],[-49.05912,-25.40271],[-49.06012,-25.40486],[-49.06069,-25.40591],[-49.06215,-25.40823],[-49.06363,-25.41015],[-49.07498,-25.42401],[-49.07637,-25.42528],[-49.08847,-25.43393],[-49.08967,-25.43507],[-49.09062,-25.43627],[-49.09126,-25.43732],[-49.09172,-25.43828],[-49.09224,-25.43987],[-49.09248,-25.44136],[-49.09251,-25.44255],[-49.0923,-25.44432],[-49.09213,-25.44504],[-49.09172,-25.44616],[-49.08849,-25.45328],[-49.08812,-25.4545],[-49.08793,-25.45554],[-49.08785,-25.45633],[-49.08787,-25.45736],[-49.08815,-25.45924],[-49.0889,-25.46156],[-49.09208,-25.47024],[-49.09291,-25.47201],[-49.09359,-25.47306],[-49.09446,-25.47417],[-49.09525,-25.47501],[-49.09626,-25.47591],[-49.09748,-25.4768],[-49.10522,-25.48181],[-49.10648,-25.48273],[-49.10795,-25.48413],[-49.10891,-25.4853],[-49.13072,-25.5151],[-49.13403,-25.51943],[-49.1379,-25.52415],[-49.14723,-25.53453],[-49.1492,-25.53686],[-49.14994,-25.53809],[-49.15033,-25.53893],[-49.15075,-25.54036],[-49.15094,-25.54184],[-49.1509,-25.54328],[-49.14986,-25.55428],[-49.14982,-25.55503],[-49.14992,-25.55637],[-49.15035,-25.55812],[-49.15096,-25.55946],[-49.15195,-25.56091],[-49.15283,-25.56187],[-49.15443,-25.56314],[-49.15568,-25.56384],[-49.15718,-25.56442],[-49.15826,-25.56469],[-49.16643,-25.56597],[-49.17337,-25.56755],[-49.17938,-25.56851],[-49.18086,-25.56878],[-49.18107,-25.5688],[-49.18132,-25.56885],[-49.18184,-25.56894],[-49.18193,-25.56895],[-49.18251,-25.56906],[-49.1832,-25.56906],[-49.18349,-25.56896],[-49.18377,-25.56865],[-49.18381,-25.56829],[-49.18368,-25.568],[-49.1835,-25.56785],[-49.18321,-25.56773],[-49.18294,-25.56773],[-49.18247,-25.56794],[-49.18222,-25.56822],[-49.182,-25.56864],[-49.18187,-25.56901],[-49.18177,-25.56933],[-49.18163,-25.56965],[-49.18105,-25.57138],[-49.18065,-25.57243],[-49.17696,-25.5833],[-49.17632,-25.58415],[-49.17336,-25.58658],[-49.17193,-25.58872],[-49.17162,-25.58941],[-49.17152,-25.59024],[-49.17159,-25.59066],[-49.1738,-25.59627],[-49.17397,-25.5969],[-49.17399,-25.59742],[-49.17296,-25.60424],[-49.1717,-25.61115],[-49.17144,-25.61216],[-49.17098,-25.61344],[-49.16847,-25.61934],[-49.16602,-25.62487],[-49.16118,-25.63623],[-49.15566,-25.65884],[-49.1483,-25.68257],[-49.14506,-25.69237],[-49.14484,-25.69384],[-49.14485,-25.6961],[-49.14463,-25.69746],[-49.14287,-25.70135],[-49.138,-25.71785],[-49.13691,-25.72108],[-49.13311,-25.73156],[-49.13281,-25.73223],[-49.13068,-25.73835],[-49.13017,-25.74357],[-49.13027,-25.74559],[-49.13026,-25.74649],[-49.13014,-25.74726],[-49.12983,-25.74821],[-49.12936,-25.7491],[-49.12769,-25.75114],[-49.12719,-25.7519],[-49.12688,-25.75259],[-49.12588,-25.75713],[-49.12527,-25.76132],[-49.12473,-25.76358],[-49.12426,-25.76623],[-49.12391,-25.76738],[-49.12086,-25.77498],[-49.12053,-25.77621],[-49.12036,-25.77772],[-49.12042,-25.77892],[-49.12101,-25.78271],[-49.12119,-25.78344],[-49.12161,-25.78457],[-49.12227,-25.78582],[-49.12586,-25.79068],[-49.13387,-25.80117],[-49.13427,-25.80179],[-49.13488,-25.80314],[-49.13524,-25.80484],[-49.13521,-25.80625],[-49.13498,-25.80734],[-49.1345,-25.80852],[-49.1289,-25.81963],[-49.12811,-25.82099],[-49.12758,-25.82164],[-49.12595,-25.82305],[-49.11758,-25.82927],[-49.11292,-25.83169],[-49.11158,-25.83257],[-49.11093,-25.83313],[-49.11022,-25.83389],[-49.10724,-25.83829],[-49.10601,-25.83975],[-49.10418,-25.84122],[-49.09873,-25.8453],[-49.09804,-25.84573],[-49.09691,-25.84625],[-49.09512,-25.84669],[-49.09455,-25.84678],[-49.09364,-25.84679],[-49.09235,-25.84658],[-49.09037,-25.84589],[-49.08885,-25.84561],[-49.08832,-25.84561],[-49.08745,-25.84573],[-49.08512,-25.84623],[-49.08447,-25.84633],[-49.08377,-25.84633],[-49.08299,-25.84615],[-49.08159,-25.84548],[-49.08075,-25.84524],[-49.07691,-25.84522],[-49.07397,-25.84486],[-49.07332,-25.84497],[-49.07224,-25.84536],[-49.06946,-25.84614],[-49.06879,-25.84618],[-49.06751,-25.84605],[-49.06711,-25.84607],[-49.06486,-25.84683],[-49.06373,-25.8469],[-49.06284,-25.84666],[-49.06212,-25.84623],[-49.06163,-25.84572],[-49.06082,-25.84459],[-49.05928,-25.84298],[-49.05879,-25.84258],[-49.05808,-25.84231],[-49.05751,-25.84225],[-49.0568,-25.84236],[-49.05378,-25.84359],[-49.05305,-25.84365],[-49.0524,-25.84351],[-49.04997,-25.84251],[-49.04821,-25.84131],[-49.04753,-25.84103],[-49.04686,-25.84098],[-49.04602,-25.84105],[-49.04401,-25.84146],[-49.04253,-25.84162],[-49.03974,-25.84135],[-49.03917,-25.84146],[-49.03885,-25.8416],[-49.03823,-25.84203],[-49.03713,-25.84315],[-49.03646,-25.84409],[-49.03606,-25.84512],[-49.03599,-25.84584],[-49.03641,-25.84823],[-49.03626,-25.84888],[-49.03583,-25.84952],[-49.03512,-25.84999],[-49.03091,-25.85191],[-49.0302,-25.85237],[-49.0294,-25.85303],[-49.02854,-25.8535],[-49.02458,-25.85457],[-49.02406,-25.85459],[-49.02364,-25.85451],[-49.02292,-25.85419],[-49.021,-25.85236],[-49.02027,-25.85179],[-49.01714,-25.85006],[-49.01563,-25.84958],[-49.01465,-25.84949],[-49.01384,-25.84952],[-49.01294,-25.8497],[-49.00689,-25.85169],[-49.0057,-25.85174],[-49.00365,-25.85161],[-49.00257,-25.8518],[-49.00149,-25.85236],[-48.99779,-25.8549],[-48.99714,-25.85521],[-48.99667,-25.8553],[-48.99583,-25.85526],[-48.99519,-25.85505],[-48.9931,-25.85385],[-48.99214,-25.85355],[-48.99122,-25.85354],[-48.98534,-25.85462],[-48.98416,-25.85466],[-48.98372,-25.85459],[-48.98043,-25.85355],[-48.97886,-25.85315],[-48.97653,-25.8528],[-48.97347,-25.85265],[-48.97091,-25.85197],[-48.96993,-25.85184],[-48.96949,-25.85185],[-48.96878,-25.85196],[-48.96812,-25.85219],[-48.96506,-25.85367],[-48.9608,-25.855],[-48.96018,-25.85507],[-48.95968,-25.85501],[-48.95851,-25.85452],[-48.95791,-25.85439],[-48.95736,-25.85439],[-48.95493,-25.85509],[-48.95303,-25.85541],[-48.95252,-25.85564],[-48.95209,-25.85608],[-48.95182,-25.85664],[-48.95072,-25.85946],[-48.95089,-25.86068],[-48.95067,-25.86194],[-48.95102,-25.86289],[-48.95104,-25.8632],[-48.95094,-25.86358],[-48.95056,-25.86398],[-48.94943,-25.86464],[-48.9492,-25.86512],[-48.94898,-25.86607],[-48.94856,-25.86653],[-48.94814,-25.86672],[-48.94773,-25.86679],[-48.94711,-25.86667],[-48.94547,-25.86579],[-48.94474,-25.86564],[-48.9414,-25.86594],[-48.94036,-25.86583],[-48.93967,-25.86551],[-48.9366,-25.86353],[-48.93631,-25.86344],[-48.93563,-25.86344],[-48.93524,-25.86354],[-48.93485,-25.86374],[-48.93435,-25.86423],[-48.93414,-25.86474],[-48.93393,-25.86698],[-48.93369,-25.86798],[-48.93373,-25.8687],[-48.93398,-25.86918],[-48.93434,-25.86951],[-48.93683,-25.87069],[-48.93718,-25.87114],[-48.93725,-25.87148],[-48.93713,-25.87201],[-48.93623,-25.8729],[-48.93608,-25.87315],[-48.93608,-25.87371],[-48.93645,-25.87496],[-48.93643,-25.87548],[-48.93626,-25.87607],[-48.93418,-25.87978],[-48.93391,-25.88055],[-48.93388,-25.88104],[-48.93401,-25.88172],[-48.93471,-25.88308],[-48.93508,-25.88431],[-48.93513,-25.8856],[-48.93492,-25.88668],[-48.93303,-25.89114],[-48.93203,-25.89289],[-48.92876,-25.89736],[-48.92206,-25.90502],[-48.92154,-25.90571],[-48.92114,-25.90649],[-48.9208,-25.90763],[-48.91953,-25.91668],[-48.91917,-25.91829],[-48.91896,-25.91879],[-48.91826,-25.91997],[-48.91541,-25.92418],[-48.91354,-25.92673],[-48.91295,-25.92786],[-48.91244,-25.92945],[-48.9119,-25.93221],[-48.91142,-25.9334],[-48.91064,-25.93477],[-48.91025,-25.93576],[-48.91001,-25.9372],[-48.90975,-25.94029],[-48.90954,-25.94126],[-48.90938,-25.94167],[-48.90805,-25.94394],[-48.90774,-25.94462],[-48.90734,-25.94583],[-48.90688,-25.94781],[-48.90649,-25.94879],[-48.90579,-25.94979],[-48.90254,-25.95304],[-48.90155,-25.95415],[-48.90116,-25.9549],[-48.90095,-25.95574],[-48.90096,-25.95874],[-48.9009,-25.95921],[-48.9007,-25.9597],[-48.90025,-25.96021],[-48.899,-25.96121],[-48.89859,-25.96169],[-48.89836,-25.96212],[-48.89763,-25.96424],[-48.89701,-25.9654],[-48.89076,-25.97284],[-48.89023,-25.9736],[-48.88986,-25.97433],[-48.88811,-25.97903],[-48.88713,-25.98068],[-48.8858,-25.98242],[-48.88537,-25.98338],[-48.88516,-25.98421],[-48.885,-25.98663],[-48.88483,-25.9873],[-48.88466,-25.98763],[-48.88329,-25.98924],[-48.88283,-25.98991],[-48.88174,-25.99197],[-48.88121,-25.99276],[-48.88029,-25.99386],[-48.87985,-25.99459],[-48.87838,-25.99813],[-48.87809,-25.99867],[-48.87774,-25.99909],[-48.87683,-25.99992],[-48.87165,-26.0043],[-48.87114,-26.00459],[-48.8699,-26.00512],[-48.86746,-26.00586],[-48.86642,-26.00646],[-48.86552,-26.00743],[-48.8648,-26.00843],[-48.86231,-26.01337],[-48.86208,-26.01404],[-48.862,-26.01465],[-48.86233,-26.01817],[-48.86234,-26.019],[-48.86149,-26.02622],[-48.86091,-26.03039],[-48.85967,-26.04129],[-48.85958,-26.05369],[-48.85964,-26.05676],[-48.86029,-26.06437],[-48.86051,-26.06608],[-48.86079,-26.07026],[-48.86221,-26.08672],[-48.86237,-26.08756],[-48.8629,-26.08891],[-48.86514,-26.093],[-48.86614,-26.09508],[-48.87041,-26.10321],[-48.87182,-26.10531],[-48.87222,-26.10614],[-48.87276,-26.10767],[-48.87548,-26.11286],[-48.87625,-26.11404],[-48.88927,-26.12909],[-48.88988,-26.12955],[-48.89073,-26.13001],[-48.89338,-26.13086],[-48.89447,-26.13141],[-48.89512,-26.13199],[-48.89737,-26.13474],[-48.89813,-26.13545],[-48.89988,-26.13683],[-48.90053,-26.13756],[-48.90182,-26.13942],[-48.90549,-26.14337],[-48.90619,-26.14424],[-48.90891,-26.14791],[-48.90915,-26.14843],[-48.90928,-26.14898],[-48.90924,-26.14986],[-48.90787,-26.15646],[-48.90759,-26.15821],[-48.90725,-26.17186],[-48.90732,-26.17334],[-48.9076,-26.17479],[-48.90959,-26.18117],[-48.91122,-26.18492],[-48.91151,-26.18589],[-48.91246,-26.19689],[-48.91276,-26.19918],[-48.91575,-26.2108],[-48.91596,-26.21441],[-48.91608,-26.21528],[-48.91649,-26.22622],[-48.91668,-26.22888],[-48.91678,-26.23198],[-48.91665,-26.23293],[-48.9164,-26.23372],[-48.91595,-26.23472],[-48.91049,-26.24416],[-48.91018,-26.24513],[-48.9099,-26.24749],[-48.90975,-26.24825],[-48.9095,-26.24898],[-48.90915,-26.24968],[-48.90581,-26.25427],[-48.90525,-26.25529],[-48.90462,-26.25705],[-48.90389,-26.25958],[-48.9034,-26.26081],[-48.90276,-26.2618],[-48.90229,-26.26237],[-48.89901,-26.26556],[-48.89726,-26.26688],[-48.89673,-26.26736],[-48.89602,-26.26812],[-48.89574,-26.26854],[-48.89532,-26.26944],[-48.89381,-26.27447],[-48.89327,-26.27583],[-48.88559,-26.28933],[-48.88496,-26.29111],[-48.8834,-26.30076],[-48.88317,-26.30182],[-48.88281,-26.30266],[-48.87811,-26.30972],[-48.87731,-26.31053],[-48.87443,-26.31255],[-48.87402,-26.31296],[-48.87372,-26.31375],[-48.8736,-26.31577],[-48.8735,-26.31632],[-48.8732,-26.31693],[-48.86747,-26.32399],[-48.8631,-26.32922],[-48.86256,-26.33005],[-48.86205,-26.33109],[-48.85969,-26.33632],[-48.85945,-26.33719],[-48.85916,-26.33945],[-48.85744,-26.34591],[-48.85727,-26.34717],[-48.8573,-26.34824],[-48.85747,-26.34917],[-48.85869,-26.35344],[-48.85882,-26.35414],[-48.859,-26.36086],[-48.85892,-26.3642],[-48.85748,-26.36958],[-48.85627,-26.3733],[-48.85564,-26.3745],[-48.85209,-26.37826],[-48.85187,-26.37859],[-48.85162,-26.37941],[-48.85176,-26.38142],[-48.85165,-26.382],[-48.85108,-26.38295],[-48.84988,-26.38454],[-48.84919,-26.38506],[-48.84861,-26.38534],[-48.84188,-26.38731],[-48.84099,-26.38793],[-48.84048,-26.38865],[-48.84027,-26.38921],[-48.83901,-26.39522],[-48.83908,-26.39636],[-48.83989,-26.39982],[-48.83997,-26.40072],[-48.83991,-26.4014],[-48.83956,-26.40272],[-48.83707,-26.40897],[-48.83593,-26.41417],[-48.8357,-26.41492],[-48.83541,-26.41546],[-48.83194,-26.41922],[-48.83133,-26.41998],[-48.82846,-26.42527],[-48.82762,-26.42665],[-48.82697,-26.42741],[-48.82495,-26.4293],[-48.82265,-26.43204],[-48.82215,-26.4325],[-48.82123,-26.43314],[-48.82029,-26.4336],[-48.81295,-26.43594],[-48.80895,-26.43709],[-48.80415,-26.43808],[-48.80368,-26.43825],[-48.80328,-26.43849],[-48.80166,-26.43986],[-48.79393,-26.44674],[-48.79331,-26.44712],[-48.79233,-26.44757],[-48.78971,-26.4483],[-48.7884,-26.44885],[-48.78755,-26.44939],[-48.78378,-26.45211],[-48.78252,-26.45281],[-48.77804,-26.45443],[-48.77658,-26.45478],[-48.77445,-26.4549],[-48.76652,-26.45503],[-48.76521,-26.45526],[-48.76432,-26.45558],[-48.75801,-26.45919],[-48.75697,-26.46],[-48.75551,-26.46151],[-48.75507,-26.46187],[-48.75394,-26.46256],[-48.75201,-26.46341],[-48.75141,-26.46375],[-48.75079,-26.46416],[-48.75005,-26.46479],[-48.73718,-26.48017],[-48.73553,-26.48252],[-48.73511,-26.48382],[-48.73493,-26.48493],[-48.7349,-26.48615],[-48.73438,-26.48827],[-48.73369,-26.49261],[-48.73341,-26.49371],[-48.73316,-26.49434],[-48.7318,-26.49681],[-48.71745,-26.52081],[-48.71718,-26.5213],[-48.7166,-26.52278],[-48.7153,-26.52775],[-48.71488,-26.52906],[-48.71231,-26.53928],[-48.71214,-26.54049],[-48.71201,-26.54278],[-48.71205,-26.54437],[-48.71218,-26.54503],[-48.71367,-26.54883],[-48.7141,-26.54957],[-48.71491,-26.55049],[-48.71898,-26.55361],[-48.71946,-26.55407],[-48.71995,-26.55467],[-48.72028,-26.55522],[-48.72071,-26.55641],[-48.72088,-26.55752],[-48.72084,-26.55838],[-48.71977,-26.56411],[-48.7197,-26.56557],[-48.71978,-26.56665],[-48.72008,-26.56793],[-48.7205,-26.56889],[-48.72092,-26.56975],[-48.72233,-26.57207],[-48.72268,-26.57296],[-48.72287,-26.57398],[-48.72286,-26.57484],[-48.72169,-26.58838],[-48.72225,-26.59133],[-48.72234,-26.5944],[-48.72249,-26.59529],[-48.72298,-26.59643],[-48.72482,-26.59964],[-48.7252,-26.60043],[-48.72548,-26.60149],[-48.72551,-26.60275],[-48.72535,-26.60358],[-48.72512,-26.60422],[-48.71743,-26.62055],[-48.71676,-26.62158],[-48.7159,-26.62249],[-48.71493,-26.62329],[-48.69026,-26.6417],[-48.68919,-26.64274],[-48.68847,-26.64372],[-48.68766,-26.64521],[-48.68708,-26.6468],[-48.68684,-26.64818],[-48.68687,-26.64946],[-48.6902,-26.67182],[-48.69053,-26.67352],[-48.69835,-26.6945],[-48.6988,-26.69622],[-48.69908,-26.7],[-48.69933,-26.70115],[-48.70268,-26.70998],[-48.70285,-26.71059],[-48.70302,-26.71181],[-48.70302,-26.71263],[-48.70248,-26.71601],[-48.70233,-26.71781],[-48.70226,-26.72802],[-48.70206,-26.72935],[-48.70167,-26.73092],[-48.69981,-26.73504],[-48.69737,-26.74522],[-48.69686,-26.74653],[-48.69584,-26.74805],[-48.6917,-26.75207],[-48.69081,-26.75323],[-48.69034,-26.75401],[-48.68785,-26.75882],[-48.68704,-26.76056],[-48.68671,-26.76204],[-48.68585,-26.77526],[-48.6857,-26.77648],[-48.68531,-26.77806],[-48.68333,-26.78266],[-48.68292,-26.78387],[-48.67975,-26.79706],[-48.67891,-26.80078],[-48.67885,-26.80141],[-48.67891,-26.80245],[-48.67906,-26.80333],[-48.67951,-26.80502],[-48.67989,-26.80587],[-48.68038,-26.80666],[-48.6824,-26.80921],[-48.68283,-26.81001],[-48.68304,-26.81061],[-48.68332,-26.81215],[-48.68338,-26.81704],[-48.68354,-26.81811],[-48.68395,-26.81946],[-48.68474,-26.82077],[-48.68621,-26.82233],[-48.69036,-26.82593],[-48.69108,-26.82669],[-48.69181,-26.82772],[-48.69325,-26.83049],[-48.69424,-26.83167],[-48.69518,-26.8326],[-48.69625,-26.83333],[-48.69746,-26.83387],[-48.69949,-26.83452],[-48.70011,-26.83467],[-48.70098,-26.83477],[-48.70642,-26.83476],[-48.70759,-26.83485],[-48.70902,-26.8352],[-48.71025,-26.83575],[-48.71154,-26.83668],[-48.71543,-26.84087],[-48.7241,-26.84829],[-48.72477,-26.84894],[-48.72546,-26.8498],[-48.72618,-26.85107],[-48.72689,-26.85308],[-48.72712,-26.85407],[-48.72741,-26.8567],[-48.72793,-26.85964],[-48.73005,-26.86613],[-48.73019,-26.8678],[-48.73012,-26.86866],[-48.72994,-26.86952],[-48.72971,-26.87021],[-48.71728,-26.90002],[-48.71643,-26.90249],[-48.71546,-26.9044],[-48.70836,-26.92152],[-48.70491,-26.92969],[-48.70449,-26.93051],[-48.70367,-26.93164],[-48.70215,-26.93324],[-48.69459,-26.94083],[-48.69196,-26.94333],[-48.6903,-26.94433],[-48.68245,-26.94846],[-48.68171,-26.94898],[-48.68099,-26.94962],[-48.68037,-26.95037],[-48.68003,-26.95098],[-48.67964,-26.95211],[-48.67952,-26.95323],[-48.67997,-26.95786],[-48.68009,-26.95848],[-48.68079,-26.96013],[-48.68118,-26.96072],[-48.68155,-26.96112],[-48.68306,-26.96342],[-48.68357,-26.96471],[-48.68383,-26.96605],[-48.6838,-26.96749],[-48.68248,-26.97612],[-48.68215,-26.97747],[-48.6815,-26.97868],[-48.68114,-26.97913],[-48.68048,-26.97975],[-48.6791,-26.9806],[-48.67603,-26.98188],[-48.67357,-26.98264],[-48.66942,-26.98418],[-48.66849,-26.98465],[-48.66758,-26.98525],[-48.66644,-26.98638],[-48.66246,-26.99143],[-48.6614,-26.99259],[-48.65773,-26.99547],[-48.65689,-26.99597],[-48.65612,-26.99632],[-48.65473,-26.9968],[-48.61946,-27.00711],[-48.61772,-27.00781],[-48.61685,-27.00834],[-48.61569,-27.00927],[-48.61478,-27.01035],[-48.614,-27.01167],[-48.61037,-27.01885],[-48.60753,-27.02399],[-48.6067,-27.0257],[-48.60588,-27.02764],[-48.60533,-27.02821],[-48.60449,-27.02858],[-48.60414,-27.02863],[-48.60301,-27.02858],[-48.60232,-27.02871],[-48.60151,-27.02922],[-48.60112,-27.0298],[-48.60079,-27.03106],[-48.60061,-27.03228],[-48.60092,-27.03425],[-48.60093,-27.03475],[-48.60017,-27.03871],[-48.59973,-27.04221],[-48.59908,-27.04412],[-48.59913,-27.04447],[-48.59965,-27.04558],[-48.59953,-27.04644],[-48.59957,-27.04688],[-48.59983,-27.04748],[-48.60049,-27.04861],[-48.60068,-27.04915],[-48.60073,-27.04985],[-48.60008,-27.05145],[-48.60001,-27.05181],[-48.60006,-27.05224],[-48.60044,-27.05351],[-48.60045,-27.05441],[-48.60027,-27.05505],[-48.59995,-27.05553],[-48.59796,-27.05756],[-48.59723,-27.05863],[-48.59681,-27.05957],[-48.59648,-27.06058],[-48.59621,-27.06206],[-48.59554,-27.06947],[-48.59557,-27.07033],[-48.5957,-27.07098],[-48.59647,-27.07275],[-48.59817,-27.07603],[-48.60105,-27.08107],[-48.60177,-27.0819],[-48.60272,-27.08264],[-48.61514,-27.09004],[-48.61602,-27.09068],[-48.61689,-27.09164],[-48.61737,-27.09245],[-48.61833,-27.09532],[-48.61858,-27.09634],[-48.61871,-27.098],[-48.61861,-27.09919],[-48.61835,-27.10055],[-48.61777,-27.10203],[-48.6174,-27.10275],[-48.61673,-27.10373],[-48.61272,-27.10909],[-48.61117,-27.11154],[-48.6106,-27.11278],[-48.60992,-27.11478],[-48.60951,-27.11657],[-48.60936,-27.11759],[-48.60932,-27.11956],[-48.60979,-27.13079],[-48.61032,-27.14182],[-48.61061,-27.14389],[-48.61056,-27.14768],[-48.61212,-27.18168],[-48.6126,-27.18543],[-48.61257,-27.18796],[-48.61265,-27.18973],[-48.61256,-27.19139],[-48.61262,-27.19294],[-48.61313,-27.19498],[-48.6137,-27.19669],[-48.61407,-27.19754],[-48.62394,-27.21586],[-48.62538,-27.21865],[-48.62634,-27.22085],[-48.6268,-27.22204],[-48.62964,-27.23095],[-48.6302,-27.23318],[-48.63042,-27.23499],[-48.63115,-27.24952],[-48.63156,-27.25279],[-48.63146,-27.25479],[-48.63194,-27.26556],[-48.63142,-27.2774],[-48.63155,-27.27945],[-48.63144,-27.28091],[-48.63119,-27.28246],[-48.63083,-27.29133],[-48.63299,-27.30856],[-48.63307,-27.31007],[-48.63291,-27.31117],[-48.63267,-27.31202],[-48.62823,-27.31999],[-48.62788,-27.32077],[-48.6276,-27.32174],[-48.62686,-27.32742],[-48.62684,-27.32834],[-48.62702,-27.33241],[-48.62731,-27.33436],[-48.62736,-27.33533],[-48.62725,-27.33736],[-48.6273,-27.33925],[-48.62739,-27.33989],[-48.62759,-27.34048],[-48.62809,-27.34117],[-48.63162,-27.34405],[-48.63205,-27.34455],[-48.63254,-27.34532],[-48.63299,-27.34644],[-48.63311,-27.3471],[-48.63314,-27.3481],[-48.63278,-27.35006],[-48.63289,-27.35089],[-48.63296,-27.3513],[-48.63342,-27.35256],[-48.63404,-27.35393],[-48.63414,-27.35457],[-48.63409,-27.35548],[-48.63337,-27.35759],[-48.63323,-27.35883],[-48.63332,-27.36017],[-48.63408,-27.36535],[-48.63414,-27.36719],[-48.63394,-27.3693],[-48.6333,-27.37252],[-48.6326,-27.37446],[-48.63115,-27.3775],[-48.63091,-27.37826],[-48.63077,-27.37904],[-48.63073,-27.37995],[-48.6308,-27.38051],[-48.63194,-27.38783],[-48.632,-27.38903],[-48.63189,-27.39033],[-48.62728,-27.41288],[-48.62692,-27.41504],[-48.62477,-27.42445],[-48.62445,-27.42693],[-48.62418,-27.42799],[-48.62369,-27.42927],[-48.62356,-27.43025],[-48.62361,-27.4309],[-48.62382,-27.43166],[-48.62411,-27.43228],[-48.62444,-27.43279],[-48.62563,-27.43405],[-48.62592,-27.43463],[-48.62605,-27.4354],[-48.62611,-27.437],[-48.62643,-27.4384],[-48.62802,-27.44221],[-48.62838,-27.44287],[-48.63449,-27.45247],[-48.63573,-27.45427],[-48.63815,-27.45824],[-48.64125,-27.46301],[-48.64195,-27.46427],[-48.64206,-27.46495],[-48.64079,-27.47564],[-48.64076,-27.47611],[-48.64091,-27.47676],[-48.64144,-27.47748],[-48.6419,-27.47778],[-48.64359,-27.47856],[-48.64398,-27.47883],[-48.64454,-27.47937],[-48.64686,-27.48299],[-48.64837,-27.48588],[-48.64867,-27.48627],[-48.64917,-27.48663],[-48.64973,-27.4869],[-48.65461,-27.48862],[-48.65537,-27.48906],[-48.65583,-27.48949],[-48.65624,-27.49009],[-48.65651,-27.49092],[-48.65715,-27.49564],[-48.65704,-27.49686],[-48.65678,-27.4977],[-48.65619,-27.49883],[-48.65551,-27.49969],[-48.64038,-27.51363],[-48.63986,-27.5144],[-48.63957,-27.51504],[-48.63908,-27.51731],[-48.63889,-27.51777],[-48.63808,-27.51896],[-48.63777,-27.51961],[-48.63719,-27.52272],[-48.63681,-27.52372],[-48.63092,-27.53314],[-48.63027,-27.53392],[-48.62469,-27.5384],[-48.62386,-27.53914],[-48.62244,-27.54067],[-48.62136,-27.54221],[-48.62056,-27.54391],[-48.62024,-27.54487],[-48.61994,-27.54625],[-48.61938,-27.55506],[-48.61916,-27.55656],[-48.61874,-27.5576],[-48.61462,-27.56491],[-48.61425,-27.56585],[-48.6138,-27.57112],[-48.61343,-27.57707],[-48.6136,-27.57792],[-48.61608,-27.58565],[-48.61763,-27.59007],[-48.61968,-27.59635],[-48.62032,-27.59751],[-48.62304,-27.60042],[-48.62383,-27.60094],[-48.62457,-27.60121],[-48.63039,-27.60248],[-48.63108,-27.60275],[-48.63202,-27.60328],[-48.63312,-27.60417],[-48.64339,-27.61446],[-48.65102,-27.62199],[-48.65236,-27.62323],[-48.6549,-27.62587],[-48.66228,-27.63318],[-48.66305,-27.63407],[-48.66704,-27.63948],[-48.67407,-27.64924],[-48.6764,-27.65233],[-48.67741,-27.65351],[-48.67821,-27.65492],[-48.67843,-27.65574],[-48.6785,-27.65655],[-48.67837,-27.65766],[-48.67822,-27.65815],[-48.67371,-27.66841],[-48.67097,-27.6754],[-48.65762,-27.70671],[-48.65707,-27.70758],[-48.65623,-27.70849],[-48.65182,-27.71168],[-48.65084,-27.71263],[-48.6485,-27.71614],[-48.64448,-27.72245],[-48.64133,-27.73201],[-48.63694,-27.74576],[-48.63395,-27.75259],[-48.63288,-27.75482],[-48.63093,-27.75937],[-48.6307,-27.76048],[-48.63067,-27.76138],[-48.63087,-27.76468],[-48.63112,-27.76715],[-48.63155,-27.76811],[-48.63285,-27.76965],[-48.63334,-27.77063],[-48.63449,-27.77545],[-48.63463,-27.77636],[-48.63571,-27.78119],[-48.6357,-27.78255],[-48.63537,-27.78428],[-48.63536,-27.78522],[-48.63544,-27.78569],[-48.63598,-27.78717],[-48.6371,-27.78953],[-48.63799,-27.7912],[-48.63835,-27.7922],[-48.63831,-27.79392],[-48.63815,-27.79564],[-48.63755,-27.79787],[-48.63743,-27.79848],[-48.63742,-27.79924],[-48.63768,-27.80159],[-48.63878,-27.80557],[-48.63883,-27.80611],[-48.63869,-27.80797],[-48.63856,-27.80831],[-48.63826,-27.80875],[-48.63775,-27.80905],[-48.63659,-27.80952],[-48.63594,-27.80996],[-48.63414,-27.81166],[-48.63359,-27.81234],[-48.63314,-27.81331],[-48.63135,-27.81836],[-48.63093,-27.81965],[-48.62998,-27.83002],[-48.62988,-27.83152],[-48.62992,-27.83192],[-48.63024,-27.83331],[-48.63724,-27.84759],[-48.63763,-27.84826],[-48.63801,-27.84872],[-48.64109,-27.85175],[-48.64157,-27.85244],[-48.64192,-27.85311],[-48.64548,-27.86167],[-48.6459,-27.86291],[-48.64604,-27.8637],[-48.6475,-27.8818],[-48.64765,-27.88317],[-48.64802,-27.88454],[-48.64798,-27.88703],[-48.6481,-27.88886],[-48.64966,-27.90821],[-48.64987,-27.90934],[-48.65077,-27.91226],[-48.65217,-27.91499],[-48.6542,-27.91841],[-48.65781,-27.92537],[-48.66249,-27.93403],[-48.66289,-27.93526],[-48.66342,-27.93799],[-48.66388,-27.9389],[-48.66457,-27.93978],[-48.67066,-27.94661],[-48.67145,-27.94763],[-48.67867,-27.95959],[-48.67939,-27.96108],[-48.67974,-27.96238],[-48.67986,-27.9641],[-48.67952,-27.97434],[-48.67927,-27.98561],[-48.67941,-27.9868],[-48.67978,-27.98788],[-48.68042,-27.98898],[-48.68089,-27.98953],[-48.68184,-27.99033],[-48.68296,-27.99099],[-48.68682,-27.99299],[-48.68747,-27.99345],[-48.68819,-27.9941],[-48.6888,-27.99485],[-48.69077,-27.99801],[-48.69463,-28.00309],[-48.6951,-28.00408],[-48.69534,-28.00507],[-48.69545,-28.00774],[-48.69556,-28.00844],[-48.69558,-28.01033],[-48.69515,-28.0129],[-48.69522,-28.01699],[-48.69539,-28.01789],[-48.69582,-28.01862],[-48.69658,-28.01926],[-48.69832,-28.02007],[-48.69887,-28.02021],[-48.70079,-28.02048],[-48.70154,-28.02086],[-48.70234,-28.02174],[-48.70278,-28.02294],[-48.70384,-28.02648],[-48.70418,-28.02721],[-48.70794,-28.03329],[-48.70929,-28.03575],[-48.71079,-28.03799],[-48.71271,-28.04117],[-48.71361,-28.04294],[-48.7169,-28.0525],[-48.71769,-28.05515],[-48.71779,-28.05582],[-48.71777,-28.05747],[-48.71741,-28.05901],[-48.71672,-28.06152],[-48.71603,-28.06351],[-48.71547,-28.06572],[-48.7141,-28.07019],[-48.71375,-28.07173],[-48.71219,-28.07735],[-48.71151,-28.08021],[-48.71107,-28.08318],[-48.7102,-28.09149],[-48.70996,-28.09251],[-48.70956,-28.09345],[-48.70903,-28.09434],[-48.70588,-28.09766],[-48.70508,-28.09882],[-48.70465,-28.09968],[-48.70406,-28.10154],[-48.70152,-28.11255],[-48.70089,-28.11436],[-48.70007,-28.11621],[-48.69292,-28.13046],[-48.69249,-28.13159],[-48.69227,-28.13286],[-48.69201,-28.14861],[-48.69206,-28.1498],[-48.69704,-28.19131],[-48.69936,-28.21148],[-48.69976,-28.21414],[-48.70197,-28.2323],[-48.70194,-28.23301],[-48.70173,-28.23395],[-48.70093,-28.23603],[-48.70067,-28.23704],[-48.69988,-28.24318],[-48.69993,-28.24504],[-48.70008,-28.24594],[-48.70115,-28.2499],[-48.70258,-28.25309],[-48.70297,-28.25415],[-48.70436,-28.25825],[-48.7046,-28.25954],[-48.70441,-28.26113],[-48.70329,-28.26345],[-48.7025,-28.26478],[-48.70189,-28.26602],[-48.70124,-28.26778],[-48.70052,-28.27082],[-48.70018,-28.27267],[-48.69989,-28.27521],[-48.69995,-28.2764],[-48.70008,-28.27713],[-48.70029,-28.27788],[-48.70071,-28.27891],[-48.70363,-28.28437],[-48.70461,-28.28603],[-48.70515,-28.28677],[-48.70653,-28.28836],[-48.71891,-28.30105],[-48.71976,-28.30233],[-48.72351,-28.31252],[-48.73078,-28.32551],[-48.73177,-28.32769],[-48.73222,-28.32925],[-48.73258,-28.3315],[-48.73294,-28.34158],[-48.73302,-28.34217],[-48.73335,-28.34318],[-48.73393,-28.34428],[-48.7353,-28.34589],[-48.74296,-28.35408],[-48.74438,-28.35569],[-48.79035,-28.40482],[-48.7907,-28.40529],[-48.79118,-28.40616],[-48.79512,-28.41636],[-48.79568,-28.4176],[-48.79614,-28.41839],[-48.80567,-28.43295],[-48.81048,-28.43834],[-48.81163,-28.4394],[-48.81221,-28.43976],[-48.81318,-28.44022],[-48.81465,-28.44055],[-48.82147,-28.44101],[-48.82318,-28.44087],[-48.82595,-28.44014],[-48.84039,-28.43601],[-48.84262,-28.43511],[-48.84391,-28.43446],[-48.84489,-28.4339],[-48.84642,-28.43283],[-48.8486,-28.43091],[-48.85221,-28.42686],[-48.8532,-28.42586],[-48.85423,-28.4253],[-48.85511,-28.42506],[-48.85603,-28.425],[-48.85741,-28.42522],[-48.85926,-28.42603],[-48.86046,-28.42642],[-48.86119,-28.42654],[-48.86345,-28.42666],[-48.86481,-28.42693],[-48.86563,-28.42724],[-48.86773,-28.4283],[-48.87048,-28.4294],[-48.87208,-28.42983],[-48.87365,-28.43],[-48.87515,-28.42994],[-48.87664,-28.42967],[-48.88439,-28.42709],[-48.8915,-28.42543],[-48.89408,-28.42476],[-48.89676,-28.42435],[-48.89876,-28.42439],[-48.90112,-28.42463],[-48.90216,-28.42483],[-48.91627,-28.42899],[-48.91774,-28.42926],[-48.91871,-28.42929],[-48.91962,-28.42925],[-48.92196,-28.42897],[-48.92404,-28.4286],[-48.9267,-28.42752],[-48.93116,-28.42554],[-48.93241,-28.42517],[-48.93487,-28.42474],[-48.93759,-28.42439],[-48.93929,-28.4243],[-48.94086,-28.42446],[-48.9422,-28.42482],[-48.94386,-28.42556],[-48.94933,-28.42871],[-48.95385,-28.43121],[-48.95594,-28.43254],[-48.9571,-28.43344],[-48.95848,-28.43479],[-48.9622,-28.43893],[-48.96643,-28.44444],[-48.96766,-28.44575],[-48.96964,-28.44836],[-48.97049,-28.44919],[-48.97341,-28.45144],[-48.97458,-28.45221],[-48.97616,-28.45295],[-48.97797,-28.45404],[-48.98805,-28.45898],[-48.98893,-28.45953],[-48.99043,-28.46082],[-48.99218,-28.46299],[-48.99306,-28.46388],[-48.99414,-28.46471],[-48.99674,-28.46639],[-48.99851,-28.46716],[-48.99956,-28.46745],[-49.00048,-28.46761],[-49.00235,-28.46766],[-49.00568,-28.46727],[-49.00728,-28.4673],[-49.0085,-28.46749],[-49.01906,-28.47052],[-49.02104,-28.47134],[-49.02505,-28.47345],[-49.03248,-28.47797],[-49.03329,-28.47862],[-49.0338,-28.47933],[-49.03581,-28.48398],[-49.03662,-28.48496],[-49.03805,-28.48644],[-49.03874,-28.48736],[-49.03911,-28.48827],[-49.03949,-28.49002],[-49.04059,-28.49215],[-49.04126,-28.49296],[-49.04217,-28.49369],[-49.04332,-28.49488],[-49.0441,-28.49602],[-49.04899,-28.50525],[-49.05018,-28.50823],[-49.0506,-28.50962],[-49.05523,-28.52239],[-49.05615,-28.52507],[-49.05625,-28.5258],[-49.05624,-28.52731],[-49.05593,-28.52869],[-49.05347,-28.53569],[-49.05313,-28.53679],[-49.05298,-28.53781],[-49.05305,-28.53975],[-49.05362,-28.54739],[-49.05398,-28.54901],[-49.054,-28.55077],[-49.0547,-28.56071],[-49.05371,-28.56881],[-49.05315,-28.57173],[-49.05222,-28.57877],[-49.05193,-28.5799],[-49.05146,-28.58085],[-49.04574,-28.58901],[-49.04519,-28.58989],[-49.04492,-28.59067],[-49.04492,-28.59118],[-49.04494,-28.59174],[-49.04525,-28.59286],[-49.04579,-28.59378],[-49.04714,-28.59525],[-49.04973,-28.5978],[-49.05763,-28.60655],[-49.05818,-28.60728],[-49.05995,-28.61017],[-49.06106,-28.61138],[-49.06226,-28.6123],[-49.07319,-28.62007],[-49.07775,-28.62321],[-49.0794,-28.62445],[-49.08425,-28.62762],[-49.09074,-28.63169],[-49.09602,-28.63606],[-49.09686,-28.63687],[-49.09807,-28.63855],[-49.1006,-28.64266],[-49.10693,-28.65327],[-49.10806,-28.65494],[-49.11016,-28.65876],[-49.11376,-28.66468],[-49.11429,-28.66542],[-49.11506,-28.66619],[-49.11577,-28.66673],[-49.12166,-28.67057],[-49.12234,-28.67127],[-49.12358,-28.67337],[-49.12403,-28.67393],[-49.12497,-28.67478],[-49.12622,-28.67551],[-49.1278,-28.67603],[-49.13287,-28.6767],[-49.13584,-28.6775],[-49.13862,-28.67842],[-49.14713,-28.68257],[-49.15038,-28.68404],[-49.17569,-28.69665],[-49.17638,-28.69694],[-49.17717,-28.69718],[-49.17825,-28.69738],[-49.18724,-28.69806],[-49.18799,-28.69817],[-49.18885,-28.69835],[-49.18988,-28.69867],[-49.19396,-28.70009],[-49.19591,-28.70099],[-49.21603,-28.71254],[-49.21801,-28.71342],[-49.21911,-28.71379],[-49.22014,-28.71404],[-49.22902,-28.71572],[-49.23016,-28.71611],[-49.23122,-28.7166],[-49.23265,-28.71753],[-49.23404,-28.71884],[-49.23972,-28.72604],[-49.24163,-28.72879],[-49.25169,-28.74157],[-49.25286,-28.74276],[-49.25415,-28.74368],[-49.25598,-28.74458],[-49.26535,-28.74873],[-49.26822,-28.75023],[-49.27385,-28.75281],[-49.29275,-28.76393],[-49.30887,-28.77154],[-49.31166,-28.77278],[-49.319,-28.77623],[-49.32205,-28.7775],[-49.33286,-28.7826],[-49.33463,-28.78355],[-49.35493,-28.79536],[-49.3599,-28.79817],[-49.36321,-28.80025],[-49.37586,-28.80752],[-49.37758,-28.80837],[-49.38985,-28.81347],[-49.39061,-28.81392],[-49.39111,-28.81432],[-49.3928,-28.81591],[-49.39426,-28.81714],[-49.41887,-28.83486],[-49.42926,-28.84244],[-49.43167,-28.84428],[-49.43219,-28.84484],[-49.4332,-28.84624],[-49.43833,-28.85356],[-49.45497,-28.87482],[-49.45535,-28.87522],[-49.45589,-28.87602],[-49.45909,-28.88007],[-49.46245,-28.88452],[-49.47116,-28.89517],[-49.47299,-28.89729],[-49.47602,-28.90145],[-49.48758,-28.91615],[-49.48869,-28.9177],[-49.49051,-28.91993],[-49.49105,-28.92042],[-49.49237,-28.9213],[-49.49341,-28.92181],[-49.49438,-28.92212],[-49.49558,-28.92236],[-49.50264,-28.92286],[-49.50381,-28.92301],[-49.50558,-28.92354],[-49.50693,-28.92423],[-49.50769,-28.92477],[-49.50841,-28.92541],[-49.51268,-28.92949],[-49.51523,-28.93204],[-49.52771,-28.94393],[-49.53051,-28.94672],[-49.53113,-28.94777],[-49.53153,-28.94902],[-49.53161,-28.95012],[-49.53141,-28.9514],[-49.53075,-28.95282],[-49.52991,-28.95389],[-49.52373,-28.95973],[-49.52275,-28.96088],[-49.52226,-28.96181],[-49.52208,-28.96237],[-49.52195,-28.96358],[-49.52202,-28.96444],[-49.52224,-28.96522],[-49.52283,-28.96637],[-49.52527,-28.9689],[-49.53196,-28.97535],[-49.53577,-28.97919],[-49.54757,-28.99055],[-49.55605,-28.99887],[-49.55994,-29.00247],[-49.56115,-29.00345],[-49.57581,-29.01203],[-49.59894,-29.02537],[-49.60053,-29.02649],[-49.60186,-29.02769],[-49.60306,-29.02896],[-49.6112,-29.03892],[-49.61333,-29.0414],[-49.61833,-29.04759],[-49.61936,-29.04876],[-49.6204,-29.05031],[-49.62096,-29.05169],[-49.63332,-29.09433],[-49.63725,-29.10763],[-49.64101,-29.11844],[-49.64161,-29.11966],[-49.64255,-29.12088],[-49.64359,-29.1218],[-49.64473,-29.1225],[-49.64604,-29.12307],[-49.6477,-29.12349],[-49.64872,-29.12358],[-49.66364,-29.12395],[-49.66685,-29.12412],[-49.6691,-29.1245],[-49.69063,-29.13067],[-49.70414,-29.13411],[-49.70642,-29.13476],[-49.71182,-29.13704],[-49.71704,-29.13936],[-49.71787,-29.1398],[-49.71885,-29.14049],[-49.72002,-29.14169],[-49.72479,-29.14865],[-49.72898,-29.15419],[-49.72969,-29.15488],[-49.73083,-29.15582],[-49.74082,-29.1628],[-49.74167,-29.16352],[-49.74383,-29.16589],[-49.75221,-29.17609],[-49.75345,-29.17771],[-49.75434,-29.17923],[-49.7548,-29.1804],[-49.75517,-29.18194],[-49.75528,-29.18374],[-49.75498,-29.18593],[-49.75221,-29.20003],[-49.75215,-29.20095],[-49.75223,-29.2018],[-49.75256,-29.20304],[-49.75282,-29.20362],[-49.7573,-29.21154],[-49.75844,-29.214],[-49.75874,-29.21518],[-49.76013,-29.22222],[-49.76027,-29.22383],[-49.76015,-29.22592],[-49.75973,-29.22794],[-49.75897,-29.23037],[-49.75573,-29.23987],[-49.75345,-29.24685],[-49.75323,-29.24783],[-49.75318,-29.24919],[-49.75336,-29.25032],[-49.75355,-29.25099],[-49.75399,-29.252],[-49.75611,-29.25555],[-49.75655,-29.25689],[-49.7567,-29.25796],[-49.75668,-29.25907],[-49.75476,-29.27015],[-49.75467,-29.27168],[-49.75656,-29.28609],[-49.75683,-29.28706],[-49.75737,-29.28822],[-49.75846,-29.28966],[-49.75944,-29.29055],[-49.76725,-29.29618],[-49.76797,-29.29677],[-49.76881,-29.29769],[-49.77064,-29.30035],[-49.77121,-29.3013],[-49.7717,-29.30239],[-49.77195,-29.30319],[-49.77458,-29.31735],[-49.77497,-29.31888],[-49.77538,-29.31975],[-49.7762,-29.32094],[-49.78422,-29.33055],[-49.78478,-29.33134],[-49.78517,-29.33205],[-49.78549,-29.33295],[-49.78565,-29.33437],[-49.78556,-29.33518],[-49.78498,-29.33754],[-49.78496,-29.33874],[-49.78513,-29.33956],[-49.78538,-29.34021],[-49.78607,-29.34129],[-49.78884,-29.34381],[-49.79584,-29.34993],[-49.79747,-29.35133],[-49.79892,-29.3524],[-49.79996,-29.35328],[-49.80137,-29.35469],[-49.81604,-29.36754],[-49.81766,-29.36884],[-49.81931,-29.36987],[-49.82302,-29.37258],[-49.82407,-29.37346],[-49.82516,-29.37457],[-49.8308,-29.38113],[-49.83256,-29.38301],[-49.84903,-29.39764],[-49.85066,-29.39854],[-49.85707,-29.40124],[-49.85786,-29.40172],[-49.85825,-29.4021],[-49.85884,-29.403],[-49.85901,-29.40353],[-49.85907,-29.40423],[-49.85889,-29.4051],[-49.85773,-29.40728],[-49.85748,-29.40797],[-49.85742,-29.40899],[-49.8593,-29.41528],[-49.85936,-29.41639],[-49.85926,-29.41781],[-49.85937,-29.41834],[-49.85974,-29.41909],[-49.86017,-29.41954],[-49.86094,-29.42003],[-49.86186,-29.42035],[-49.86541,-29.42142],[-49.867,-29.42182],[-49.86829,-29.4219],[-49.87409,-29.42165],[-49.87546,-29.4218],[-49.87649,-29.42211],[-49.87699,-29.42235],[-49.87769,-29.42275],[-49.87823,-29.42316],[-49.88048,-29.42519],[-49.88315,-29.42735],[-49.88554,-29.42978],[-49.88786,-29.43182],[-49.88907,-29.43241],[-49.89132,-29.43284],[-49.89211,-29.43315],[-49.893,-29.43382],[-49.894,-29.43532],[-49.89461,-29.43602],[-49.89507,-29.43639],[-49.89586,-29.43687],[-49.8996,-29.43872],[-49.90387,-29.44138],[-49.90586,-29.44296],[-49.90801,-29.4445],[-49.91713,-29.45066],[-49.93087,-29.45801],[-49.9341,-29.45959],[-49.9361,-29.46021],[-49.94542,-29.4622],[-49.94621,-29.46245],[-49.94799,-29.46323],[-49.95443,-29.46647],[-49.95597,-29.46743],[-49.95648,-29.46797],[-49.95688,-29.46858],[-49.96048,-29.4756],[-49.96123,-29.47671],[-49.96191,-29.47726],[-49.96239,-29.47752],[-49.96723,-29.47958],[-49.96834,-29.48015],[-49.96984,-29.48145],[-49.97347,-29.48517],[-49.9738,-29.48559],[-49.97437,-29.48671],[-49.97651,-29.49368],[-49.97755,-29.49628],[-49.97811,-29.4987],[-49.9788,-29.50101],[-49.97944,-29.50251],[-49.98013,-29.50344],[-49.98101,-29.50425],[-49.98591,-29.50778],[-49.98656,-29.50832],[-49.98743,-29.50928],[-49.98817,-29.51054],[-49.9906,-29.51593],[-49.99132,-29.51702],[-49.99224,-29.51792],[-49.99294,-29.51844],[-49.99849,-29.52132],[-50.00104,-29.52274],[-50.00227,-29.52361],[-50.0033,-29.5247],[-50.00392,-29.52565],[-50.00429,-29.52641],[-50.00462,-29.52746],[-50.00472,-29.52811],[-50.00471,-29.52964],[-50.00397,-29.53345],[-50.00407,-29.53434],[-50.00447,-29.5351],[-50.00528,-29.53577],[-50.00616,-29.5361],[-50.00986,-29.53681],[-50.01122,-29.53675],[-50.01255,-29.53636],[-50.01868,-29.53322],[-50.01958,-29.53296],[-50.02074,-29.5329],[-50.02186,-29.53314],[-50.02568,-29.53504],[-50.0278,-29.53587],[-50.02966,-29.53697],[-50.03035,-29.5375],[-50.03114,-29.53844],[-50.03152,-29.53937],[-50.03161,-29.54012],[-50.0319,-29.54891],[-50.03228,-29.55026],[-50.03276,-29.55112],[-50.03374,-29.5522],[-50.03634,-29.55427],[-50.05106,-29.56561],[-50.05993,-29.5726],[-50.0618,-29.57455],[-50.07934,-29.5984],[-50.08129,-29.60089],[-50.0994,-29.62539],[-50.10054,-29.62717],[-50.10132,-29.62911],[-50.10158,-29.63067],[-50.10192,-29.63471],[-50.10233,-29.63588],[-50.10294,-29.63678],[-50.10766,-29.64227],[-50.10893,-29.6435],[-50.11056,-29.64457],[-50.11184,-29.64588],[-50.11808,-29.65097],[-50.12327,-29.65393],[-50.12615,-29.65619],[-50.1268,-29.65659],[-50.12939,-29.65787],[-50.13016,-29.65841],[-50.13062,-29.65883],[-50.13131,-29.65966],[-50.13211,-29.66109],[-50.13264,-29.66187],[-50.13454,-29.66326],[-50.13512,-29.66392],[-50.13552,-29.66494],[-50.13579,-29.66697],[-50.13613,-29.66796],[-50.13655,-29.66864],[-50.13707,-29.66925],[-50.13857,-29.67066],[-50.13912,-29.67127],[-50.13967,-29.67219],[-50.14106,-29.67497],[-50.14141,-29.67537],[-50.1421,-29.67585],[-50.14431,-29.67664],[-50.14541,-29.67727],[-50.14707,-29.6788],[-50.1478,-29.67964],[-50.14842,-29.68063],[-50.14876,-29.68141],[-50.14967,-29.68401],[-50.15012,-29.68504],[-50.15097,-29.68613],[-50.15175,-29.68676],[-50.15739,-29.69032],[-50.15822,-29.69108],[-50.15925,-29.69221],[-50.15965,-29.69256],[-50.16072,-29.69325],[-50.17211,-29.69778],[-50.1731,-29.6983],[-50.17398,-29.69891],[-50.17476,-29.69961],[-50.18069,-29.70584],[-50.19805,-29.72374],[-50.19843,-29.72425],[-50.20022,-29.72613],[-50.20271,-29.72945],[-50.20936,-29.7387],[-50.21034,-29.74042],[-50.21058,-29.74124],[-50.21236,-29.7497],[-50.21283,-29.75145],[-50.21343,-29.75275],[-50.21739,-29.75985],[-50.21775,-29.76061],[-50.21799,-29.7614],[-50.21808,-29.7622],[-50.21805,-29.76296],[-50.21756,-29.76533],[-50.21746,-29.7667],[-50.21757,-29.77064],[-50.21773,-29.77146],[-50.21811,-29.77239],[-50.21873,-29.77325],[-50.22669,-29.78229],[-50.22829,-29.78382],[-50.23009,-29.78639],[-50.23123,-29.7884],[-50.23157,-29.78925],[-50.23172,-29.78995],[-50.23173,-29.79111],[-50.23164,-29.79168],[-50.231,-29.79346],[-50.23085,-29.79423],[-50.23094,-29.79491],[-50.2312,-29.79556],[-50.23599,-29.80162],[-50.23743,-29.80366],[-50.24151,-29.81107],[-50.24273,-29.81298],[-50.24339,-29.81455],[-50.24496,-29.8174],[-50.24791,-29.82192],[-50.24826,-29.82265],[-50.24859,-29.82407],[-50.24856,-29.82515],[-50.24811,-29.82692],[-50.24786,-29.82846],[-50.24707,-29.8304],[-50.24668,-29.83185],[-50.24644,-29.83372],[-50.24642,-29.83445],[-50.24681,-29.83829],[-50.24686,-29.83958],[-50.24671,-29.84029],[-50.2456,-29.84316],[-50.24513,-29.84496],[-50.24504,-29.84616],[-50.24525,-29.8478],[-50.24679,-29.85292],[-50.24777,-29.85667],[-50.25037,-29.8653],[-50.25081,-29.86663],[-50.25137,-29.86783],[-50.25248,-29.86944],[-50.25296,-29.87044],[-50.25438,-29.87218],[-50.25857,-29.8768],[-50.26011,-29.87837],[-50.26126,-29.87924],[-50.263,-29.88072],[-50.26422,-29.88147],[-50.27064,-29.88478],[-50.2716,-29.8852],[-50.2777,-29.88845],[-50.27922,-29.88958],[-50.28302,-29.89306],[-50.28445,-29.89407],[-50.28545,-29.89467],[-50.28681,-29.89537],[-50.2889,-29.89621],[-50.29003,-29.89659],[-50.29214,-29.89711],[-50.29346,-29.89734],[-50.29506,-29.8975],[-50.30557,-29.89802],[-50.31041,-29.8982],[-50.31242,-29.89821],[-50.31638,-29.89807],[-50.3183,-29.89792],[-50.32116,-29.89759],[-50.32859,-29.89648],[-50.33077,-29.89629],[-50.33244,-29.89623],[-50.33651,-29.89626],[-50.33746,-29.89633],[-50.33882,-29.89653],[-50.34234,-29.89725],[-50.34357,-29.89734],[-50.34533,-29.89725],[-50.34655,-29.89703],[-50.34819,-29.89651],[-50.34973,-29.89573],[-50.35258,-29.89375],[-50.35348,-29.8932],[-50.35527,-29.89243],[-50.35688,-29.89202],[-50.35824,-29.89185],[-50.37047,-29.89131],[-50.3764,-29.89153],[-50.37808,-29.89135],[-50.37921,-29.89111],[-50.3802,-29.8908],[-50.38148,-29.89025],[-50.38273,-29.88953],[-50.38393,-29.88859],[-50.39329,-29.88013],[-50.39461,-29.87885],[-50.39579,-29.87724],[-50.39635,-29.87615],[-50.3976,-29.8726],[-50.39823,-29.87115],[-50.39933,-29.86941],[-50.40045,-29.86813],[-50.40128,-29.8674],[-50.40209,-29.86682],[-50.40401,-29.86585],[-50.40688,-29.86502],[-50.40771,-29.86487],[-50.40896,-29.8648],[-50.41017,-29.86491],[-50.4111,-29.86512],[-50.41219,-29.86552],[-50.41293,-29.8659],[-50.41411,-29.86677],[-50.41481,-29.86751],[-50.41655,-29.86985],[-50.41731,-29.87059],[-50.41841,-29.87145],[-50.43181,-29.87945],[-50.43336,-29.88031],[-50.43482,-29.88101],[-50.43833,-29.88238],[-50.44648,-29.88495],[-50.44668,-29.88492],[-50.44741,-29.88508],[-50.44839,-29.88501],[-50.44928,-29.88521],[-50.44992,-29.88545],[-50.45128,-29.88621],[-50.45268,-29.88678],[-50.45276,-29.88688],[-50.45888,-29.88878],[-50.46195,-29.88951],[-50.4642,-29.88981],[-50.46717,-29.88993],[-50.46928,-29.88985],[-50.47144,-29.88961],[-50.47333,-29.88926],[-50.47477,-29.88891],[-50.47613,-29.88848],[-50.48996,-29.88331],[-50.49243,-29.8825],[-50.4947,-29.88186],[-50.49739,-29.88123],[-50.49987,-29.88078],[-50.50258,-29.88039],[-50.50632,-29.88007],[-50.50894,-29.87999],[-50.51364,-29.88012],[-50.51651,-29.88037],[-50.53394,-29.8826],[-50.5379,-29.88304],[-50.54166,-29.88329],[-50.56008,-29.88374],[-50.5665,-29.88397],[-50.57597,-29.88481],[-50.58695,-29.8859],[-50.59076,-29.88614],[-50.59567,-29.88607],[-50.61254,-29.88486],[-50.61502,-29.88477],[-50.6179,-29.88477],[-50.62494,-29.8853],[-50.63333,-29.88612],[-50.63753,-29.88636],[-50.65798,-29.88619],[-50.66027,-29.88625],[-50.6644,-29.88658],[-50.68042,-29.889],[-50.68393,-29.88938],[-50.71005,-29.89023],[-50.71424,-29.89056],[-50.7165,-29.89086],[-50.71906,-29.8913],[-50.7218,-29.89192],[-50.72424,-29.89259],[-50.72743,-29.89364],[-50.72999,-29.89464],[-50.75903,-29.90724],[-50.76107,-29.90804],[-50.76382,-29.90899],[-50.76694,-29.90988],[-50.76864,-29.91029],[-50.77231,-29.91098],[-50.77454,-29.91129],[-50.77737,-29.91154],[-50.80354,-29.91296],[-50.8071,-29.91325],[-50.80943,-29.91354],[-50.81172,-29.9139],[-50.81413,-29.91438],[-50.8177,-29.91526],[-50.82043,-29.91606],[-50.82922,-29.91897],[-50.83126,-29.91951],[-50.83394,-29.92011],[-50.8514,-29.92295],[-50.85382,-29.92339],[-50.85724,-29.92419],[-50.8607,-29.92523],[-50.8624,-29.92583],[-50.87119,-29.92918],[-50.87355,-29.93018],[-50.87563,-29.9312],[-50.88734,-29.93765],[-50.88943,-29.9387],[-50.89156,-29.93947],[-50.89482,-29.94028],[-50.89577,-29.94058],[-50.89671,-29.94093],[-50.89956,-29.94229],[-50.90087,-29.94274],[-50.90195,-29.94299],[-50.9028,-29.94311],[-50.90415,-29.94317],[-50.91881,-29.94253],[-50.9223,-29.9425],[-50.92566,-29.94257],[-50.92926,-29.94275],[-50.9326,-29.94303],[-50.94173,-29.94407],[-50.94459,-29.94454],[-50.94808,-29.94538],[-50.95167,-29.94651],[-50.96562,-29.95132],[-50.96833,-29.95203],[-50.96943,-29.95225],[-50.9718,-29.95259],[-50.97511,-29.95282],[-50.99052,-29.95294],[-50.99326,-29.95304],[-50.99762,-29.95353],[-51.00442,-29.95474],[-51.012,-29.95627],[-51.01535,-29.95664],[-51.01786,-29.95664],[-51.01933,-29.95652],[-51.02267,-29.95595],[-51.02519,-29.95541],[-51.02752,-29.95507],[-51.03779,-29.95424],[-51.04653,-29.95308],[-51.05007,-29.95287],[-51.05136,-29.95286],[-51.05536,-29.95313],[-51.07465,-29.95513],[-51.07668,-29.95542],[-51.07942,-29.95596],[-51.08248,-29.95676],[-51.08568,-29.95786],[-51.08909,-29.95933],[-51.10314,-29.96666],[-51.104,-29.96705],[-51.10516,-29.96751],[-51.1069,-29.96801],[-51.10886,-29.96838],[-51.10972,-29.96847],[-51.11209,-29.96851],[-51.13165,-29.96741],[-51.1372,-29.96729],[-51.1407,-29.96737],[-51.16269,-29.9684],[-51.18035,-29.96992],[-51.19269,-29.97108],[-51.19385,-29.97133],[-51.1948,-29.97163],[-51.19632,-29.97232],[-51.19686,-29.97267],[-51.19758,-29.97323],[-51.19857,-29.97423],[-51.1992,-29.97511],[-51.19969,-29.97604],[-51.20649,-29.99746],[-51.20781,-30.00146],[-51.20961,-30.00649],[-51.21003,-30.00742],[-51.21665,-30.01994],[-51.21701,-30.02034],[-51.21785,-30.02099],[-51.2198,-30.02217],[-51.22046,-30.023],[-51.22048,-30.02354],[-51.2194,-30.02597],[-51.21945,-30.02632],[-51.21967,-30.02685],[-51.21965,-30.028],[-51.2195,-30.02947],[-51.21924,-30.03086],[-51.21941,-30.03118],[-51.21996,-30.0315],[-51.22022,-30.03181],[-51.22155,-30.0339],[-51.22156,-30.03405],[-51.22126,-30.03439],[-51.22128,-30.03465],[-51.22167,-30.03483],[-51.22353,-30.03507],[-51.22437,-30.03539],[-51.22694,-30.03811],[-51.22756,-30.03847],[-51.22831,-30.03863],[-51.22869,-30.03863],[-51.22899,-30.03858],[-51.22971,-30.03819],[-51.22971,-30.03782],[-51.22953,-30.03763],[-51.22928,-30.03755],[-51.22829,-30.03768],[-51.22838,-30.03838],[-51.22846,-30.03882],[-51.22856,-30.03966],[-51.22865,-30.04111],[-51.23046,-30.05653],[-51.23097,-30.05956],[-51.231,-30.06106],[-51.2317,-30.06315],[-51.23224,-30.06402],[-51.23287,-30.06459],[-51.23502,-30.06624]]},"properties":{"route_id":"beira-rio","tipo":"rota","clube":"Internacional","estadio":"Estádio Beira-Rio","cidade":"Porto Alegre","estado":"RS","distancia_km":1153.3,"modo_rota":"carro","match_status":"projecao","status":"Projeção: adversário é previsto pelo chaveamento; data e estádio sujeitos a confirmação.","projecao":true,"fonte_rota":"ROTA - BEIRA RIO.shp","metodo_rota":"Traçado viário existente convertido do shapefile do usuário.","data_partida":null,"Name":"Rotas de parque são jorge até Estádio Beira-Rio - Avenida Padre Cacique - Praia de Belas, Porto Alegre - RS","ajuste_origem_m":444.4}},{"type":"Feature","geometry":{"type":"Point","coordinates":[-51.23502,-30.06624]},"properties":{"route_id":"beira-rio","tipo":"estadio_destino","clube":"Internacional","estadio":"Estádio Beira-Rio","cidade":"Porto Alegre","estado":"RS","distancia_km":1153.3,"status":"Projeção: adversário é previsto pelo chaveamento; data e estádio sujeitos a confirmação.","projecao":true,"data_partida":null}}]}