{"type":"FeatureCollection","name":"couto-pereira","features":[{"type":"Feature","geometry":{"type":"LineString","coordinates":[[-46.56809,-23.53096],[-46.5686,-23.53109],[-46.56828,-23.53221],[-46.56832,-23.53228],[-46.56825,-23.53231],[-46.5677,-23.5342],[-46.57081,-23.53571],[-46.57152,-23.53589],[-46.5721,-23.53595],[-46.57634,-23.53507],[-46.57995,-23.53491],[-46.58101,-23.53499],[-46.58165,-23.53222],[-46.58217,-23.53241],[-46.58289,-23.53284],[-46.58365,-23.5312],[-46.58379,-23.53051],[-46.58375,-23.53007],[-46.58303,-23.52809],[-46.58313,-23.52774],[-46.58341,-23.5275],[-46.58383,-23.52746],[-46.58811,-23.52856],[-46.58894,-23.5287],[-46.5895,-23.52864],[-46.59367,-23.52761],[-46.59754,-23.52621],[-46.60091,-23.5235],[-46.60214,-23.52272],[-46.60296,-23.52236],[-46.60467,-23.52211],[-46.60617,-23.52224],[-46.60862,-23.5227],[-46.60945,-23.52273],[-46.6105,-23.52259],[-46.6113,-23.52234],[-46.61222,-23.52187],[-46.61516,-23.51971],[-46.616,-23.5192],[-46.61721,-23.51868],[-46.61791,-23.51848],[-46.61919,-23.51833],[-46.62007,-23.51838],[-46.62245,-23.51885],[-46.62394,-23.51892],[-46.6305,-23.51859],[-46.6314,-23.51862],[-46.6398,-23.51805],[-46.64392,-23.51766],[-46.65096,-23.51669],[-46.65382,-23.51643],[-46.65621,-23.51602],[-46.6626,-23.51524],[-46.66607,-23.51489],[-46.66863,-23.51448],[-46.67698,-23.51342],[-46.67792,-23.51318],[-46.67879,-23.51281],[-46.6795,-23.51238],[-46.68201,-23.51052],[-46.68258,-23.51019],[-46.68377,-23.5097],[-46.68497,-23.50942],[-46.68915,-23.50871],[-46.69191,-23.50804],[-46.69486,-23.50752],[-46.69623,-23.50741],[-46.69717,-23.50746],[-46.70647,-23.50826],[-46.71748,-23.50758],[-46.71842,-23.50774],[-46.7193,-23.50799],[-46.7201,-23.50841],[-46.72118,-23.50926],[-46.72183,-23.51006],[-46.72302,-23.51177],[-46.72385,-23.51249],[-46.72496,-23.51324],[-46.72766,-23.51481],[-46.73205,-23.51699],[-46.73289,-23.51723],[-46.73377,-23.51732],[-46.74127,-23.51705],[-46.74153,-23.51698],[-46.74223,-23.517],[-46.74392,-23.51722],[-46.74475,-23.51746],[-46.74541,-23.51775],[-46.74624,-23.51832],[-46.74722,-23.51939],[-46.74782,-23.52041],[-46.74856,-23.52218],[-46.74924,-23.52319],[-46.74989,-23.52372],[-46.75121,-23.52441],[-46.75205,-23.52464],[-46.75305,-23.52476],[-46.75372,-23.52473],[-46.75459,-23.52458],[-46.76644,-23.52082],[-46.76766,-23.52054],[-46.76874,-23.52042],[-46.77247,-23.52048],[-46.77271,-23.52041],[-46.77471,-23.52032],[-46.77504,-23.52024],[-46.77726,-23.52009],[-46.7817,-23.51941],[-46.7836,-23.519],[-46.78537,-23.51843],[-46.79164,-23.5159],[-46.79393,-23.51487],[-46.7965,-23.51343],[-46.79789,-23.51284],[-46.80174,-23.51149],[-46.80352,-23.51097],[-46.80462,-23.51073],[-46.80492,-23.51051],[-46.80539,-23.50996],[-46.80622,-23.50949],[-46.80661,-23.5094],[-46.8071,-23.50942],[-46.80763,-23.50965],[-46.80793,-23.50992],[-46.80888,-23.51116],[-46.80968,-23.51194],[-46.81037,-23.51282],[-46.8104,-23.51299],[-46.81422,-23.51746],[-46.81485,-23.5179],[-46.81605,-23.51834],[-46.81639,-23.5188],[-46.81644,-23.51915],[-46.81635,-23.52088],[-46.81663,-23.52288],[-46.81656,-23.52302],[-46.81815,-23.53197],[-46.81819,-23.53318],[-46.81785,-23.53766],[-46.8179,-23.53918],[-46.81825,-23.54104],[-46.82027,-23.54716],[-46.82061,-23.54852],[-46.82068,-23.5492],[-46.82055,-23.55065],[-46.8197,-23.55352],[-46.81946,-23.55517],[-46.81952,-23.55634],[-46.8203,-23.56263],[-46.8203,-23.56357],[-46.8201,-23.56452],[-46.81989,-23.56506],[-46.8194,-23.56591],[-46.81906,-23.56634],[-46.81848,-23.56688],[-46.81721,-23.56767],[-46.81492,-23.56864],[-46.81447,-23.56891],[-46.81387,-23.5694],[-46.81331,-23.57011],[-46.81279,-23.57103],[-46.80935,-23.57851],[-46.80878,-23.5803],[-46.80848,-23.5822],[-46.80848,-23.58408],[-46.80872,-23.58588],[-46.81178,-23.59735],[-46.81249,-23.59919],[-46.81297,-23.60077],[-46.81347,-23.60362],[-46.8144,-23.60716],[-46.81476,-23.60814],[-46.81564,-23.60953],[-46.81618,-23.61015],[-46.81675,-23.61066],[-46.82624,-23.61708],[-46.82727,-23.61802],[-46.82795,-23.61881],[-46.82858,-23.61974],[-46.82908,-23.62074],[-46.82955,-23.62226],[-46.82968,-23.62408],[-46.82975,-23.62725],[-46.82992,-23.62848],[-46.83016,-23.62934],[-46.83052,-23.63011],[-46.83126,-23.63131],[-46.83266,-23.63337],[-46.8332,-23.63388],[-46.83427,-23.63546],[-46.83461,-23.63674],[-46.83469,-23.63827],[-46.83501,-23.63898],[-46.83608,-23.64031],[-46.83815,-23.6424],[-46.84257,-23.64713],[-46.84386,-23.64842],[-46.84639,-23.65047],[-46.84715,-23.65118],[-46.84769,-23.65186],[-46.84817,-23.65266],[-46.84905,-23.65452],[-46.85039,-23.65645],[-46.85072,-23.65728],[-46.85109,-23.65882],[-46.85144,-23.65973],[-46.85187,-23.66045],[-46.85253,-23.66128],[-46.85307,-23.66213],[-46.855,-23.66647],[-46.85555,-23.66787],[-46.85615,-23.67007],[-46.85673,-23.67464],[-46.85706,-23.67585],[-46.8581,-23.67818],[-46.85845,-23.67915],[-46.85916,-23.68322],[-46.85951,-23.68474],[-46.86,-23.68574],[-46.86273,-23.69001],[-46.86436,-23.69465],[-46.86653,-23.69844],[-46.867,-23.69905],[-46.86778,-23.69979],[-46.87101,-23.70203],[-46.87143,-23.70239],[-46.87207,-23.70312],[-46.88063,-23.71605],[-46.88172,-23.71766],[-46.88206,-23.71805],[-46.88246,-23.71844],[-46.88344,-23.71916],[-46.88602,-23.72041],[-46.88767,-23.72178],[-46.88813,-23.72206],[-46.88913,-23.72236],[-46.89082,-23.72259],[-46.89145,-23.72287],[-46.89225,-23.7235],[-46.89265,-23.7241],[-46.89358,-23.72704],[-46.8953,-23.73346],[-46.89732,-23.73946],[-46.89762,-23.74002],[-46.89892,-23.7417],[-46.89948,-23.74267],[-46.89974,-23.74343],[-46.90158,-23.75249],[-46.90282,-23.75811],[-46.90332,-23.75903],[-46.90481,-23.76128],[-46.91121,-23.77062],[-46.91265,-23.77227],[-46.91327,-23.77311],[-46.91545,-23.77688],[-46.91581,-23.77782],[-46.91595,-23.77865],[-46.91597,-23.77951],[-46.91583,-23.78043],[-46.91523,-23.78203],[-46.91402,-23.78466],[-46.91385,-23.78527],[-46.91387,-23.78631],[-46.91399,-23.78732],[-46.91542,-23.79417],[-46.91537,-23.79491],[-46.91474,-23.79676],[-46.91478,-23.79755],[-46.915,-23.7981],[-46.91766,-23.80206],[-46.91807,-23.80257],[-46.91876,-23.803],[-46.92094,-23.80363],[-46.9215,-23.80401],[-46.92361,-23.80633],[-46.92419,-23.80724],[-46.92436,-23.80807],[-46.92416,-23.80885],[-46.92328,-23.81122],[-46.92316,-23.8117],[-46.92314,-23.81251],[-46.92435,-23.81824],[-46.92559,-23.82271],[-46.92589,-23.82593],[-46.92621,-23.82696],[-46.92652,-23.82761],[-46.92974,-23.83335],[-46.92985,-23.83393],[-46.9299,-23.83539],[-46.93153,-23.83998],[-46.93162,-23.84129],[-46.93182,-23.84199],[-46.9321,-23.84239],[-46.93256,-23.84278],[-46.93612,-23.84449],[-46.93668,-23.84491],[-46.937,-23.84527],[-46.93747,-23.84611],[-46.93946,-23.85271],[-46.94021,-23.85507],[-46.94043,-23.85549],[-46.94118,-23.8562],[-46.94559,-23.85956],[-46.94614,-23.86013],[-46.94872,-23.86416],[-46.94939,-23.86499],[-46.94997,-23.86549],[-46.95097,-23.86611],[-46.9642,-23.87296],[-46.96547,-23.87384],[-46.96602,-23.87444],[-46.96864,-23.87811],[-46.96923,-23.87881],[-46.97675,-23.88603],[-46.98259,-23.89084],[-46.98327,-23.89153],[-46.98371,-23.8921],[-46.98714,-23.89772],[-46.99027,-23.90178],[-46.99128,-23.90324],[-46.99165,-23.90396],[-46.99177,-23.90496],[-46.99171,-23.91071],[-46.99158,-23.91119],[-46.99116,-23.91191],[-46.98982,-23.91337],[-46.98943,-23.91391],[-46.98924,-23.91446],[-46.98928,-23.9154],[-46.99018,-23.91852],[-46.99217,-23.92181],[-46.99587,-23.92887],[-46.99621,-23.92927],[-46.99686,-23.9297],[-46.99894,-23.93056],[-47.0002,-23.93096],[-47.00117,-23.93103],[-47.00533,-23.93103],[-47.00672,-23.93121],[-47.01137,-23.93351],[-47.01264,-23.93386],[-47.01788,-23.93448],[-47.02196,-23.93488],[-47.03179,-23.93494],[-47.03308,-23.93504],[-47.03453,-23.93574],[-47.0415,-23.93983],[-47.04239,-23.94012],[-47.04276,-23.94017],[-47.0464,-23.94008],[-47.05144,-23.94062],[-47.05292,-23.94067],[-47.05939,-23.94011],[-47.06054,-23.93981],[-47.06156,-23.93932],[-47.06408,-23.93744],[-47.06458,-23.93712],[-47.06517,-23.93688],[-47.0677,-23.93632],[-47.07423,-23.93518],[-47.07468,-23.93517],[-47.07546,-23.93528],[-47.07821,-23.93624],[-47.08042,-23.93641],[-47.08108,-23.93673],[-47.08203,-23.9374],[-47.08281,-23.93783],[-47.08345,-23.93799],[-47.08598,-23.93837],[-47.08699,-23.93871],[-47.09239,-23.94153],[-47.09456,-23.94246],[-47.09553,-23.94303],[-47.09684,-23.94413],[-47.0973,-23.94466],[-47.10026,-23.94857],[-47.10119,-23.95],[-47.10168,-23.95056],[-47.10283,-23.95147],[-47.1043,-23.95236],[-47.10673,-23.95422],[-47.10752,-23.95464],[-47.11388,-23.95745],[-47.11679,-23.95918],[-47.119,-23.96009],[-47.12144,-23.96172],[-47.12318,-23.96308],[-47.12429,-23.96371],[-47.12636,-23.96467],[-47.12963,-23.96593],[-47.13117,-23.96666],[-47.13225,-23.96751],[-47.13297,-23.9683],[-47.13586,-23.97206],[-47.13744,-23.97329],[-47.13867,-23.97414],[-47.13971,-23.97465],[-47.14265,-23.97552],[-47.14341,-23.97602],[-47.14396,-23.97669],[-47.14432,-23.97728],[-47.14644,-23.98312],[-47.14685,-23.98397],[-47.14832,-23.98649],[-47.14865,-23.98785],[-47.14864,-23.98886],[-47.14843,-23.98982],[-47.14765,-23.99242],[-47.14763,-23.99422],[-47.14782,-23.99504],[-47.14817,-23.9958],[-47.14997,-23.99875],[-47.15139,-24.00128],[-47.15193,-24.00195],[-47.15241,-24.00228],[-47.15285,-24.00248],[-47.15385,-24.0027],[-47.15627,-24.00298],[-47.15686,-24.00315],[-47.15752,-24.0035],[-47.15809,-24.00401],[-47.1585,-24.00461],[-47.15974,-24.00787],[-47.16038,-24.00863],[-47.16127,-24.00927],[-47.16458,-24.01054],[-47.16526,-24.01097],[-47.16589,-24.01158],[-47.16618,-24.012],[-47.16768,-24.01498],[-47.16828,-24.01601],[-47.17188,-24.02069],[-47.17253,-24.02226],[-47.17303,-24.02515],[-47.17325,-24.02594],[-47.17355,-24.02655],[-47.17409,-24.0272],[-47.17575,-24.02845],[-47.18086,-24.03183],[-47.18315,-24.03323],[-47.18904,-24.03716],[-47.18981,-24.03748],[-47.19159,-24.03782],[-47.19234,-24.03821],[-47.19279,-24.0387],[-47.19298,-24.03916],[-47.19317,-24.04164],[-47.19346,-24.04268],[-47.19346,-24.04421],[-47.19354,-24.04452],[-47.19383,-24.04506],[-47.19429,-24.04548],[-47.19466,-24.04567],[-47.19668,-24.04624],[-47.19724,-24.04658],[-47.19768,-24.047],[-47.19849,-24.04832],[-47.19874,-24.04858],[-47.19974,-24.04923],[-47.20004,-24.04954],[-47.20077,-24.05069],[-47.20131,-24.05126],[-47.20178,-24.05152],[-47.20219,-24.05164],[-47.20289,-24.05167],[-47.20453,-24.0513],[-47.20498,-24.05127],[-47.20606,-24.05139],[-47.20679,-24.05135],[-47.20886,-24.0507],[-47.20979,-24.05067],[-47.21062,-24.05088],[-47.21224,-24.05173],[-47.21378,-24.05188],[-47.21446,-24.05214],[-47.21501,-24.05256],[-47.2153,-24.05306],[-47.21534,-24.05362],[-47.21523,-24.05592],[-47.21538,-24.05652],[-47.21565,-24.05684],[-47.21819,-24.05888],[-47.21862,-24.05909],[-47.22022,-24.05958],[-47.22252,-24.05956],[-47.2232,-24.05977],[-47.22374,-24.06013],[-47.22469,-24.06097],[-47.2269,-24.06182],[-47.22841,-24.0629],[-47.22893,-24.06318],[-47.23119,-24.0637],[-47.23514,-24.06518],[-47.24211,-24.07019],[-47.243,-24.07058],[-47.24608,-24.07146],[-47.24696,-24.07196],[-47.24903,-24.0736],[-47.25008,-24.07476],[-47.25049,-24.07543],[-47.25109,-24.07667],[-47.25156,-24.07801],[-47.25182,-24.07984],[-47.25165,-24.08092],[-47.25165,-24.08124],[-47.25182,-24.08184],[-47.2522,-24.08233],[-47.25335,-24.08327],[-47.25382,-24.08375],[-47.25405,-24.08415],[-47.25427,-24.08563],[-47.25454,-24.08614],[-47.25493,-24.08655],[-47.25659,-24.08789],[-47.25686,-24.08825],[-47.25711,-24.08891],[-47.25719,-24.08935],[-47.25713,-24.09068],[-47.25695,-24.09123],[-47.25615,-24.09244],[-47.25601,-24.09276],[-47.25589,-24.09321],[-47.25591,-24.09389],[-47.25704,-24.09737],[-47.2588,-24.10211],[-47.25931,-24.10269],[-47.25967,-24.10296],[-47.2618,-24.10384],[-47.26253,-24.10441],[-47.26284,-24.10485],[-47.26304,-24.10532],[-47.26347,-24.10726],[-47.26398,-24.10803],[-47.26442,-24.10838],[-47.26478,-24.10854],[-47.26667,-24.10907],[-47.26752,-24.1095],[-47.26812,-24.11004],[-47.26887,-24.11133],[-47.26886,-24.1155],[-47.269,-24.11995],[-47.26923,-24.12064],[-47.26952,-24.12104],[-47.26996,-24.12146],[-47.27115,-24.12223],[-47.27132,-24.12249],[-47.27137,-24.1229],[-47.2713,-24.12363],[-47.27164,-24.12557],[-47.27229,-24.12706],[-47.27224,-24.12755],[-47.27156,-24.1295],[-47.27145,-24.13003],[-47.27146,-24.13185],[-47.27231,-24.13453],[-47.27266,-24.13671],[-47.27332,-24.138],[-47.27347,-24.13851],[-47.27339,-24.13905],[-47.2725,-24.14081],[-47.27229,-24.14157],[-47.27214,-24.14291],[-47.27229,-24.14343],[-47.2726,-24.14388],[-47.27286,-24.14411],[-47.27446,-24.14505],[-47.27491,-24.14521],[-47.27566,-24.14528],[-47.27776,-24.14508],[-47.27855,-24.14494],[-47.28214,-24.14384],[-47.28429,-24.14334],[-47.28544,-24.14322],[-47.28662,-24.14331],[-47.28741,-24.1435],[-47.28972,-24.1444],[-47.29292,-24.14594],[-47.29461,-24.14645],[-47.29885,-24.1472],[-47.29999,-24.14705],[-47.30089,-24.14684],[-47.30235,-24.14698],[-47.30289,-24.14714],[-47.30593,-24.14853],[-47.30777,-24.14917],[-47.31994,-24.1518],[-47.32148,-24.15236],[-47.32227,-24.15276],[-47.32339,-24.15353],[-47.32415,-24.15424],[-47.32488,-24.15514],[-47.32644,-24.15776],[-47.32718,-24.15977],[-47.32755,-24.16054],[-47.32854,-24.16174],[-47.3521,-24.18076],[-47.35282,-24.18126],[-47.35763,-24.18386],[-47.35823,-24.18432],[-47.35873,-24.18482],[-47.35932,-24.18556],[-47.35971,-24.18628],[-47.36002,-24.18709],[-47.36014,-24.18766],[-47.3602,-24.18875],[-47.35993,-24.19071],[-47.35989,-24.19165],[-47.36008,-24.19256],[-47.36046,-24.19332],[-47.36089,-24.19385],[-47.3616,-24.19445],[-47.36793,-24.1981],[-47.36954,-24.19934],[-47.37051,-24.20042],[-47.37141,-24.20183],[-47.37192,-24.20305],[-47.37215,-24.20388],[-47.37234,-24.20557],[-47.3722,-24.20726],[-47.37197,-24.2082],[-47.37165,-24.20908],[-47.37121,-24.20995],[-47.36681,-24.21757],[-47.36616,-24.21858],[-47.36557,-24.21973],[-47.36515,-24.22111],[-47.36492,-24.22384],[-47.36474,-24.22502],[-47.36447,-24.22592],[-47.36397,-24.22678],[-47.36122,-24.22993],[-47.36076,-24.23073],[-47.36055,-24.23141],[-47.36048,-24.23199],[-47.3606,-24.23511],[-47.36083,-24.23654],[-47.36134,-24.23811],[-47.36182,-24.23914],[-47.36233,-24.24003],[-47.36323,-24.24126],[-47.36524,-24.24326],[-47.36987,-24.24741],[-47.37433,-24.25278],[-47.37564,-24.25486],[-47.37683,-24.25908],[-47.37723,-24.26012],[-47.37817,-24.26151],[-47.37909,-24.26232],[-47.37973,-24.26274],[-47.38063,-24.26315],[-47.38816,-24.26524],[-47.38926,-24.26562],[-47.4226,-24.27932],[-47.42404,-24.27969],[-47.42794,-24.27997],[-47.42922,-24.28028],[-47.43627,-24.28377],[-47.43792,-24.2845],[-47.43972,-24.28493],[-47.44883,-24.28671],[-47.45292,-24.28716],[-47.4566,-24.28745],[-47.45811,-24.28773],[-47.45879,-24.28792],[-47.46299,-24.28954],[-47.46807,-24.29139],[-47.46907,-24.29164],[-47.47616,-24.29303],[-47.47688,-24.29325],[-47.47777,-24.29362],[-47.479,-24.29428],[-47.48059,-24.29564],[-47.48545,-24.30155],[-47.48638,-24.3024],[-47.48914,-24.30409],[-47.49269,-24.30613],[-47.49391,-24.3066],[-47.4946,-24.30676],[-47.49558,-24.30687],[-47.49751,-24.30689],[-47.49908,-24.30711],[-47.49967,-24.3073],[-47.50357,-24.30895],[-47.50456,-24.30921],[-47.50756,-24.30961],[-47.50863,-24.30987],[-47.52765,-24.31661],[-47.52862,-24.31704],[-47.52936,-24.31747],[-47.53332,-24.32014],[-47.53419,-24.32055],[-47.53527,-24.32091],[-47.54013,-24.3219],[-47.55083,-24.32385],[-47.56334,-24.32621],[-47.56668,-24.3269],[-47.57915,-24.3292],[-47.58037,-24.32954],[-47.58121,-24.32986],[-47.59206,-24.33446],[-47.59377,-24.33479],[-47.59465,-24.3348],[-47.59584,-24.33464],[-47.61748,-24.32977],[-47.61888,-24.32951],[-47.62059,-24.32953],[-47.62189,-24.32966],[-47.62654,-24.3304],[-47.62736,-24.33059],[-47.63132,-24.33109],[-47.63815,-24.33218],[-47.63934,-24.33246],[-47.64018,-24.33292],[-47.64071,-24.33338],[-47.641,-24.33376],[-47.64979,-24.34695],[-47.65059,-24.34792],[-47.65173,-24.34881],[-47.66271,-24.35541],[-47.66342,-24.35572],[-47.66399,-24.35587],[-47.66508,-24.35603],[-47.66645,-24.35595],[-47.67134,-24.35453],[-47.6721,-24.35437],[-47.67316,-24.35429],[-47.67457,-24.35446],[-47.6835,-24.35644],[-47.68486,-24.357],[-47.68596,-24.35776],[-47.69131,-24.36328],[-47.69212,-24.36427],[-47.69355,-24.36649],[-47.69432,-24.36738],[-47.69489,-24.36787],[-47.69585,-24.36844],[-47.69711,-24.36902],[-47.69916,-24.36982],[-47.70035,-24.37018],[-47.70483,-24.37119],[-47.70553,-24.37152],[-47.70606,-24.37192],[-47.7065,-24.3724],[-47.70679,-24.37288],[-47.70805,-24.3754],[-47.70878,-24.3763],[-47.70937,-24.37682],[-47.71355,-24.37995],[-47.71448,-24.38079],[-47.71489,-24.38144],[-47.71511,-24.38212],[-47.71527,-24.38463],[-47.7154,-24.38522],[-47.71556,-24.38561],[-47.71596,-24.38623],[-47.71673,-24.38691],[-47.71759,-24.38733],[-47.7183,-24.38749],[-47.71971,-24.38757],[-47.72058,-24.38771],[-47.7215,-24.38807],[-47.72231,-24.38852],[-47.72277,-24.389],[-47.72298,-24.38936],[-47.72369,-24.39221],[-47.72396,-24.39271],[-47.72439,-24.39323],[-47.73054,-24.39801],[-47.73122,-24.3984],[-47.73187,-24.39862],[-47.73399,-24.39895],[-47.73515,-24.39935],[-47.73553,-24.3996],[-47.74048,-24.40374],[-47.7411,-24.40418],[-47.76496,-24.41817],[-47.76664,-24.41891],[-47.77701,-24.42231],[-47.77762,-24.42258],[-47.77859,-24.42315],[-47.77948,-24.42387],[-47.78591,-24.42981],[-47.78688,-24.43063],[-47.81137,-24.45316],[-47.81282,-24.45502],[-47.83211,-24.48244],[-47.83314,-24.48421],[-47.83608,-24.49063],[-47.83686,-24.4922],[-47.83746,-24.49317],[-47.83827,-24.49406],[-47.84607,-24.50142],[-47.84705,-24.5026],[-47.84765,-24.50381],[-47.85713,-24.53105],[-47.86118,-24.54305],[-47.86426,-24.55177],[-47.86704,-24.55993],[-47.86771,-24.56149],[-47.86803,-24.56204],[-47.86891,-24.56323],[-47.86997,-24.56429],[-47.8709,-24.56502],[-47.87296,-24.56616],[-47.87763,-24.56818],[-47.87814,-24.56848],[-47.87909,-24.56925],[-47.8805,-24.57099],[-47.88301,-24.57431],[-47.88387,-24.57569],[-47.88434,-24.57684],[-47.88463,-24.57785],[-47.8849,-24.57956],[-47.88486,-24.58123],[-47.88453,-24.58294],[-47.88413,-24.58406],[-47.8836,-24.58513],[-47.87674,-24.59701],[-47.87646,-24.59762],[-47.87611,-24.59884],[-47.876,-24.60025],[-47.87618,-24.60149],[-47.87654,-24.60254],[-47.87722,-24.60373],[-47.87969,-24.60688],[-47.88146,-24.60891],[-47.8973,-24.62405],[-47.92092,-24.64636],[-47.92215,-24.64722],[-47.92306,-24.64761],[-47.9242,-24.64794],[-47.9615,-24.65417],[-47.9623,-24.65442],[-47.96336,-24.65489],[-47.96451,-24.65572],[-47.96665,-24.65774],[-47.97611,-24.66684],[-47.97699,-24.66786],[-47.97773,-24.66895],[-47.9784,-24.67028],[-47.9804,-24.67686],[-47.98076,-24.67766],[-47.98139,-24.67866],[-47.98275,-24.68004],[-47.99738,-24.6941],[-48.01852,-24.7093],[-48.01975,-24.70992],[-48.03652,-24.71702],[-48.0377,-24.71774],[-48.04292,-24.72157],[-48.0444,-24.72233],[-48.04576,-24.72268],[-48.04695,-24.72279],[-48.07579,-24.72148],[-48.07872,-24.72138],[-48.08004,-24.72146],[-48.08258,-24.72224],[-48.08484,-24.72308],[-48.08593,-24.72358],[-48.09492,-24.72912],[-48.09644,-24.73002],[-48.09756,-24.73053],[-48.09894,-24.73087],[-48.10037,-24.73096],[-48.10153,-24.73085],[-48.10581,-24.7299],[-48.10655,-24.72988],[-48.10704,-24.72995],[-48.10781,-24.7302],[-48.11102,-24.73189],[-48.11396,-24.73328],[-48.1206,-24.73686],[-48.12164,-24.73752],[-48.12226,-24.73801],[-48.12371,-24.73947],[-48.12454,-24.7402],[-48.12547,-24.74078],[-48.12638,-24.74118],[-48.13197,-24.74273],[-48.13347,-24.74301],[-48.13454,-24.74302],[-48.13892,-24.7427],[-48.13994,-24.74277],[-48.14062,-24.74291],[-48.14128,-24.74311],[-48.14722,-24.74565],[-48.14844,-24.74651],[-48.15055,-24.74882],[-48.15147,-24.74955],[-48.16004,-24.75392],[-48.16102,-24.75458],[-48.16185,-24.75538],[-48.16441,-24.7588],[-48.16496,-24.75966],[-48.16525,-24.76029],[-48.1655,-24.76114],[-48.16591,-24.76314],[-48.16648,-24.7645],[-48.16714,-24.76543],[-48.16922,-24.76762],[-48.16992,-24.76869],[-48.17043,-24.76998],[-48.17094,-24.77409],[-48.1713,-24.77556],[-48.17178,-24.77667],[-48.17305,-24.77873],[-48.17385,-24.77978],[-48.17503,-24.78093],[-48.18038,-24.78472],[-48.18116,-24.7849],[-48.18183,-24.78474],[-48.18224,-24.78446],[-48.18259,-24.78395],[-48.18302,-24.78238],[-48.18332,-24.78179],[-48.18367,-24.7814],[-48.18428,-24.781],[-48.19032,-24.77955],[-48.19112,-24.77928],[-48.1966,-24.77646],[-48.1985,-24.77581],[-48.20127,-24.77507],[-48.20182,-24.77484],[-48.2033,-24.77394],[-48.20414,-24.77353],[-48.20489,-24.77334],[-48.20557,-24.77328],[-48.20657,-24.7734],[-48.20769,-24.77383],[-48.20871,-24.77464],[-48.21133,-24.77743],[-48.21152,-24.77792],[-48.21154,-24.77821],[-48.21146,-24.77863],[-48.21131,-24.77892],[-48.20955,-24.78049],[-48.20917,-24.78092],[-48.20888,-24.78143],[-48.20869,-24.78221],[-48.20858,-24.78329],[-48.20796,-24.7863],[-48.208,-24.7869],[-48.20835,-24.78748],[-48.21031,-24.7887],[-48.21069,-24.78914],[-48.21081,-24.78991],[-48.21045,-24.79221],[-48.21051,-24.7926],[-48.21075,-24.79313],[-48.211,-24.79341],[-48.2115,-24.79375],[-48.21325,-24.7944],[-48.21395,-24.79473],[-48.21428,-24.795],[-48.21451,-24.79532],[-48.21473,-24.796],[-48.21466,-24.79665],[-48.21338,-24.79969],[-48.2132,-24.80063],[-48.21318,-24.80142],[-48.21328,-24.80218],[-48.21372,-24.80349],[-48.21415,-24.80424],[-48.21526,-24.80574],[-48.21555,-24.80631],[-48.21571,-24.80682],[-48.21575,-24.80782],[-48.21555,-24.80849],[-48.21517,-24.80918],[-48.21379,-24.81101],[-48.21344,-24.81162],[-48.21298,-24.81297],[-48.2129,-24.8139],[-48.21298,-24.81485],[-48.21317,-24.81563],[-48.2134,-24.81623],[-48.21462,-24.8186],[-48.21476,-24.81913],[-48.21473,-24.82059],[-48.21422,-24.82152],[-48.21418,-24.82183],[-48.21458,-24.82239],[-48.21499,-24.82262],[-48.21545,-24.82269],[-48.21717,-24.8226],[-48.21784,-24.82287],[-48.21819,-24.82329],[-48.2183,-24.82368],[-48.21825,-24.82411],[-48.21768,-24.82541],[-48.21772,-24.82595],[-48.21878,-24.82813],[-48.21937,-24.8291],[-48.22187,-24.83215],[-48.22224,-24.83333],[-48.22277,-24.83568],[-48.22274,-24.83625],[-48.22227,-24.83686],[-48.22046,-24.83777],[-48.22007,-24.8382],[-48.21994,-24.83845],[-48.21985,-24.83904],[-48.2199,-24.83931],[-48.2206,-24.8409],[-48.22071,-24.84167],[-48.22048,-24.84259],[-48.21969,-24.84451],[-48.2194,-24.84569],[-48.21937,-24.84689],[-48.21986,-24.8493],[-48.21967,-24.84995],[-48.21924,-24.85049],[-48.21898,-24.85068],[-48.21838,-24.85094],[-48.21722,-24.8513],[-48.21651,-24.85167],[-48.21623,-24.85197],[-48.21594,-24.8526],[-48.21592,-24.85341],[-48.21641,-24.85692],[-48.21741,-24.85894],[-48.21874,-24.86514],[-48.21864,-24.86571],[-48.21849,-24.86592],[-48.21661,-24.86782],[-48.21632,-24.86834],[-48.21619,-24.8693],[-48.21633,-24.87188],[-48.21649,-24.87247],[-48.2168,-24.87292],[-48.21747,-24.8734],[-48.22088,-24.87509],[-48.2213,-24.87515],[-48.22157,-24.87511],[-48.22285,-24.87468],[-48.22383,-24.87448],[-48.22454,-24.87457],[-48.22496,-24.87473],[-48.22537,-24.87499],[-48.22805,-24.87746],[-48.2287,-24.87815],[-48.22923,-24.87899],[-48.22938,-24.8796],[-48.22933,-24.88029],[-48.22921,-24.88066],[-48.22878,-24.8814],[-48.22686,-24.88292],[-48.22643,-24.88336],[-48.22626,-24.88368],[-48.22615,-24.88452],[-48.22656,-24.88534],[-48.22707,-24.88579],[-48.2284,-24.88658],[-48.2394,-24.89284],[-48.24079,-24.89345],[-48.24154,-24.89362],[-48.24363,-24.89388],[-48.24445,-24.89424],[-48.24509,-24.89492],[-48.24715,-24.89952],[-48.24777,-24.90042],[-48.24839,-24.90113],[-48.24935,-24.90204],[-48.25066,-24.90289],[-48.25233,-24.90368],[-48.25429,-24.90449],[-48.25486,-24.90496],[-48.25515,-24.90552],[-48.25523,-24.90591],[-48.25522,-24.90641],[-48.25509,-24.90689],[-48.25413,-24.90829],[-48.25327,-24.90934],[-48.25287,-24.91027],[-48.25289,-24.91105],[-48.25333,-24.91259],[-48.25357,-24.91313],[-48.254,-24.91381],[-48.25612,-24.91604],[-48.25702,-24.91715],[-48.25983,-24.9213],[-48.26074,-24.92231],[-48.26173,-24.92316],[-48.26269,-24.92383],[-48.27227,-24.92874],[-48.27535,-24.93027],[-48.27711,-24.931],[-48.30538,-24.94032],[-48.30673,-24.94087],[-48.30764,-24.94135],[-48.3084,-24.94179],[-48.30969,-24.94269],[-48.31136,-24.94431],[-48.31227,-24.9455],[-48.31485,-24.94963],[-48.31535,-24.95022],[-48.31612,-24.95094],[-48.31723,-24.95163],[-48.3185,-24.95211],[-48.33003,-24.95421],[-48.33145,-24.95478],[-48.33234,-24.95535],[-48.33325,-24.9561],[-48.34573,-24.96718],[-48.3494,-24.97111],[-48.35018,-24.97161],[-48.35092,-24.97189],[-48.35159,-24.97197],[-48.35272,-24.97186],[-48.35887,-24.96965],[-48.35981,-24.96942],[-48.3609,-24.96933],[-48.36309,-24.96931],[-48.36444,-24.96935],[-48.36593,-24.96966],[-48.36694,-24.97006],[-48.37013,-24.97163],[-48.37082,-24.97176],[-48.37176,-24.97175],[-48.38031,-24.97018],[-48.38124,-24.96987],[-48.38428,-24.96834],[-48.38527,-24.96793],[-48.38699,-24.96751],[-48.38821,-24.96744],[-48.38893,-24.96745],[-48.39036,-24.96766],[-48.39408,-24.96845],[-48.39541,-24.96888],[-48.39676,-24.9697],[-48.39932,-24.97186],[-48.39974,-24.97214],[-48.40037,-24.9724],[-48.40124,-24.9726],[-48.40209,-24.97266],[-48.4029,-24.97252],[-48.40356,-24.9723],[-48.40434,-24.97194],[-48.405,-24.9714],[-48.4107,-24.96532],[-48.4118,-24.96392],[-48.41341,-24.96236],[-48.41442,-24.9615],[-48.41507,-24.96115],[-48.41593,-24.96086],[-48.41659,-24.96075],[-48.4185,-24.96066],[-48.41931,-24.96052],[-48.41981,-24.96033],[-48.4206,-24.95972],[-48.42095,-24.95921],[-48.42115,-24.95871],[-48.42139,-24.9569],[-48.42166,-24.9562],[-48.42206,-24.95564],[-48.42449,-24.95278],[-48.42482,-24.95224],[-48.42488,-24.95186],[-48.42482,-24.95157],[-48.42364,-24.94933],[-48.42358,-24.94884],[-48.42369,-24.9482],[-48.42393,-24.94776],[-48.42444,-24.94726],[-48.4253,-24.94692],[-48.42598,-24.94687],[-48.42875,-24.9469],[-48.43022,-24.94704],[-48.43662,-24.94929],[-48.43913,-24.95024],[-48.44046,-24.95099],[-48.44122,-24.95158],[-48.44388,-24.95401],[-48.44467,-24.95442],[-48.44531,-24.95454],[-48.44625,-24.95443],[-48.44873,-24.95322],[-48.44911,-24.95309],[-48.44983,-24.95308],[-48.4505,-24.95337],[-48.45216,-24.95509],[-48.4524,-24.95526],[-48.45288,-24.95542],[-48.45308,-24.95546],[-48.45357,-24.95539],[-48.45576,-24.95468],[-48.45648,-24.95464],[-48.4569,-24.95468],[-48.4628,-24.95615],[-48.46335,-24.95641],[-48.4639,-24.95683],[-48.4646,-24.95785],[-48.4663,-24.96079],[-48.46696,-24.96127],[-48.46773,-24.96134],[-48.47349,-24.96092],[-48.4746,-24.96096],[-48.47537,-24.96112],[-48.4765,-24.96153],[-48.47713,-24.96185],[-48.47981,-24.96392],[-48.48064,-24.96446],[-48.48153,-24.96487],[-48.48254,-24.96514],[-48.4849,-24.96546],[-48.48569,-24.96566],[-48.48972,-24.96735],[-48.49194,-24.96781],[-48.4931,-24.9682],[-48.49365,-24.96848],[-48.49533,-24.9697],[-48.49631,-24.97017],[-48.49768,-24.9705],[-48.49959,-24.9707],[-48.49994,-24.97082],[-48.5007,-24.97137],[-48.50208,-24.97287],[-48.50476,-24.97459],[-48.50511,-24.97499],[-48.50538,-24.97556],[-48.50596,-24.97983],[-48.50744,-24.98565],[-48.50759,-24.9866],[-48.50769,-24.98808],[-48.50784,-24.99294],[-48.50795,-24.99393],[-48.50833,-24.99577],[-48.50876,-24.99718],[-48.50912,-24.99875],[-48.50903,-25.00036],[-48.50773,-25.00679],[-48.50767,-25.00875],[-48.50781,-25.01027],[-48.5082,-25.01192],[-48.50905,-25.01441],[-48.51021,-25.01756],[-48.51074,-25.01834],[-48.51127,-25.01872],[-48.51179,-25.0189],[-48.51415,-25.01919],[-48.51496,-25.01947],[-48.51548,-25.01978],[-48.51598,-25.0203],[-48.51633,-25.02087],[-48.51723,-25.02336],[-48.51744,-25.02376],[-48.51782,-25.02421],[-48.51837,-25.02453],[-48.51875,-25.02463],[-48.51937,-25.02464],[-48.523,-25.02433],[-48.52382,-25.02444],[-48.52441,-25.02472],[-48.52482,-25.02505],[-48.52514,-25.02547],[-48.52571,-25.02731],[-48.526,-25.02785],[-48.52635,-25.02821],[-48.52662,-25.02844],[-48.52732,-25.02879],[-48.53108,-25.02978],[-48.53228,-25.0303],[-48.53276,-25.03067],[-48.53325,-25.03119],[-48.5361,-25.03502],[-48.53667,-25.03554],[-48.5373,-25.03576],[-48.54147,-25.0361],[-48.54506,-25.03586],[-48.54581,-25.03608],[-48.54632,-25.03636],[-48.54748,-25.0377],[-48.54831,-25.03891],[-48.54918,-25.04097],[-48.54952,-25.04149],[-48.5498,-25.04175],[-48.55033,-25.04198],[-48.55212,-25.04208],[-48.55282,-25.04232],[-48.5533,-25.04284],[-48.55365,-25.04357],[-48.55405,-25.04464],[-48.55414,-25.04525],[-48.55403,-25.0461],[-48.5532,-25.0486],[-48.55318,-25.04912],[-48.55336,-25.0497],[-48.55474,-25.05181],[-48.55536,-25.05293],[-48.55543,-25.05325],[-48.5556,-25.05701],[-48.55581,-25.05753],[-48.55612,-25.0579],[-48.55691,-25.05829],[-48.55932,-25.05901],[-48.56189,-25.05968],[-48.56246,-25.05992],[-48.56321,-25.06064],[-48.56453,-25.06282],[-48.56506,-25.06333],[-48.56548,-25.06353],[-48.56602,-25.06366],[-48.56683,-25.06361],[-48.56886,-25.06292],[-48.56944,-25.06294],[-48.56988,-25.0631],[-48.57036,-25.0635],[-48.57184,-25.06559],[-48.57233,-25.0661],[-48.57323,-25.06666],[-48.57442,-25.06694],[-48.57528,-25.06694],[-48.57616,-25.06675],[-48.57784,-25.06609],[-48.57873,-25.06605],[-48.57952,-25.06629],[-48.58311,-25.06791],[-48.5835,-25.06823],[-48.5839,-25.06871],[-48.58634,-25.07283],[-48.58689,-25.07351],[-48.58732,-25.07383],[-48.58786,-25.07409],[-48.59234,-25.07549],[-48.59318,-25.07579],[-48.59387,-25.07615],[-48.59451,-25.0767],[-48.60155,-25.08488],[-48.60363,-25.08674],[-48.60459,-25.0873],[-48.60568,-25.08751],[-48.60638,-25.08749],[-48.60841,-25.08701],[-48.60925,-25.08668],[-48.60984,-25.08618],[-48.61026,-25.08557],[-48.61072,-25.08429],[-48.61111,-25.08349],[-48.61151,-25.0831],[-48.61203,-25.08274],[-48.61269,-25.08255],[-48.61348,-25.08248],[-48.61763,-25.0823],[-48.61799,-25.08223],[-48.61962,-25.0814],[-48.62036,-25.08116],[-48.62233,-25.08096],[-48.62336,-25.08097],[-48.62999,-25.08307],[-48.63272,-25.08356],[-48.63337,-25.08348],[-48.63483,-25.08277],[-48.63559,-25.08256],[-48.63656,-25.08251],[-48.63785,-25.08275],[-48.6386,-25.08277],[-48.64044,-25.08223],[-48.64117,-25.08224],[-48.64152,-25.08234],[-48.64205,-25.08262],[-48.64248,-25.08307],[-48.64501,-25.08808],[-48.64645,-25.08997],[-48.64701,-25.09055],[-48.65337,-25.09615],[-48.65418,-25.09666],[-48.6547,-25.09688],[-48.65672,-25.09748],[-48.65853,-25.09776],[-48.65907,-25.0976],[-48.66018,-25.09696],[-48.66103,-25.0966],[-48.66247,-25.09627],[-48.66384,-25.09633],[-48.66683,-25.09682],[-48.6719,-25.09718],[-48.67263,-25.09736],[-48.67321,-25.09767],[-48.67459,-25.09911],[-48.67511,-25.09952],[-48.67571,-25.09978],[-48.67629,-25.09987],[-48.67698,-25.09982],[-48.67755,-25.09963],[-48.67929,-25.09853],[-48.67959,-25.09837],[-48.68019,-25.09822],[-48.68072,-25.0982],[-48.68493,-25.09856],[-48.68711,-25.0985],[-48.68777,-25.09868],[-48.68931,-25.09946],[-48.68996,-25.09963],[-48.69433,-25.09982],[-48.69543,-25.09999],[-48.69624,-25.1002],[-48.69737,-25.10065],[-48.69845,-25.10124],[-48.69944,-25.10189],[-48.70078,-25.10296],[-48.70159,-25.10329],[-48.70212,-25.10334],[-48.70515,-25.10324],[-48.70641,-25.10331],[-48.71434,-25.10456],[-48.71551,-25.10446],[-48.72959,-25.1006],[-48.73048,-25.10052],[-48.7309,-25.10056],[-48.73172,-25.10082],[-48.73778,-25.10358],[-48.73824,-25.10394],[-48.74065,-25.10644],[-48.74123,-25.10687],[-48.74189,-25.10724],[-48.74727,-25.10956],[-48.74991,-25.11086],[-48.75081,-25.11112],[-48.75173,-25.11109],[-48.75482,-25.11075],[-48.75929,-25.10966],[-48.76081,-25.10938],[-48.78552,-25.10685],[-48.78656,-25.10684],[-48.78803,-25.10701],[-48.79815,-25.10904],[-48.79936,-25.10917],[-48.80017,-25.10907],[-48.80088,-25.10888],[-48.8018,-25.10841],[-48.8076,-25.10411],[-48.80907,-25.10294],[-48.81095,-25.10091],[-48.81157,-25.10038],[-48.81213,-25.10005],[-48.81281,-25.09979],[-48.81324,-25.09966],[-48.81414,-25.09957],[-48.82503,-25.10035],[-48.82626,-25.10055],[-48.83011,-25.10144],[-48.83179,-25.10188],[-48.83285,-25.10224],[-48.83747,-25.10444],[-48.83864,-25.10481],[-48.83941,-25.10498],[-48.84678,-25.10576],[-48.84811,-25.10616],[-48.84889,-25.10656],[-48.84954,-25.10701],[-48.85091,-25.10827],[-48.85247,-25.1099],[-48.85309,-25.11091],[-48.85336,-25.11177],[-48.85353,-25.1127],[-48.85399,-25.11633],[-48.85428,-25.11764],[-48.8552,-25.1205],[-48.85692,-25.12528],[-48.85739,-25.12688],[-48.8575,-25.12907],[-48.85732,-25.13577],[-48.85719,-25.13651],[-48.85613,-25.13981],[-48.85614,-25.14075],[-48.85627,-25.14119],[-48.8591,-25.14779],[-48.85936,-25.14903],[-48.85937,-25.15095],[-48.8595,-25.15153],[-48.85989,-25.15218],[-48.86095,-25.15359],[-48.86135,-25.15453],[-48.8614,-25.15516],[-48.86131,-25.15601],[-48.86135,-25.15676],[-48.86229,-25.16005],[-48.86225,-25.16048],[-48.86173,-25.16192],[-48.86161,-25.16247],[-48.86164,-25.16315],[-48.86184,-25.16377],[-48.86236,-25.16453],[-48.86677,-25.16889],[-48.86714,-25.16972],[-48.86812,-25.17356],[-48.86837,-25.17404],[-48.86897,-25.17472],[-48.86971,-25.17522],[-48.87061,-25.17554],[-48.87655,-25.17656],[-48.87755,-25.17675],[-48.87816,-25.17695],[-48.87873,-25.17736],[-48.87929,-25.17792],[-48.88037,-25.17927],[-48.88253,-25.1817],[-48.88396,-25.18262],[-48.88519,-25.18329],[-48.88567,-25.18371],[-48.88611,-25.18439],[-48.88616,-25.18509],[-48.88603,-25.18558],[-48.88547,-25.18665],[-48.88505,-25.18771],[-48.88461,-25.18921],[-48.88455,-25.1901],[-48.88483,-25.19084],[-48.88518,-25.19127],[-48.88566,-25.19162],[-48.88734,-25.19231],[-48.88801,-25.19272],[-48.88846,-25.19319],[-48.88921,-25.19423],[-48.88968,-25.1947],[-48.89139,-25.19603],[-48.8942,-25.19795],[-48.89473,-25.19858],[-48.8961,-25.20141],[-48.89618,-25.20183],[-48.89613,-25.20267],[-48.89574,-25.20394],[-48.89544,-25.20527],[-48.89546,-25.20622],[-48.89587,-25.20729],[-48.89657,-25.2085],[-48.8973,-25.21106],[-48.89768,-25.21167],[-48.89836,-25.21228],[-48.90224,-25.21484],[-48.90313,-25.21574],[-48.9037,-25.21654],[-48.904,-25.21723],[-48.90622,-25.22367],[-48.90799,-25.22995],[-48.90808,-25.23097],[-48.90809,-25.23404],[-48.908,-25.23501],[-48.90778,-25.23588],[-48.90734,-25.23691],[-48.9065,-25.23832],[-48.9042,-25.24069],[-48.90268,-25.24285],[-48.90246,-25.24369],[-48.90263,-25.24452],[-48.90296,-25.245],[-48.90409,-25.24628],[-48.90491,-25.24708],[-48.90598,-25.24778],[-48.90824,-25.24898],[-48.909,-25.24961],[-48.90964,-25.25038],[-48.91287,-25.25589],[-48.9132,-25.25671],[-48.91429,-25.26101],[-48.91491,-25.26304],[-48.91542,-25.26411],[-48.91766,-25.26791],[-48.93198,-25.28729],[-48.9327,-25.28791],[-48.93351,-25.28842],[-48.93384,-25.28874],[-48.93406,-25.28909],[-48.93434,-25.28987],[-48.93441,-25.29065],[-48.93437,-25.29153],[-48.93457,-25.29225],[-48.935,-25.29328],[-48.93547,-25.29397],[-48.93623,-25.29478],[-48.9389,-25.29695],[-48.9393,-25.29737],[-48.94034,-25.29808],[-48.94123,-25.29892],[-48.94178,-25.29967],[-48.94314,-25.30266],[-48.94346,-25.30308],[-48.94419,-25.3037],[-48.94517,-25.30434],[-48.94649,-25.3049],[-48.9478,-25.30514],[-48.94871,-25.30518],[-48.94963,-25.3051],[-48.96254,-25.30272],[-48.96358,-25.30266],[-48.96431,-25.30279],[-48.96549,-25.30315],[-48.97787,-25.30709],[-48.98025,-25.30777],[-48.98186,-25.30791],[-48.98295,-25.30784],[-48.99454,-25.30602],[-48.99541,-25.30607],[-48.99622,-25.30623],[-48.99688,-25.30654],[-49.00226,-25.3105],[-49.00273,-25.31073],[-49.00356,-25.31098],[-49.00419,-25.31104],[-49.00493,-25.31097],[-49.00732,-25.31043],[-49.00901,-25.31018],[-49.01235,-25.3104],[-49.01335,-25.31056],[-49.01393,-25.31074],[-49.01496,-25.3112],[-49.01529,-25.31143],[-49.01616,-25.31213],[-49.01675,-25.31278],[-49.01757,-25.31437],[-49.01867,-25.31721],[-49.01927,-25.31808],[-49.01983,-25.3186],[-49.02168,-25.31965],[-49.02261,-25.3203],[-49.0269,-25.32567],[-49.02999,-25.32921],[-49.03636,-25.33677],[-49.04339,-25.34409],[-49.04509,-25.34555],[-49.04706,-25.34681],[-49.04875,-25.34751],[-49.05814,-25.35061],[-49.05987,-25.35128],[-49.0615,-25.35215],[-49.06755,-25.35599],[-49.08177,-25.36251],[-49.08465,-25.36378],[-49.08571,-25.36417],[-49.08707,-25.36454],[-49.08897,-25.36491],[-49.09161,-25.3653],[-49.09727,-25.3664],[-49.11234,-25.36906],[-49.14232,-25.37281],[-49.1438,-25.37312],[-49.14556,-25.37368],[-49.14829,-25.37482],[-49.17593,-25.38675],[-49.17701,-25.38714],[-49.17826,-25.38748],[-49.18638,-25.38879],[-49.18901,-25.38911],[-49.19564,-25.38899],[-49.20451,-25.38868],[-49.20458,-25.38873],[-49.20598,-25.38873],[-49.2063,-25.38898],[-49.20654,-25.3894],[-49.20728,-25.39028],[-49.21102,-25.39455],[-49.21436,-25.39714],[-49.21502,-25.39781],[-49.21524,-25.39817],[-49.21577,-25.39927],[-49.21705,-25.4025],[-49.21849,-25.40571],[-49.21927,-25.40737],[-49.22029,-25.40926],[-49.22074,-25.41035],[-49.2211,-25.41165],[-49.22154,-25.41266],[-49.22428,-25.41865],[-49.22594,-25.42202],[-49.23935,-25.42713],[-49.23987,-25.42727],[-49.24071,-25.42764],[-49.24126,-25.42771],[-49.25363,-25.42672],[-49.25311,-25.42238],[-49.25419,-25.42232],[-49.25534,-25.42243],[-49.25549,-25.42237],[-49.25647,-25.42061],[-49.25682,-25.42053],[-49.2571,-25.42037],[-49.2594,-25.41866],[-49.25995,-25.41989],[-49.25912,-25.4205]]},"properties":{"route_id":"couto-pereira","tipo":"rota","clube":"Coritiba","estadio":"Estádio Major Antônio Couto Pereira","cidade":"Curitiba","estado":"PR","distancia_km":419.7,"modo_rota":"carro","match_status":"concluida","status":"Traçado fornecido para deslocamento do Brasileirão 2026.","projecao":false,"fonte_rota":"ROTA - COUTO PEREIRA.shp","metodo_rota":"Traçado viário existente convertido do shapefile do usuário.","data_partida":null,"Name":"Rotas de Parque São Jorge, São Paulo - SP até Estádio Major Antônio Couto Pereira - Rua Ubaldino do Amaral - Alto da Glória, Curitiba - PR","ajuste_origem_m":0.0}},{"type":"Feature","geometry":{"type":"Point","coordinates":[-49.25912,-25.4205]},"properties":{"route_id":"couto-pereira","tipo":"estadio_destino","clube":"Coritiba","estadio":"Estádio Major Antônio Couto Pereira","cidade":"Curitiba","estado":"PR","distancia_km":419.7,"status":"Traçado fornecido para deslocamento do Brasileirão 2026.","projecao":false,"data_partida":null}}]}