{"type":"FeatureCollection","name":"mangueirao","features":[{"type":"Feature","geometry":{"type":"LineString","coordinates":[[-46.56809,-23.53096],[-46.5686,-23.53109],[-46.56828,-23.53221],[-46.56832,-23.53228],[-46.56825,-23.53231],[-46.5677,-23.5342],[-46.57081,-23.53571],[-46.57152,-23.53589],[-46.5721,-23.53595],[-46.57634,-23.53507],[-46.57995,-23.53491],[-46.58101,-23.53499],[-46.58165,-23.53222],[-46.58217,-23.53241],[-46.58289,-23.53284],[-46.58365,-23.5312],[-46.58379,-23.53051],[-46.58375,-23.53007],[-46.58304,-23.5282],[-46.58309,-23.52781],[-46.58341,-23.5275],[-46.58383,-23.52746],[-46.58811,-23.52856],[-46.58894,-23.5287],[-46.5895,-23.52864],[-46.59367,-23.52761],[-46.59754,-23.52621],[-46.60091,-23.5235],[-46.60214,-23.52272],[-46.60296,-23.52236],[-46.60467,-23.52211],[-46.60617,-23.52224],[-46.60862,-23.5227],[-46.60945,-23.52273],[-46.6105,-23.52259],[-46.6113,-23.52234],[-46.61222,-23.52187],[-46.61516,-23.51971],[-46.616,-23.5192],[-46.61721,-23.51868],[-46.61791,-23.51848],[-46.61919,-23.51833],[-46.62007,-23.51838],[-46.62285,-23.5189],[-46.62394,-23.51892],[-46.6305,-23.51859],[-46.6314,-23.51862],[-46.6398,-23.51805],[-46.64392,-23.51766],[-46.65096,-23.51669],[-46.6525,-23.51659],[-46.65432,-23.51636],[-46.65724,-23.51589],[-46.66724,-23.51474],[-46.66863,-23.51448],[-46.67698,-23.51342],[-46.67792,-23.51318],[-46.67879,-23.51281],[-46.6795,-23.51238],[-46.68201,-23.51052],[-46.68258,-23.51019],[-46.68377,-23.5097],[-46.68497,-23.50942],[-46.68915,-23.50871],[-46.69191,-23.50804],[-46.69486,-23.50752],[-46.69638,-23.50741],[-46.70647,-23.50826],[-46.7089,-23.50813],[-46.70987,-23.50804],[-46.71037,-23.50791],[-46.7163,-23.50735],[-46.71783,-23.50747],[-46.71923,-23.50771],[-46.71991,-23.50765],[-46.72075,-23.50731],[-46.72171,-23.50662],[-46.72228,-23.50611],[-46.72696,-23.501],[-46.72873,-23.49869],[-46.73149,-23.49459],[-46.73647,-23.48854],[-46.73702,-23.48734],[-46.73721,-23.48666],[-46.7378,-23.48212],[-46.73803,-23.48098],[-46.73846,-23.47977],[-46.73901,-23.47877],[-46.74,-23.4776],[-46.74089,-23.47687],[-46.74238,-23.47606],[-46.74535,-23.4748],[-46.74623,-23.47427],[-46.74703,-23.47357],[-46.74776,-23.47261],[-46.74807,-23.47201],[-46.75111,-23.46501],[-46.75186,-23.46315],[-46.75213,-23.46211],[-46.7558,-23.44431],[-46.7563,-23.4422],[-46.75687,-23.44078],[-46.75979,-23.4349],[-46.76005,-23.43407],[-46.76015,-23.43348],[-46.76073,-23.4241],[-46.76093,-23.42294],[-46.76148,-23.42165],[-46.76582,-23.41417],[-46.76665,-23.41213],[-46.76712,-23.41048],[-46.76738,-23.4091],[-46.76753,-23.40737],[-46.7676,-23.40197],[-46.76779,-23.39915],[-46.76892,-23.38986],[-46.7692,-23.38362],[-46.76928,-23.38293],[-46.76953,-23.38194],[-46.77014,-23.38058],[-46.77056,-23.37994],[-46.77126,-23.37911],[-46.77265,-23.37787],[-46.77682,-23.37449],[-46.77755,-23.37376],[-46.77818,-23.37296],[-46.78331,-23.36434],[-46.78369,-23.36341],[-46.78428,-23.36068],[-46.78466,-23.35973],[-46.7853,-23.35874],[-46.7862,-23.35784],[-46.78676,-23.35743],[-46.78754,-23.35701],[-46.78832,-23.35672],[-46.79102,-23.35601],[-46.7921,-23.35554],[-46.79266,-23.35518],[-46.79552,-23.35289],[-46.79644,-23.35232],[-46.79777,-23.35173],[-46.79895,-23.35138],[-46.80003,-23.35117],[-46.80679,-23.35038],[-46.80857,-23.34991],[-46.80946,-23.34952],[-46.81073,-23.34878],[-46.81196,-23.34779],[-46.81974,-23.34032],[-46.82075,-23.33906],[-46.82173,-23.33743],[-46.82234,-23.33595],[-46.82284,-23.33386],[-46.82294,-23.33293],[-46.82315,-23.32643],[-46.82327,-23.32484],[-46.82344,-23.31699],[-46.82357,-23.31596],[-46.82387,-23.31505],[-46.82458,-23.31384],[-46.82536,-23.313],[-46.82608,-23.31244],[-46.82716,-23.31189],[-46.83261,-23.3099],[-46.83321,-23.30959],[-46.83415,-23.30895],[-46.8367,-23.30647],[-46.83871,-23.30443],[-46.83973,-23.30329],[-46.84016,-23.30258],[-46.84054,-23.30154],[-46.84074,-23.30039],[-46.84109,-23.29704],[-46.84131,-23.29588],[-46.84157,-23.29516],[-46.84209,-23.29428],[-46.8429,-23.29335],[-46.8454,-23.29124],[-46.84619,-23.29047],[-46.84673,-23.28968],[-46.84708,-23.28895],[-46.84731,-23.28826],[-46.8474,-23.28767],[-46.8484,-23.27891],[-46.84886,-23.27766],[-46.84973,-23.27643],[-46.8503,-23.27588],[-46.85386,-23.27304],[-46.85479,-23.27218],[-46.85562,-23.27118],[-46.85745,-23.2686],[-46.85858,-23.26742],[-46.86018,-23.26622],[-46.86069,-23.26595],[-46.86532,-23.26291],[-46.86653,-23.26188],[-46.86719,-23.2611],[-46.86746,-23.26067],[-46.86786,-23.25988],[-46.86927,-23.25623],[-46.86972,-23.25538],[-46.87048,-23.25431],[-46.87105,-23.25368],[-46.87171,-23.25311],[-46.87705,-23.24884],[-46.87857,-23.24751],[-46.87953,-23.2465],[-46.88222,-23.24314],[-46.88395,-23.24141],[-46.89148,-23.23494],[-46.89363,-23.23324],[-46.91894,-23.21425],[-46.92043,-23.21303],[-46.9217,-23.21182],[-46.92345,-23.20976],[-46.92444,-23.20833],[-46.9257,-23.20612],[-46.92619,-23.20504],[-46.9351,-23.1789],[-46.93626,-23.17584],[-46.93716,-23.17401],[-46.93868,-23.17152],[-46.94101,-23.16854],[-46.94346,-23.16611],[-46.95336,-23.15721],[-46.9553,-23.15525],[-46.96055,-23.14938],[-46.96221,-23.14786],[-46.96333,-23.147],[-46.96486,-23.14598],[-46.97475,-23.14045],[-46.97603,-23.13946],[-46.97709,-23.1383],[-46.97791,-23.13702],[-46.97836,-23.13603],[-46.98027,-23.1305],[-46.98059,-23.12985],[-46.98115,-23.12898],[-46.98201,-23.12796],[-46.99553,-23.11599],[-46.99822,-23.11415],[-47.00186,-23.11219],[-47.00259,-23.11172],[-47.00329,-23.11119],[-47.00405,-23.11048],[-47.01427,-23.09819],[-47.01573,-23.09626],[-47.01657,-23.09455],[-47.01792,-23.09019],[-47.01869,-23.08862],[-47.01931,-23.08772],[-47.02316,-23.08286],[-47.02404,-23.08162],[-47.02527,-23.07967],[-47.02979,-23.07158],[-47.03087,-23.07008],[-47.04149,-23.06007],[-47.04446,-23.05744],[-47.04552,-23.0563],[-47.05006,-23.05201],[-47.05259,-23.04982],[-47.06038,-23.04344],[-47.06142,-23.04271],[-47.0626,-23.042],[-47.06645,-23.03997],[-47.06728,-23.03943],[-47.06833,-23.03852],[-47.06917,-23.03751],[-47.06994,-23.03618],[-47.07525,-23.02518],[-47.07587,-23.02402],[-47.07685,-23.02252],[-47.07946,-23.01956],[-47.08246,-23.01632],[-47.0841,-23.01478],[-47.0851,-23.014],[-47.09337,-23.00815],[-47.09449,-23.00727],[-47.09602,-23.0058],[-47.10057,-23.00032],[-47.10205,-22.99861],[-47.10294,-22.9977],[-47.10436,-22.99645],[-47.10912,-22.99313],[-47.10994,-22.99234],[-47.11038,-22.99173],[-47.11074,-22.99108],[-47.11093,-22.99055],[-47.11114,-22.98958],[-47.11157,-22.98044],[-47.11175,-22.97907],[-47.1121,-22.97795],[-47.11245,-22.97719],[-47.11364,-22.97512],[-47.11704,-22.96944],[-47.11819,-22.96784],[-47.1236,-22.9613],[-47.12443,-22.96008],[-47.12504,-22.95872],[-47.12531,-22.95785],[-47.12551,-22.95645],[-47.12576,-22.94272],[-47.12593,-22.94078],[-47.12648,-22.93779],[-47.12959,-22.92632],[-47.13005,-22.92488],[-47.13068,-22.9236],[-47.13168,-22.92234],[-47.13272,-22.92119],[-47.13328,-22.92041],[-47.13387,-22.91935],[-47.13442,-22.91791],[-47.13632,-22.91155],[-47.13651,-22.91072],[-47.13667,-22.9097],[-47.13674,-22.90846],[-47.13672,-22.90122],[-47.13664,-22.89976],[-47.13641,-22.89844],[-47.136,-22.89699],[-47.13552,-22.8958],[-47.13155,-22.88696],[-47.13078,-22.88442],[-47.13047,-22.88213],[-47.13051,-22.87966],[-47.13163,-22.86983],[-47.13216,-22.86815],[-47.13259,-22.86729],[-47.13307,-22.86659],[-47.13362,-22.86591],[-47.1342,-22.86535],[-47.13528,-22.86454],[-47.15113,-22.85533],[-47.16057,-22.84931],[-47.16203,-22.84825],[-47.1634,-22.84712],[-47.16473,-22.84586],[-47.17798,-22.83184],[-47.1796,-22.83031],[-47.18164,-22.82876],[-47.18282,-22.82798],[-47.18434,-22.8271],[-47.20582,-22.81563],[-47.20805,-22.81429],[-47.21066,-22.81246],[-47.21168,-22.81163],[-47.21305,-22.81044],[-47.21979,-22.80345],[-47.22065,-22.80241],[-47.22184,-22.80066],[-47.23507,-22.77454],[-47.23577,-22.77345],[-47.23626,-22.77285],[-47.23734,-22.77179],[-47.23865,-22.77065],[-47.24265,-22.76765],[-47.24549,-22.76532],[-47.24795,-22.76315],[-47.26912,-22.74287],[-47.2705,-22.74171],[-47.27207,-22.74065],[-47.27305,-22.74009],[-47.28794,-22.73297],[-47.28932,-22.73199],[-47.29022,-22.7311],[-47.29099,-22.73013],[-47.29172,-22.72881],[-47.29245,-22.7268],[-47.29626,-22.71416],[-47.2969,-22.71254],[-47.2975,-22.71138],[-47.29826,-22.71019],[-47.29907,-22.70914],[-47.3092,-22.69703],[-47.30986,-22.69606],[-47.31038,-22.69497],[-47.3108,-22.69363],[-47.31098,-22.69209],[-47.31056,-22.6839],[-47.31082,-22.67652],[-47.31092,-22.67566],[-47.31117,-22.6746],[-47.3114,-22.67392],[-47.312,-22.67274],[-47.31847,-22.66327],[-47.31966,-22.6614],[-47.32321,-22.65458],[-47.32547,-22.6493],[-47.32645,-22.64645],[-47.32801,-22.64141],[-47.32864,-22.64009],[-47.32957,-22.63876],[-47.33519,-22.63224],[-47.35331,-22.61294],[-47.35486,-22.61173],[-47.35591,-22.6111],[-47.35883,-22.60961],[-47.35965,-22.60909],[-47.3606,-22.60819],[-47.3613,-22.60706],[-47.36268,-22.60361],[-47.36692,-22.59234],[-47.36729,-22.59104],[-47.3675,-22.58961],[-47.36751,-22.58839],[-47.36568,-22.56542],[-47.36578,-22.56326],[-47.36605,-22.56171],[-47.36653,-22.55997],[-47.36718,-22.55843],[-47.36827,-22.55655],[-47.37559,-22.54591],[-47.37853,-22.54176],[-47.38918,-22.52622],[-47.3917,-22.5225],[-47.39251,-22.52111],[-47.39335,-22.51927],[-47.39447,-22.51597],[-47.39894,-22.50549],[-47.39919,-22.50468],[-47.3994,-22.50332],[-47.3994,-22.50298],[-47.39938,-22.50271],[-47.39938,-22.50246],[-47.39937,-22.50228],[-47.39938,-22.50096],[-47.39926,-22.50064],[-47.39887,-22.50027],[-47.39846,-22.50018],[-47.39786,-22.50033],[-47.39744,-22.50069],[-47.39728,-22.50097],[-47.39721,-22.5014],[-47.39729,-22.50182],[-47.39745,-22.50209],[-47.39777,-22.50237],[-47.39809,-22.50251],[-47.39882,-22.50252],[-47.39928,-22.50236],[-47.40184,-22.50162],[-47.40186,-22.50162],[-47.40439,-22.50087],[-47.42058,-22.49604],[-47.42239,-22.49553],[-47.45305,-22.48639],[-47.49962,-22.47263],[-47.50295,-22.47133],[-47.52228,-22.46313],[-47.52406,-22.46252],[-47.52555,-22.46213],[-47.52669,-22.46192],[-47.52847,-22.46172],[-47.53411,-22.4617],[-47.53557,-22.46155],[-47.53844,-22.46081],[-47.54095,-22.45999],[-47.54506,-22.45834],[-47.54783,-22.45701],[-47.55094,-22.45525],[-47.55333,-22.4537],[-47.55667,-22.45122],[-47.55882,-22.44933],[-47.56168,-22.44654],[-47.56274,-22.44538],[-47.56505,-22.44261],[-47.56725,-22.43954],[-47.5687,-22.43719],[-47.56963,-22.4355],[-47.57834,-22.41833],[-47.5797,-22.41609],[-47.58152,-22.41366],[-47.59758,-22.39506],[-47.59941,-22.39315],[-47.61815,-22.37591],[-47.62084,-22.37316],[-47.62281,-22.37148],[-47.633,-22.36224],[-47.6336,-22.36175],[-47.63472,-22.361],[-47.64398,-22.35573],[-47.64569,-22.35434],[-47.64616,-22.35383],[-47.64822,-22.35116],[-47.6504,-22.34823],[-47.65116,-22.34674],[-47.65152,-22.34508],[-47.65149,-22.34387],[-47.65093,-22.33895],[-47.651,-22.33787],[-47.65136,-22.33651],[-47.65186,-22.3353],[-47.65645,-22.32705],[-47.65665,-22.32591],[-47.65654,-22.32495],[-47.65628,-22.32378],[-47.65628,-22.32299],[-47.65649,-22.32204],[-47.65675,-22.32153],[-47.66213,-22.31395],[-47.66245,-22.31367],[-47.663,-22.3134],[-47.66435,-22.31302],[-47.66528,-22.31265],[-47.66626,-22.31199],[-47.66698,-22.31116],[-47.66745,-22.31028],[-47.66936,-22.30386],[-47.66978,-22.30277],[-47.67012,-22.30213],[-47.67422,-22.29602],[-47.6755,-22.29406],[-47.67568,-22.29368],[-47.67586,-22.29304],[-47.67643,-22.28954],[-47.67702,-22.28838],[-47.68169,-22.28182],[-47.68341,-22.27955],[-47.68408,-22.27895],[-47.68514,-22.27845],[-47.68743,-22.27798],[-47.68831,-22.27787],[-47.68907,-22.27795],[-47.69064,-22.27855],[-47.69176,-22.27864],[-47.69297,-22.27829],[-47.69425,-22.27756],[-47.69559,-22.27723],[-47.69595,-22.27704],[-47.69638,-22.27661],[-47.69694,-22.27554],[-47.69755,-22.27485],[-47.69806,-22.27451],[-47.69967,-22.274],[-47.70019,-22.27367],[-47.70317,-22.27045],[-47.70359,-22.26986],[-47.70388,-22.26907],[-47.70396,-22.26855],[-47.70288,-22.25481],[-47.70289,-22.25346],[-47.70332,-22.25149],[-47.70408,-22.24969],[-47.70471,-22.24862],[-47.70565,-22.24747],[-47.70678,-22.2464],[-47.70797,-22.2455],[-47.70909,-22.24486],[-47.71073,-22.24409],[-47.7619,-22.22108],[-47.76286,-22.2205],[-47.76395,-22.21964],[-47.76487,-22.21859],[-47.76529,-22.21799],[-47.76584,-22.21703],[-47.76829,-22.2117],[-47.76974,-22.20838],[-47.77086,-22.20543],[-47.78797,-22.16747],[-47.79467,-22.15234],[-47.79875,-22.14345],[-47.80894,-22.12733],[-47.81425,-22.11917],[-47.83554,-22.08564],[-47.83853,-22.08127],[-47.84431,-22.07235],[-47.84454,-22.07187],[-47.86091,-22.0463],[-47.86166,-22.04482],[-47.86198,-22.04346],[-47.86204,-22.04255],[-47.86199,-22.04202],[-47.86136,-22.03832],[-47.86005,-22.03178],[-47.85723,-22.0165],[-47.8572,-22.01536],[-47.85727,-22.01459],[-47.85757,-22.01317],[-47.85788,-22.01232],[-47.85831,-22.01145],[-47.85884,-22.01059],[-47.85947,-22.0098],[-47.86,-22.00925],[-47.861,-22.00842],[-47.87869,-21.99428],[-47.88026,-21.99311],[-47.88215,-21.99214],[-47.897,-21.98743],[-47.89903,-21.98672],[-47.89942,-21.98666],[-47.94555,-21.97211],[-47.97257,-21.96369],[-47.97414,-21.96317],[-47.97549,-21.9626],[-47.97673,-21.96196],[-47.97775,-21.96133],[-48.08735,-21.88212],[-48.08837,-21.88117],[-48.09079,-21.87815],[-48.09156,-21.8775],[-48.09234,-21.87702],[-48.09323,-21.87664],[-48.09398,-21.87644],[-48.09682,-21.87596],[-48.09759,-21.87577],[-48.09847,-21.87546],[-48.09973,-21.87478],[-48.13997,-21.84577],[-48.14405,-21.84309],[-48.15117,-21.83801],[-48.20906,-21.79626],[-48.25198,-21.76103],[-48.26238,-21.75233],[-48.26408,-21.75102],[-48.27549,-21.7417],[-48.32838,-21.69822],[-48.33167,-21.69455],[-48.33681,-21.6898],[-48.33781,-21.68857],[-48.33834,-21.6876],[-48.33874,-21.68632],[-48.33884,-21.68513],[-48.33514,-21.60992],[-48.33443,-21.59689],[-48.33204,-21.54484],[-48.33183,-21.54176],[-48.33176,-21.53902],[-48.32888,-21.47906],[-48.3284,-21.4681],[-48.32846,-21.46559],[-48.32784,-21.4521],[-48.32759,-21.44689],[-48.32698,-21.43897],[-48.3232,-21.3576],[-48.32248,-21.34349],[-48.32241,-21.34013],[-48.32153,-21.32109],[-48.32178,-21.31804],[-48.32232,-21.31522],[-48.32323,-21.31248],[-48.32478,-21.30862],[-48.32873,-21.29926],[-48.33062,-21.29433],[-48.33397,-21.28652],[-48.33801,-21.27668],[-48.34152,-21.26844],[-48.34447,-21.26113],[-48.351,-21.24581],[-48.35356,-21.23949],[-48.36025,-21.21834],[-48.36548,-21.20233],[-48.39678,-21.10472],[-48.40601,-21.07623],[-48.40643,-21.07468],[-48.4092,-21.06641],[-48.42069,-21.03056],[-48.42796,-21.0083],[-48.44014,-20.97061],[-48.44135,-20.96669],[-48.44928,-20.94238],[-48.45003,-20.94005],[-48.4507,-20.9375],[-48.45293,-20.93068],[-48.45398,-20.92778],[-48.48123,-20.84389],[-48.48705,-20.82623],[-48.4983,-20.79143],[-48.52271,-20.72632],[-48.53079,-20.70441],[-48.53472,-20.69422],[-48.53672,-20.6887],[-48.553,-20.64522],[-48.5543,-20.64199],[-48.55475,-20.64099],[-48.55509,-20.64044],[-48.55553,-20.63983],[-48.55649,-20.63877],[-48.5581,-20.63756],[-48.55942,-20.6362],[-48.5602,-20.63495],[-48.56047,-20.63433],[-48.56398,-20.62524],[-48.58961,-20.55732],[-48.5914,-20.55205],[-48.60729,-20.49891],[-48.60861,-20.4944],[-48.60917,-20.49191],[-48.60983,-20.49017],[-48.61205,-20.48287],[-48.61252,-20.48102],[-48.61325,-20.47897],[-48.61592,-20.47011],[-48.62157,-20.45117],[-48.62175,-20.45008],[-48.62202,-20.4491],[-48.62268,-20.44752],[-48.62485,-20.44031],[-48.6577,-20.33],[-48.66455,-20.30712],[-48.66504,-20.30567],[-48.66531,-20.30455],[-48.66544,-20.3035],[-48.66654,-20.30046],[-48.66844,-20.29418],[-48.67044,-20.28501],[-48.67651,-20.25216],[-48.67645,-20.25093],[-48.67683,-20.24873],[-48.67703,-20.2478],[-48.67751,-20.2468],[-48.6897,-20.18037],[-48.68977,-20.17895],[-48.68993,-20.17806],[-48.69075,-20.16971],[-48.69002,-20.16575],[-48.68788,-20.15212],[-48.68785,-20.1507],[-48.68816,-20.14853],[-48.68864,-20.14717],[-48.68915,-20.14612],[-48.68964,-20.14535],[-48.69057,-20.14423],[-48.69201,-20.14297],[-48.69953,-20.13705],[-48.69988,-20.1365],[-48.70051,-20.13597],[-48.70071,-20.13532],[-48.70062,-20.13381],[-48.70035,-20.13297],[-48.69983,-20.1319],[-48.69969,-20.13135],[-48.69962,-20.13061],[-48.69972,-20.12887],[-48.70021,-20.12776],[-48.70034,-20.12719],[-48.69971,-20.11493],[-48.69981,-20.11384],[-48.70035,-20.11238],[-48.70163,-20.10999],[-48.7024,-20.10888],[-48.71422,-20.0867],[-48.71445,-20.08612],[-48.71447,-20.08534],[-48.71417,-20.08456],[-48.71262,-20.08231],[-48.71051,-20.07952],[-48.71029,-20.07906],[-48.71012,-20.07845],[-48.71004,-20.07397],[-48.71028,-20.05965],[-48.71025,-20.05831],[-48.71002,-20.05729],[-48.70126,-20.03457],[-48.68984,-20.00455],[-48.67326,-19.96181],[-48.66148,-19.93089],[-48.66087,-19.92882],[-48.65933,-19.9206],[-48.65907,-19.92019],[-48.65534,-19.91074],[-48.65541,-19.91014],[-48.65638,-19.90682],[-48.65654,-19.90601],[-48.65631,-19.90196],[-48.65566,-19.89345],[-48.65559,-19.89328],[-48.65424,-19.89251],[-48.65337,-19.8921],[-48.65334,-19.89192],[-48.65357,-19.89178],[-48.65477,-19.89267],[-48.65564,-19.89316],[-48.65642,-19.89347],[-48.65689,-19.89358],[-48.65747,-19.89354],[-48.65899,-19.89367],[-48.66026,-19.89343],[-48.67068,-19.89087],[-48.67191,-19.89062],[-48.6737,-19.89041],[-48.67536,-19.89043],[-48.67725,-19.89066],[-48.7109,-19.89659],[-48.71213,-19.89661],[-48.71309,-19.89675],[-48.71391,-19.89653],[-48.71708,-19.89429],[-48.71769,-19.89378],[-48.718,-19.89331],[-48.7182,-19.89272],[-48.71824,-19.89213],[-48.71801,-19.89037],[-48.71804,-19.88996],[-48.71837,-19.88901],[-48.73752,-19.84811],[-48.73788,-19.84711],[-48.73798,-19.84635],[-48.73795,-19.84552],[-48.73771,-19.84458],[-48.73652,-19.84193],[-48.73613,-19.84075],[-48.73535,-19.83527],[-48.735,-19.83366],[-48.7319,-19.82061],[-48.73104,-19.81726],[-48.72772,-19.80293],[-48.72758,-19.80197],[-48.72731,-19.79865],[-48.72674,-19.7972],[-48.72668,-19.79677],[-48.72673,-19.79616],[-48.72689,-19.79568],[-48.72732,-19.79501],[-48.729,-19.79383],[-48.73973,-19.78088],[-48.74038,-19.78046],[-48.74086,-19.78028],[-48.74349,-19.77948],[-48.7439,-19.77926],[-48.7443,-19.77892],[-48.74471,-19.77835],[-48.7458,-19.77518],[-48.74608,-19.77459],[-48.74631,-19.7743],[-48.74695,-19.77383],[-48.74921,-19.77274],[-48.74983,-19.77234],[-48.75007,-19.77209],[-48.75043,-19.77145],[-48.75163,-19.76843],[-48.75201,-19.7677],[-48.75251,-19.76702],[-48.76173,-19.75746],[-48.76202,-19.75704],[-48.76219,-19.75663],[-48.77025,-19.70619],[-48.77023,-19.70532],[-48.77012,-19.7048],[-48.76959,-19.70386],[-48.76928,-19.70353],[-48.76576,-19.70072],[-48.76529,-19.70057],[-48.76525,-19.70042],[-48.76532,-19.70019],[-48.76504,-19.69912],[-48.76489,-19.69883],[-48.76462,-19.69858],[-48.7635,-19.69791],[-48.7634,-19.69754],[-48.76345,-19.69738],[-48.76367,-19.69718],[-48.76464,-19.69677],[-48.76495,-19.69655],[-48.76536,-19.69611],[-48.77122,-19.68631],[-48.77199,-19.68497],[-48.77225,-19.68431],[-48.77256,-19.68332],[-48.77263,-19.68184],[-48.77223,-19.67488],[-48.77243,-19.67374],[-48.7729,-19.67257],[-48.77387,-19.67123],[-48.78887,-19.65471],[-48.78983,-19.65384],[-48.79063,-19.65336],[-48.7912,-19.65312],[-48.79345,-19.65253],[-48.80091,-19.65091],[-48.80268,-19.65069],[-48.80413,-19.65081],[-48.81315,-19.65201],[-48.82154,-19.65322],[-48.82225,-19.65324],[-48.82373,-19.65306],[-48.82459,-19.65279],[-48.82536,-19.65245],[-48.82638,-19.65179],[-48.82729,-19.65097],[-48.84635,-19.63241],[-48.84887,-19.62994],[-48.84902,-19.62968],[-48.849,-19.62939],[-48.84371,-19.62135],[-48.84314,-19.6203],[-48.82565,-19.58101],[-48.82536,-19.58025],[-48.82516,-19.57943],[-48.82505,-19.57856],[-48.82507,-19.57736],[-48.82604,-19.5611],[-48.83224,-19.52387],[-48.83254,-19.52273],[-48.83324,-19.52124],[-48.83395,-19.52025],[-48.83464,-19.51953],[-48.8421,-19.51276],[-48.84311,-19.51162],[-48.86361,-19.48231],[-48.86496,-19.48021],[-48.87099,-19.47144],[-48.88625,-19.44969],[-48.88703,-19.44839],[-48.88779,-19.44674],[-48.88838,-19.44456],[-48.88861,-19.44286],[-48.88924,-19.42051],[-48.88953,-19.41935],[-48.88994,-19.41841],[-48.89439,-19.40986],[-48.89491,-19.40791],[-48.89592,-19.39868],[-48.89636,-19.39622],[-48.89704,-19.39061],[-48.90014,-19.36258],[-48.90017,-19.36099],[-48.9,-19.35993],[-48.89754,-19.35134],[-48.89744,-19.35045],[-48.89748,-19.34962],[-48.89849,-19.34611],[-48.90062,-19.33952],[-48.90545,-19.32956],[-48.90576,-19.32883],[-48.90611,-19.32749],[-48.90745,-19.30109],[-48.90735,-19.29904],[-48.90751,-19.29627],[-48.90803,-19.29479],[-48.92172,-19.26649],[-48.92207,-19.26553],[-48.93285,-19.22693],[-48.93563,-19.21724],[-48.94625,-19.18981],[-48.94673,-19.18841],[-48.94761,-19.18456],[-48.94822,-19.18266],[-48.96016,-19.15794],[-48.96096,-19.15514],[-48.96628,-19.13436],[-48.96649,-19.13259],[-48.96643,-19.12714],[-48.96665,-19.12572],[-48.96684,-19.12497],[-48.97055,-19.11525],[-48.9716,-19.11339],[-48.98391,-19.09698],[-48.9952,-19.08437],[-48.99578,-19.08358],[-49.00839,-19.06235],[-49.00882,-19.06145],[-49.00918,-19.06043],[-49.01067,-19.05408],[-49.01151,-19.04893],[-49.01135,-19.0479],[-49.01014,-19.04543],[-49.00989,-19.04466],[-49.00976,-19.04388],[-49.00978,-19.04276],[-49.0099,-19.0421],[-49.01176,-19.03704],[-49.01199,-19.03576],[-49.01186,-19.03425],[-49.01044,-19.02925],[-49.0104,-19.02876],[-49.01046,-19.02828],[-49.01289,-19.0228],[-49.01739,-19.01177],[-49.01765,-19.01092],[-49.01793,-19.00967],[-49.0199,-18.9984],[-49.0257,-18.96636],[-49.02611,-18.96503],[-49.02857,-18.95896],[-49.02883,-18.95798],[-49.02888,-18.95707],[-49.0287,-18.9561],[-49.0261,-18.94949],[-49.02568,-18.94815],[-49.02543,-18.94552],[-49.02542,-18.94466],[-49.02556,-18.94365],[-49.026,-18.94249],[-49.02892,-18.93677],[-49.02945,-18.93556],[-49.03124,-18.93085],[-49.03177,-18.92917],[-49.03531,-18.91547],[-49.03579,-18.91409],[-49.04056,-18.90474],[-49.04117,-18.90342],[-49.04297,-18.89899],[-49.04367,-18.89758],[-49.04438,-18.89656],[-49.04774,-18.89278],[-49.0488,-18.89141],[-49.05373,-18.88331],[-49.05664,-18.87869],[-49.05692,-18.87812],[-49.05863,-18.87534],[-49.05956,-18.87399],[-49.06001,-18.8735],[-49.07707,-18.85813],[-49.07881,-18.85631],[-49.08086,-18.8547],[-49.08336,-18.8525],[-49.09151,-18.84633],[-49.09183,-18.84602],[-49.09247,-18.84518],[-49.09298,-18.84412],[-49.09316,-18.84339],[-49.09322,-18.84275],[-49.09308,-18.84129],[-49.09078,-18.83459],[-49.09038,-18.83383],[-49.08919,-18.83204],[-49.08879,-18.83117],[-49.08861,-18.83051],[-49.08753,-18.82056],[-49.08721,-18.81871],[-49.0868,-18.81478],[-49.08661,-18.8139],[-49.08171,-18.80167],[-49.08137,-18.80039],[-49.08131,-18.79971],[-49.08137,-18.79877],[-49.08163,-18.79775],[-49.08185,-18.79722],[-49.08233,-18.79641],[-49.08373,-18.7946],[-49.08417,-18.79364],[-49.08448,-18.79229],[-49.08441,-18.79061],[-49.08414,-18.78826],[-49.08391,-18.78735],[-49.0836,-18.78667],[-49.08294,-18.78566],[-49.07414,-18.77472],[-49.07367,-18.77394],[-49.07327,-18.77281],[-49.07311,-18.77177],[-49.07314,-18.77064],[-49.0742,-18.7653],[-49.07442,-18.76444],[-49.07575,-18.76046],[-49.07719,-18.75734],[-49.07752,-18.75647],[-49.07811,-18.75534],[-49.07879,-18.75443],[-49.07982,-18.75345],[-49.0992,-18.73895],[-49.10121,-18.73727],[-49.10318,-18.73602],[-49.11505,-18.72718],[-49.12452,-18.72001],[-49.13684,-18.71089],[-49.13761,-18.71025],[-49.13872,-18.70914],[-49.13952,-18.70822],[-49.1404,-18.70687],[-49.15445,-18.68232],[-49.15558,-18.67991],[-49.15621,-18.67888],[-49.15709,-18.67765],[-49.15847,-18.67533],[-49.17179,-18.65193],[-49.17725,-18.64251],[-49.17829,-18.64029],[-49.17966,-18.63826],[-49.18401,-18.63062],[-49.18423,-18.63009],[-49.18551,-18.62592],[-49.18594,-18.62492],[-49.18669,-18.62388],[-49.1902,-18.61998],[-49.19072,-18.61913],[-49.19103,-18.61832],[-49.19127,-18.61701],[-49.19368,-18.57224],[-49.19391,-18.54451],[-49.19354,-18.5423],[-49.19338,-18.54036],[-49.18913,-18.51326],[-49.18892,-18.50159],[-49.18862,-18.49833],[-49.18877,-18.49596],[-49.18878,-18.49417],[-49.18828,-18.46874],[-49.18802,-18.46214],[-49.18767,-18.44418],[-49.18777,-18.44332],[-49.18796,-18.44253],[-49.19408,-18.42413],[-49.19443,-18.42256],[-49.19459,-18.41948],[-49.19435,-18.41636],[-49.19413,-18.41561],[-49.19412,-18.41463],[-49.19421,-18.41395],[-49.19468,-18.41255],[-49.19531,-18.41148],[-49.20086,-18.40482],[-49.20139,-18.40411],[-49.2022,-18.40242],[-49.20444,-18.39538],[-49.22608,-18.32904],[-49.22709,-18.32574],[-49.23627,-18.29786],[-49.23803,-18.29208],[-49.24054,-18.28484],[-49.25342,-18.2456],[-49.25378,-18.24486],[-49.25981,-18.23461],[-49.26161,-18.23173],[-49.28931,-18.18509],[-49.28994,-18.18375],[-49.29036,-18.18236],[-49.29058,-18.18101],[-49.29062,-18.18018],[-49.29054,-18.17884],[-49.2881,-18.16314],[-49.28709,-18.1572],[-49.28679,-18.15489],[-49.28673,-18.15382],[-49.28685,-18.1514],[-49.28827,-18.14239],[-49.2883,-18.14157],[-49.28822,-18.14054],[-49.2879,-18.13932],[-49.28716,-18.13713],[-49.28672,-18.13515],[-49.28516,-18.1304],[-49.28437,-18.12841],[-49.28323,-18.12593],[-49.28261,-18.12392],[-49.28159,-18.12118],[-49.27807,-18.11233],[-49.27774,-18.11171],[-49.27757,-18.11092],[-49.27587,-18.10578],[-49.27564,-18.10529],[-49.27543,-18.1043],[-49.27109,-18.09113],[-49.27049,-18.08898],[-49.27035,-18.08809],[-49.2703,-18.08725],[-49.27074,-18.07808],[-49.27074,-18.0765],[-49.27043,-18.07473],[-49.26847,-18.06947],[-49.26824,-18.06833],[-49.26819,-18.06756],[-49.26833,-18.06593],[-49.26934,-18.06091],[-49.2695,-18.05891],[-49.26947,-18.05656],[-49.26938,-18.05561],[-49.26872,-18.05148],[-49.26775,-18.04598],[-49.26192,-18.01082],[-49.26184,-18.00985],[-49.26189,-18.00879],[-49.26229,-18.00606],[-49.26239,-18.00448],[-49.26238,-18.0036],[-49.26215,-18.00139],[-49.26183,-17.99989],[-49.25892,-17.98879],[-49.25831,-17.98686],[-49.25774,-17.98433],[-49.24765,-17.94543],[-49.24549,-17.93716],[-49.24461,-17.93417],[-49.24429,-17.93253],[-49.23745,-17.90643],[-49.23672,-17.90373],[-49.23457,-17.89713],[-49.23382,-17.89307],[-49.23344,-17.88974],[-49.23296,-17.88782],[-49.22555,-17.86861],[-49.22206,-17.85646],[-49.22149,-17.85487],[-49.22108,-17.85296],[-49.21687,-17.83809],[-49.21605,-17.83572],[-49.21562,-17.83381],[-49.21138,-17.81882],[-49.21093,-17.81726],[-49.2103,-17.81546],[-49.20975,-17.81301],[-49.20762,-17.80602],[-49.20738,-17.80481],[-49.20672,-17.80236],[-49.2065,-17.80167],[-49.20596,-17.80043],[-49.20495,-17.7988],[-49.2034,-17.79683],[-49.20162,-17.79468],[-49.19867,-17.79089],[-49.19757,-17.78986],[-49.19616,-17.78899],[-49.18128,-17.78204],[-49.18027,-17.78127],[-49.17709,-17.77747],[-49.17564,-17.77541],[-49.16774,-17.7653],[-49.16559,-17.7624],[-49.16469,-17.76112],[-49.1625,-17.75757],[-49.16146,-17.75516],[-49.15492,-17.73083],[-49.15453,-17.72905],[-49.15433,-17.72742],[-49.15525,-17.69713],[-49.15537,-17.69601],[-49.15926,-17.68506],[-49.15962,-17.68386],[-49.16065,-17.68118],[-49.16788,-17.6611],[-49.16839,-17.65957],[-49.16891,-17.65768],[-49.17139,-17.65119],[-49.17383,-17.64211],[-49.1746,-17.6388],[-49.17506,-17.63735],[-49.17712,-17.62937],[-49.17737,-17.62832],[-49.17756,-17.62687],[-49.17793,-17.62539],[-49.17873,-17.62324],[-49.18144,-17.61297],[-49.18161,-17.61255],[-49.18231,-17.61137],[-49.18626,-17.60567],[-49.18727,-17.60401],[-49.18848,-17.60172],[-49.18941,-17.59954],[-49.19727,-17.57763],[-49.19803,-17.57438],[-49.19907,-17.56862],[-49.1994,-17.56727],[-49.19979,-17.56618],[-49.20374,-17.55667],[-49.2045,-17.55428],[-49.20493,-17.55316],[-49.20639,-17.55033],[-49.2115,-17.53796],[-49.21344,-17.53344],[-49.21475,-17.53018],[-49.21487,-17.52962],[-49.21611,-17.51683],[-49.21614,-17.51548],[-49.21483,-17.49875],[-49.21467,-17.49769],[-49.21429,-17.49636],[-49.20977,-17.48493],[-49.20953,-17.48367],[-49.20956,-17.48257],[-49.20965,-17.48208],[-49.20986,-17.48135],[-49.21026,-17.48046],[-49.21659,-17.47086],[-49.22024,-17.46331],[-49.23127,-17.44351],[-49.23167,-17.44228],[-49.23177,-17.44161],[-49.23177,-17.44053],[-49.23147,-17.43917],[-49.22884,-17.43245],[-49.22843,-17.43097],[-49.22763,-17.42508],[-49.22712,-17.42196],[-49.22485,-17.40869],[-49.2241,-17.40572],[-49.2239,-17.40419],[-49.22316,-17.39999],[-49.22316,-17.39882],[-49.22343,-17.39744],[-49.2252,-17.39317],[-49.22597,-17.3918],[-49.2267,-17.39088],[-49.22747,-17.39016],[-49.23188,-17.38646],[-49.23427,-17.38493],[-49.23477,-17.38454],[-49.23572,-17.38352],[-49.2361,-17.38297],[-49.23651,-17.38208],[-49.23726,-17.37967],[-49.23763,-17.37799],[-49.2382,-17.37614],[-49.23871,-17.37503],[-49.23913,-17.37439],[-49.23979,-17.37366],[-49.2419,-17.37232],[-49.24339,-17.37119],[-49.24422,-17.37028],[-49.24465,-17.36961],[-49.24507,-17.36868],[-49.24754,-17.36198],[-49.24777,-17.36107],[-49.24786,-17.35995],[-49.24827,-17.34821],[-49.24822,-17.34719],[-49.24786,-17.34578],[-49.24703,-17.34428],[-49.24618,-17.34333],[-49.24503,-17.34247],[-49.2415,-17.34055],[-49.2403,-17.33955],[-49.23963,-17.33866],[-49.23917,-17.33779],[-49.23878,-17.33642],[-49.23871,-17.33544],[-49.23909,-17.3288],[-49.23887,-17.31565],[-49.2387,-17.31472],[-49.23419,-17.29926],[-49.23404,-17.29797],[-49.23407,-17.29716],[-49.23631,-17.28018],[-49.23653,-17.27892],[-49.23699,-17.27771],[-49.23969,-17.27294],[-49.23989,-17.27246],[-49.24024,-17.27112],[-49.24119,-17.26123],[-49.24125,-17.25941],[-49.24158,-17.25751],[-49.24173,-17.255],[-49.24174,-17.25179],[-49.24158,-17.24964],[-49.24156,-17.2459],[-49.2415,-17.24518],[-49.24133,-17.24439],[-49.23919,-17.23915],[-49.23878,-17.23837],[-49.23825,-17.2376],[-49.23597,-17.23511],[-49.23085,-17.22991],[-49.23006,-17.2289],[-49.2296,-17.22805],[-49.22927,-17.22705],[-49.22916,-17.22618],[-49.22942,-17.22055],[-49.22925,-17.21911],[-49.22896,-17.21815],[-49.22866,-17.2175],[-49.22734,-17.21523],[-49.22671,-17.21435],[-49.22639,-17.21399],[-49.2256,-17.21333],[-49.22476,-17.21283],[-49.22263,-17.21191],[-49.2122,-17.20772],[-49.21109,-17.20707],[-49.21002,-17.20619],[-49.2093,-17.20529],[-49.2088,-17.20444],[-49.20821,-17.20288],[-49.20804,-17.20132],[-49.20926,-17.18702],[-49.21064,-17.17198],[-49.21081,-17.17096],[-49.21264,-17.16349],[-49.2149,-17.15342],[-49.21514,-17.15232],[-49.21531,-17.15079],[-49.21512,-17.13958],[-49.21517,-17.1391],[-49.21513,-17.13735],[-49.21503,-17.13629],[-49.21471,-17.13499],[-49.21085,-17.12433],[-49.21067,-17.12317],[-49.21071,-17.12214],[-49.21095,-17.12098],[-49.21365,-17.113],[-49.21416,-17.11206],[-49.2167,-17.10842],[-49.21717,-17.1073],[-49.21734,-17.10639],[-49.21831,-17.09477],[-49.21848,-17.09389],[-49.21881,-17.09283],[-49.21934,-17.09169],[-49.22373,-17.08422],[-49.22412,-17.08339],[-49.22428,-17.08287],[-49.22443,-17.0817],[-49.22438,-17.08082],[-49.2242,-17.07998],[-49.22334,-17.07764],[-49.22321,-17.07695],[-49.22317,-17.07569],[-49.2249,-17.06556],[-49.22536,-17.06161],[-49.22651,-17.05504],[-49.22666,-17.05382],[-49.22663,-17.05258],[-49.2265,-17.05155],[-49.22382,-17.03427],[-49.22212,-17.02495],[-49.22149,-17.02091],[-49.22104,-17.01637],[-49.22035,-17.01226],[-49.21985,-17.00869],[-49.21994,-17.00684],[-49.22042,-17.00515],[-49.22116,-17.00374],[-49.2243,-16.99904],[-49.2273,-16.99502],[-49.22841,-16.99334],[-49.22903,-16.99205],[-49.22929,-16.99103],[-49.22938,-16.99027],[-49.22966,-16.97922],[-49.22983,-16.97769],[-49.23036,-16.97522],[-49.2313,-16.97169],[-49.23206,-16.96965],[-49.23306,-16.96792],[-49.23783,-16.96103],[-49.23882,-16.95949],[-49.24179,-16.95527],[-49.24353,-16.95322],[-49.25212,-16.94425],[-49.25264,-16.94356],[-49.25314,-16.94263],[-49.25343,-16.94177],[-49.25358,-16.94099],[-49.25356,-16.93949],[-49.25293,-16.93711],[-49.2516,-16.93265],[-49.2514,-16.93123],[-49.25143,-16.93022],[-49.25175,-16.92617],[-49.25325,-16.91592],[-49.25315,-16.91144],[-49.25542,-16.8953],[-49.25548,-16.894],[-49.25539,-16.89292],[-49.2545,-16.88931],[-49.25401,-16.88686],[-49.2519,-16.87608],[-49.25119,-16.87143],[-49.24644,-16.84759],[-49.24587,-16.84547],[-49.24366,-16.83437],[-49.24228,-16.82726],[-49.24198,-16.82516],[-49.23995,-16.81557],[-49.23977,-16.81411],[-49.23961,-16.81135],[-49.239,-16.80431],[-49.23854,-16.80102],[-49.23853,-16.79856],[-49.23681,-16.77851],[-49.23677,-16.77665],[-49.23698,-16.77542],[-49.23718,-16.77476],[-49.23876,-16.77082],[-49.2391,-16.76966],[-49.23922,-16.76897],[-49.23942,-16.76683],[-49.2403,-16.75975],[-49.24045,-16.75677],[-49.24099,-16.75383],[-49.24127,-16.75138],[-49.24129,-16.75066],[-49.2412,-16.74987],[-49.24058,-16.7478],[-49.24042,-16.74701],[-49.24042,-16.746],[-49.24352,-16.73395],[-49.24366,-16.733],[-49.24364,-16.73204],[-49.24348,-16.73112],[-49.24316,-16.73023],[-49.24285,-16.72962],[-49.24146,-16.72752],[-49.23812,-16.71912],[-49.23772,-16.71843],[-49.23697,-16.71744],[-49.23164,-16.711],[-49.23106,-16.71],[-49.23076,-16.70885],[-49.23071,-16.70756],[-49.23132,-16.69706],[-49.23374,-16.68465],[-49.23377,-16.68393],[-49.23369,-16.68294],[-49.23327,-16.68135],[-49.22587,-16.66755],[-49.21961,-16.65826],[-49.21615,-16.65207],[-49.21558,-16.65127],[-49.21367,-16.64905],[-49.21311,-16.64864],[-49.2115,-16.64672],[-49.21108,-16.64633],[-49.21084,-16.64623],[-49.21071,-16.64626],[-49.21058,-16.64613],[-49.21059,-16.646],[-49.21082,-16.64583],[-49.21103,-16.64548],[-49.21111,-16.64505],[-49.21138,-16.64493],[-49.21205,-16.6442],[-49.21227,-16.64407],[-49.21836,-16.64286],[-49.21875,-16.64273],[-49.2192,-16.64235],[-49.21996,-16.64105],[-49.22011,-16.64092],[-49.22325,-16.63914],[-49.22753,-16.63684],[-49.22775,-16.63669],[-49.22776,-16.63655],[-49.22786,-16.63656],[-49.22934,-16.63772],[-49.23595,-16.63739],[-49.2356,-16.63703],[-49.23626,-16.63644],[-49.23575,-16.63591],[-49.23718,-16.63488],[-49.23639,-16.63341],[-49.23647,-16.63328],[-49.23679,-16.63315],[-49.2381,-16.63006],[-49.2385,-16.62946],[-49.23903,-16.62887],[-49.24142,-16.62685],[-49.24321,-16.62467],[-49.24372,-16.62397],[-49.24403,-16.6234],[-49.24405,-16.62331],[-49.24387,-16.62298],[-49.24396,-16.62272],[-49.24418,-16.62258],[-49.2443,-16.62233],[-49.24437,-16.62128],[-49.24376,-16.61695],[-49.24354,-16.61482],[-49.24363,-16.61055],[-49.24361,-16.61014],[-49.24343,-16.60959],[-49.24362,-16.60921],[-49.24368,-16.60789],[-49.24424,-16.56566],[-49.2442,-16.56483],[-49.24402,-16.56359],[-49.24377,-16.56272],[-49.2433,-16.56155],[-49.23802,-16.55207],[-49.23721,-16.55085],[-49.23604,-16.54974],[-49.2303,-16.54532],[-49.22955,-16.54459],[-49.22914,-16.54404],[-49.22847,-16.54262],[-49.22371,-16.52816],[-49.22334,-16.52731],[-49.22292,-16.52648],[-49.21812,-16.52],[-49.21537,-16.51529],[-49.21488,-16.51416],[-49.21459,-16.51292],[-49.21463,-16.51126],[-49.21786,-16.49562],[-49.21794,-16.49474],[-49.21784,-16.49353],[-49.2174,-16.49215],[-49.20964,-16.47429],[-49.20926,-16.47326],[-49.20884,-16.47169],[-49.20585,-16.45878],[-49.20226,-16.44283],[-49.2021,-16.44156],[-49.20216,-16.44047],[-49.20249,-16.43931],[-49.20301,-16.43832],[-49.20733,-16.43274],[-49.2086,-16.43162],[-49.21661,-16.42595],[-49.2175,-16.42494],[-49.2181,-16.42376],[-49.2184,-16.42252],[-49.21858,-16.42039],[-49.21834,-16.4198],[-49.21844,-16.41956],[-49.21867,-16.41944],[-49.21952,-16.4099],[-49.22072,-16.40989],[-49.22061,-16.40378],[-49.22074,-16.40077],[-49.21988,-16.40078],[-49.22083,-16.3959],[-49.22097,-16.39221],[-49.22098,-16.38761],[-49.22118,-16.38305],[-49.22141,-16.38178],[-49.22174,-16.38071],[-49.22249,-16.37911],[-49.22348,-16.37762],[-49.22469,-16.3763],[-49.24113,-16.35955],[-49.24442,-16.35654],[-49.24588,-16.35543],[-49.24848,-16.35313],[-49.25002,-16.35206],[-49.25242,-16.3506],[-49.25389,-16.34987],[-49.25619,-16.34851],[-49.25756,-16.34744],[-49.25823,-16.34675],[-49.26205,-16.34192],[-49.26239,-16.34109],[-49.26259,-16.34035],[-49.26261,-16.3394],[-49.26255,-16.33894],[-49.2619,-16.33712],[-49.2614,-16.33617],[-49.2608,-16.33472],[-49.26037,-16.33296],[-49.26027,-16.33175],[-49.26076,-16.32612],[-49.26099,-16.32496],[-49.26158,-16.32359],[-49.26202,-16.32285],[-49.26248,-16.3223],[-49.26845,-16.31578],[-49.26933,-16.31444],[-49.27165,-16.30882],[-49.27643,-16.29942],[-49.27679,-16.2982],[-49.27681,-16.29562],[-49.277,-16.29454],[-49.27755,-16.29323],[-49.27805,-16.29245],[-49.27871,-16.29172],[-49.27946,-16.29109],[-49.28961,-16.28346],[-49.2937,-16.28026],[-49.29452,-16.27947],[-49.295,-16.27884],[-49.29539,-16.2781],[-49.29791,-16.27209],[-49.29997,-16.26852],[-49.30037,-16.26746],[-49.30259,-16.26356],[-49.30314,-16.26219],[-49.30357,-16.26065],[-49.30377,-16.25939],[-49.30373,-16.25863],[-49.30349,-16.25721],[-49.3011,-16.24867],[-49.30104,-16.24739],[-49.30139,-16.24536],[-49.30137,-16.24442],[-49.30111,-16.2438],[-49.30041,-16.24261],[-49.30017,-16.24207],[-49.29981,-16.24078],[-49.29964,-16.23304],[-49.29984,-16.23141],[-49.30034,-16.22974],[-49.30059,-16.2292],[-49.30496,-16.22159],[-49.30577,-16.22004],[-49.30703,-16.21832],[-49.30787,-16.21689],[-49.30834,-16.2155],[-49.30923,-16.20975],[-49.30949,-16.20886],[-49.31015,-16.20738],[-49.31457,-16.19988],[-49.31988,-16.19049],[-49.32247,-16.18613],[-49.32657,-16.1788],[-49.33616,-16.16205],[-49.33727,-16.16042],[-49.33926,-16.15701],[-49.33985,-16.15627],[-49.34101,-16.15505],[-49.34181,-16.15397],[-49.3423,-16.15291],[-49.34259,-16.15166],[-49.34272,-16.14635],[-49.34268,-16.14401],[-49.34283,-16.1428],[-49.34288,-16.1408],[-49.34312,-16.13785],[-49.34313,-16.13602],[-49.3422,-16.13111],[-49.34167,-16.12907],[-49.34112,-16.12563],[-49.34069,-16.12355],[-49.3404,-16.12259],[-49.33728,-16.11445],[-49.33668,-16.11262],[-49.3347,-16.10741],[-49.33287,-16.10294],[-49.33035,-16.09775],[-49.32718,-16.09052],[-49.32635,-16.089],[-49.32334,-16.08208],[-49.32287,-16.08069],[-49.31301,-16.05828],[-49.31264,-16.05756],[-49.31178,-16.05646],[-49.30846,-16.05303],[-49.30741,-16.05183],[-49.30676,-16.05063],[-49.30644,-16.04959],[-49.30552,-16.04184],[-49.30492,-16.0376],[-49.30441,-16.03236],[-49.3042,-16.03149],[-49.30369,-16.03025],[-49.29526,-16.01217],[-49.29498,-16.0112],[-49.29458,-16.00803],[-49.29433,-16.007],[-49.29365,-16.00511],[-49.29311,-16.00398],[-49.29248,-16.00293],[-49.29087,-15.99936],[-49.28983,-15.99799],[-49.28261,-15.99087],[-49.28066,-15.98867],[-49.27984,-15.98804],[-49.27866,-15.9874],[-49.27762,-15.98669],[-49.27679,-15.98589],[-49.26945,-15.97716],[-49.26829,-15.97562],[-49.26783,-15.97488],[-49.26674,-15.97264],[-49.26639,-15.9716],[-49.26569,-15.96998],[-49.26,-15.9571],[-49.25961,-15.95564],[-49.25952,-15.95454],[-49.2596,-15.95337],[-49.25979,-15.95244],[-49.26071,-15.94941],[-49.26082,-15.94816],[-49.26078,-15.94744],[-49.26057,-15.9465],[-49.25974,-15.94313],[-49.25925,-15.9415],[-49.25822,-15.93722],[-49.25801,-15.93538],[-49.25804,-15.93447],[-49.2585,-15.93213],[-49.25855,-15.93111],[-49.25893,-15.92961],[-49.2591,-15.92861],[-49.25908,-15.92756],[-49.25888,-15.92648],[-49.25852,-15.92561],[-49.25812,-15.92489],[-49.24567,-15.90482],[-49.24514,-15.90362],[-49.24204,-15.89858],[-49.23719,-15.89211],[-49.23714,-15.8918],[-49.23732,-15.89121],[-49.23765,-15.89092],[-49.23913,-15.89038],[-49.23965,-15.89007],[-49.26389,-15.85665],[-49.26493,-15.8551],[-49.26565,-15.85375],[-49.27283,-15.83951],[-49.27344,-15.83846],[-49.27937,-15.83026],[-49.28105,-15.82742],[-49.28161,-15.82664],[-49.2835,-15.82455],[-49.29886,-15.80332],[-49.2993,-15.80258],[-49.29961,-15.8019],[-49.29994,-15.80077],[-49.30311,-15.78665],[-49.30422,-15.78139],[-49.30484,-15.77883],[-49.31215,-15.7616],[-49.31333,-15.75849],[-49.31416,-15.75682],[-49.32263,-15.73679],[-49.323,-15.73564],[-49.32388,-15.73383],[-49.32805,-15.72389],[-49.32827,-15.72304],[-49.33162,-15.70499],[-49.33194,-15.70381],[-49.33235,-15.70293],[-49.33582,-15.69659],[-49.34146,-15.68211],[-49.34181,-15.68137],[-49.34245,-15.68032],[-49.35558,-15.66122],[-49.35642,-15.66035],[-49.36053,-15.65705],[-49.36188,-15.6555],[-49.37308,-15.6388],[-49.37484,-15.63623],[-49.37554,-15.63538],[-49.38543,-15.62638],[-49.40225,-15.61127],[-49.40328,-15.61018],[-49.40361,-15.60971],[-49.40414,-15.60879],[-49.40461,-15.60758],[-49.40618,-15.60016],[-49.40641,-15.5995],[-49.41109,-15.58875],[-49.41143,-15.58763],[-49.412,-15.58491],[-49.4123,-15.58413],[-49.41274,-15.58333],[-49.41335,-15.58258],[-49.41765,-15.57841],[-49.41826,-15.57755],[-49.41869,-15.5767],[-49.4191,-15.57482],[-49.42039,-15.56525],[-49.42063,-15.56434],[-49.42119,-15.56299],[-49.42202,-15.56171],[-49.42855,-15.55396],[-49.43713,-15.54151],[-49.43767,-15.54091],[-49.43918,-15.5397],[-49.45391,-15.52971],[-49.46282,-15.5257],[-49.46396,-15.52505],[-49.46489,-15.52436],[-49.46571,-15.52355],[-49.46665,-15.5223],[-49.47314,-15.51235],[-49.47503,-15.51011],[-49.47569,-15.50921],[-49.48327,-15.49821],[-49.48426,-15.49704],[-49.48819,-15.49331],[-49.48903,-15.49232],[-49.48964,-15.49133],[-49.49006,-15.4904],[-49.50383,-15.45318],[-49.50408,-15.4518],[-49.50468,-15.44988],[-49.50489,-15.44952],[-49.50656,-15.44502],[-49.50749,-15.44328],[-49.51304,-15.42848],[-49.51382,-15.42676],[-49.5145,-15.42579],[-49.51748,-15.42239],[-49.51809,-15.42154],[-49.53145,-15.4062],[-49.53637,-15.40044],[-49.53708,-15.39971],[-49.53805,-15.39894],[-49.53869,-15.39857],[-49.54573,-15.39508],[-49.54687,-15.39422],[-49.54724,-15.39383],[-49.54819,-15.39251],[-49.56311,-15.36142],[-49.56678,-15.35369],[-49.56771,-15.35166],[-49.56794,-15.35097],[-49.56865,-15.34613],[-49.57273,-15.31486],[-49.57273,-15.31388],[-49.57242,-15.31213],[-49.56941,-15.29764],[-49.56824,-15.29141],[-49.56781,-15.29005],[-49.56758,-15.28958],[-49.56695,-15.28865],[-49.56395,-15.28533],[-49.56311,-15.28448],[-49.56254,-15.28402],[-49.56184,-15.28359],[-49.56091,-15.28316],[-49.55661,-15.28174],[-49.55571,-15.28118],[-49.55518,-15.28073],[-49.55468,-15.28018],[-49.5515,-15.2754],[-49.55118,-15.27478],[-49.55015,-15.27179],[-49.5469,-15.26148],[-49.54681,-15.26014],[-49.54694,-15.25923],[-49.5472,-15.25845],[-49.54752,-15.25782],[-49.54826,-15.2568],[-49.54904,-15.25612],[-49.55455,-15.25189],[-49.55547,-15.25098],[-49.55617,-15.25002],[-49.5567,-15.24907],[-49.55702,-15.24824],[-49.55731,-15.24701],[-49.5574,-15.2462],[-49.5573,-15.24411],[-49.55684,-15.24184],[-49.55452,-15.22822],[-49.55434,-15.22728],[-49.55394,-15.22592],[-49.55364,-15.22507],[-49.54526,-15.20552],[-49.545,-15.20459],[-49.54491,-15.20343],[-49.54504,-15.1758],[-49.54496,-15.17316],[-49.54475,-15.17233],[-49.54384,-15.16996],[-49.53616,-15.15126],[-49.53569,-15.1505],[-49.53512,-15.14979],[-49.5322,-15.14641],[-49.53006,-15.14397],[-49.52917,-15.14317],[-49.4831,-15.10703],[-49.48221,-15.10613],[-49.46506,-15.08433],[-49.43717,-15.03693],[-49.4261,-15.02256],[-49.40281,-14.98797],[-49.38367,-14.96165],[-49.35929,-14.9195],[-49.35745,-14.9162],[-49.35566,-14.91321],[-49.34551,-14.89561],[-49.34358,-14.89243],[-49.34297,-14.89121],[-49.32738,-14.86418],[-49.32662,-14.86313],[-49.32547,-14.86176],[-49.32044,-14.85617],[-49.31982,-14.85539],[-49.28566,-14.80164],[-49.28522,-14.80081],[-49.28419,-14.79936],[-49.28297,-14.79735],[-49.24993,-14.74532],[-49.24832,-14.74323],[-49.23967,-14.73269],[-49.23238,-14.72363],[-49.23183,-14.72245],[-49.23112,-14.71991],[-49.2307,-14.71894],[-49.21405,-14.69322],[-49.20859,-14.68492],[-49.17931,-14.63956],[-49.17569,-14.63408],[-49.17531,-14.63345],[-49.17483,-14.63235],[-49.16633,-14.60463],[-49.15856,-14.57715],[-49.15636,-14.57037],[-49.15622,-14.56863],[-49.15616,-14.5647],[-49.15637,-14.56332],[-49.15766,-14.55875],[-49.16213,-14.54139],[-49.16224,-14.54018],[-49.16217,-14.53912],[-49.16101,-14.53359],[-49.15938,-14.52618],[-49.15906,-14.52504],[-49.15868,-14.52403],[-49.15844,-14.5236],[-49.15755,-14.52246],[-49.15559,-14.52035],[-49.15443,-14.51896],[-49.15215,-14.51655],[-49.15,-14.5141],[-49.1495,-14.51335],[-49.14891,-14.51226],[-49.14853,-14.5112],[-49.14823,-14.50965],[-49.1482,-14.50852],[-49.14827,-14.50774],[-49.14853,-14.50641],[-49.14978,-14.50179],[-49.15048,-14.49889],[-49.15323,-14.4901],[-49.15335,-14.48953],[-49.15365,-14.48292],[-49.1548,-14.47787],[-49.15554,-14.47495],[-49.15586,-14.47322],[-49.15642,-14.45339],[-49.15726,-14.41529],[-49.15737,-14.40752],[-49.15776,-14.39396],[-49.15814,-14.37619],[-49.15814,-14.37305],[-49.15828,-14.37048],[-49.15867,-14.35343],[-49.15867,-14.35269],[-49.15856,-14.35171],[-49.1505,-14.31692],[-49.14784,-14.30505],[-49.1478,-14.30374],[-49.14792,-14.30286],[-49.15039,-14.29184],[-49.1505,-14.29038],[-49.15046,-14.28937],[-49.1503,-14.2883],[-49.1339,-14.23058],[-49.13356,-14.2292],[-49.12587,-14.1793],[-49.12519,-14.1743],[-49.1233,-14.16209],[-49.12313,-14.16139],[-49.12272,-14.16015],[-49.10723,-14.12017],[-49.10459,-14.11315],[-49.10389,-14.10987],[-49.09666,-14.07189],[-49.09625,-14.07059],[-49.09194,-14.06041],[-49.09101,-14.05789],[-49.08867,-14.04541],[-49.08848,-14.04427],[-49.08829,-14.02832],[-49.08821,-14.02742],[-49.08622,-14.0168],[-49.08554,-14.01351],[-49.08532,-14.01183],[-49.08528,-14.01077],[-49.08542,-14.00965],[-49.08709,-14.00342],[-49.09042,-13.99157],[-49.09065,-13.99034],[-49.09069,-13.98806],[-49.09029,-13.96745],[-49.09007,-13.96518],[-49.08657,-13.95374],[-49.08585,-13.95158],[-49.08546,-13.95072],[-49.07272,-13.92999],[-49.07144,-13.92774],[-49.06972,-13.92351],[-49.06056,-13.90018],[-49.05786,-13.89353],[-49.05689,-13.89092],[-49.05189,-13.86821],[-49.05168,-13.86698],[-49.0513,-13.86578],[-49.05133,-13.86565],[-49.05106,-13.86452],[-49.0511,-13.86437],[-49.04085,-13.81851],[-49.0385,-13.80759],[-49.03634,-13.7981],[-49.03549,-13.79522],[-49.03508,-13.79237],[-49.03186,-13.77768],[-49.02824,-13.76162],[-49.0281,-13.76045],[-49.02816,-13.75922],[-49.03082,-13.74569],[-49.03089,-13.74457],[-49.0308,-13.74361],[-49.03032,-13.74201],[-49.02704,-13.73477],[-49.02667,-13.73405],[-49.02232,-13.72736],[-49.02173,-13.72605],[-49.02139,-13.7247],[-49.0213,-13.72332],[-49.02114,-13.71627],[-49.02103,-13.71446],[-49.02098,-13.70602],[-49.02349,-13.68139],[-49.02362,-13.6806],[-49.02395,-13.67948],[-49.02443,-13.67838],[-49.03845,-13.65143],[-49.03875,-13.65073],[-49.03912,-13.6491],[-49.0398,-13.64515],[-49.04263,-13.62818],[-49.04274,-13.62652],[-49.04144,-13.58129],[-49.04153,-13.58046],[-49.04203,-13.57809],[-49.04243,-13.57704],[-49.04296,-13.57595],[-49.04342,-13.57513],[-49.04411,-13.57415],[-49.04469,-13.57346],[-49.04607,-13.57212],[-49.06143,-13.55813],[-49.06231,-13.55747],[-49.06322,-13.55697],[-49.06412,-13.55663],[-49.06476,-13.55647],[-49.09622,-13.55135],[-49.09709,-13.55114],[-49.09833,-13.55064],[-49.09934,-13.55002],[-49.10011,-13.54938],[-49.10093,-13.54843],[-49.10196,-13.5468],[-49.11262,-13.52893],[-49.1353,-13.49077],[-49.13567,-13.49007],[-49.13613,-13.48879],[-49.13636,-13.48773],[-49.13646,-13.48622],[-49.1355,-13.45474],[-49.13538,-13.45254],[-49.13485,-13.44987],[-49.13042,-13.43077],[-49.13013,-13.42885],[-49.13015,-13.42734],[-49.13176,-13.4111],[-49.1317,-13.40949],[-49.12219,-13.34615],[-49.11773,-13.31412],[-49.11762,-13.31243],[-49.11772,-13.31136],[-49.11814,-13.30969],[-49.12058,-13.30252],[-49.13583,-13.25828],[-49.14099,-13.24356],[-49.15203,-13.21157],[-49.15287,-13.20978],[-49.1756,-13.16614],[-49.1784,-13.16064],[-49.20145,-13.11653],[-49.20201,-13.11498],[-49.2022,-13.11417],[-49.20227,-13.1135],[-49.20226,-13.11187],[-49.20215,-13.111],[-49.20172,-13.10954],[-49.19796,-13.10048],[-49.19697,-13.09788],[-49.156,-12.99861],[-49.15139,-12.98776],[-49.14861,-12.98071],[-49.14764,-12.97851],[-49.13362,-12.94462],[-49.13276,-12.9428],[-49.13194,-12.94055],[-49.1273,-12.92919],[-49.12569,-12.92553],[-49.12463,-12.92278],[-49.11494,-12.89942],[-49.11238,-12.89303],[-49.10534,-12.876],[-49.10497,-12.87434],[-49.10497,-12.87229],[-49.10641,-12.85573],[-49.10645,-12.85427],[-49.10628,-12.85295],[-49.10572,-12.85079],[-49.10183,-12.83309],[-49.08436,-12.75322],[-49.07212,-12.69682],[-49.06664,-12.67128],[-49.0664,-12.66958],[-49.06638,-12.66844],[-49.0756,-12.57597],[-49.07575,-12.57525],[-49.07626,-12.57392],[-49.07707,-12.57261],[-49.09243,-12.55445],[-49.09314,-12.55343],[-49.09372,-12.55242],[-49.11627,-12.49665],[-49.11659,-12.49523],[-49.11678,-12.49306],[-49.11676,-12.49243],[-49.11657,-12.49186],[-49.11667,-12.49173],[-49.1174,-12.48321],[-49.11745,-12.48227],[-49.11738,-12.48202],[-49.11751,-12.48185],[-49.11758,-12.48131],[-49.11835,-12.47175],[-49.11829,-12.47153],[-49.11849,-12.47122],[-49.11858,-12.4709],[-49.1186,-12.47005],[-49.11799,-12.46384],[-49.11796,-12.46265],[-49.11804,-12.46178],[-49.12915,-12.40087],[-49.12945,-12.39999],[-49.13072,-12.39715],[-49.15202,-12.35041],[-49.15234,-12.34922],[-49.15245,-12.3485],[-49.15246,-12.34768],[-49.15232,-12.34648],[-49.15153,-12.34306],[-49.15056,-12.33976],[-49.15041,-12.33838],[-49.14793,-12.32762],[-49.14785,-12.32631],[-49.14793,-12.32554],[-49.14805,-12.32497],[-49.1602,-12.28591],[-49.16049,-12.28476],[-49.16061,-12.2837],[-49.1587,-12.24782],[-49.15822,-12.23691],[-49.15598,-12.19315],[-49.15556,-12.18611],[-49.15543,-12.18213],[-49.1557,-12.18055],[-49.1684,-12.13988],[-49.16838,-12.13963],[-49.16811,-12.1396],[-49.16819,-12.13927],[-49.17007,-12.13357],[-49.17136,-12.12994],[-49.17235,-12.12677],[-49.17244,-12.12663],[-49.17257,-12.12666],[-49.17383,-12.12264],[-49.17413,-12.12188],[-49.17486,-12.12055],[-49.20363,-12.07724],[-49.20446,-12.07546],[-49.20476,-12.07432],[-49.2049,-12.07305],[-49.20488,-12.07172],[-49.19916,-12.0379],[-49.19908,-12.03638],[-49.20307,-11.97049],[-49.20302,-11.9695],[-49.20283,-11.96834],[-49.20242,-11.96706],[-49.19974,-11.96138],[-49.14654,-11.84986],[-49.11581,-11.78557],[-49.11487,-11.7841],[-49.11087,-11.77904],[-49.10456,-11.77083],[-49.08448,-11.74506],[-49.08342,-11.74364],[-49.08264,-11.7424],[-49.08159,-11.74011],[-49.08104,-11.73822],[-49.08046,-11.7358],[-49.07652,-11.71789],[-49.07558,-11.71434],[-49.07129,-11.6954],[-49.07047,-11.69244],[-49.07024,-11.69096],[-49.06979,-11.68918],[-49.06618,-11.67845],[-49.06548,-11.67612],[-49.06142,-11.66415],[-49.06039,-11.6616],[-49.05958,-11.65858],[-49.05788,-11.65379],[-49.05666,-11.64973],[-49.05562,-11.64669],[-49.05464,-11.64442],[-49.05434,-11.64336],[-49.054,-11.64151],[-49.05296,-11.63831],[-48.99479,-11.46449],[-48.99093,-11.44859],[-48.99057,-11.44758],[-48.9901,-11.4458],[-48.98987,-11.44442],[-48.98945,-11.44272],[-48.98143,-11.41788],[-48.97853,-11.41151],[-48.97815,-11.41051],[-48.9777,-11.40873],[-48.97579,-11.39948],[-48.9755,-11.39847],[-48.95961,-11.35775],[-48.9419,-11.31266],[-48.94124,-11.31044],[-48.94104,-11.30937],[-48.94064,-11.30672],[-48.93993,-11.29982],[-48.93988,-11.29811],[-48.9387,-11.28606],[-48.92582,-11.15545],[-48.92306,-11.1265],[-48.91958,-11.09216],[-48.90844,-11.03283],[-48.90814,-11.03109],[-48.90801,-11.02976],[-48.90958,-10.94975],[-48.90952,-10.94737],[-48.90124,-10.77425],[-48.90122,-10.77284],[-48.90179,-10.76407],[-48.90161,-10.76196],[-48.90165,-10.76137],[-48.90199,-10.75964],[-48.90242,-10.75338],[-48.90251,-10.75194],[-48.9024,-10.75017],[-48.90245,-10.74959],[-48.90285,-10.74804],[-48.90289,-10.74761],[-48.90969,-10.64404],[-48.91419,-10.57737],[-48.91443,-10.57268],[-48.91443,-10.57136],[-48.91369,-10.56522],[-48.91369,-10.56423],[-48.91325,-10.56027],[-48.91282,-10.55842],[-48.91243,-10.55488],[-48.91255,-10.55351],[-48.89843,-10.42817],[-48.89032,-10.35478],[-48.88496,-10.30695],[-48.88435,-10.30096],[-48.87977,-10.26025],[-48.87964,-10.26011],[-48.87973,-10.25988],[-48.87346,-10.20344],[-48.87358,-10.20239],[-48.87381,-10.20166],[-48.87932,-10.19187],[-48.87958,-10.19127],[-48.87981,-10.19048],[-48.87995,-10.18956],[-48.8808,-10.16998],[-48.88077,-10.16939],[-48.88096,-10.16387],[-48.8812,-10.16177],[-48.8815,-10.16055],[-48.88893,-10.13621],[-48.8891,-10.13473],[-48.88904,-10.13363],[-48.88893,-10.13311],[-48.88868,-10.13224],[-48.88821,-10.13123],[-48.87255,-10.10658],[-48.87135,-10.10433],[-48.8664,-10.0942],[-48.86562,-10.09309],[-48.85777,-10.08375],[-48.85597,-10.08148],[-48.8554,-10.08028],[-48.8551,-10.07915],[-48.85498,-10.07798],[-48.85492,-10.0757],[-48.85476,-10.07467],[-48.85431,-10.07347],[-48.85352,-10.07226],[-48.85274,-10.07146],[-48.85228,-10.0711],[-48.83985,-10.06262],[-48.83823,-10.06167],[-48.83647,-10.06088],[-48.8232,-10.05633],[-48.82231,-10.05584],[-48.82174,-10.05534],[-48.82113,-10.05444],[-48.81948,-10.05042],[-48.81917,-10.04981],[-48.8187,-10.0491],[-48.81817,-10.04848],[-48.81741,-10.0478],[-48.77254,-10.01471],[-48.77132,-10.0135],[-48.77011,-10.0118],[-48.74657,-9.97398],[-48.74487,-9.97117],[-48.74447,-9.97036],[-48.74386,-9.96848],[-48.74361,-9.96715],[-48.74355,-9.96628],[-48.74359,-9.96466],[-48.74459,-9.95039],[-48.7446,-9.94878],[-48.74448,-9.9478],[-48.7443,-9.94703],[-48.74396,-9.94605],[-48.74343,-9.94495],[-48.73463,-9.93007],[-48.7343,-9.92936],[-48.73381,-9.92787],[-48.72208,-9.85274],[-48.72201,-9.85107],[-48.72274,-9.81389],[-48.72262,-9.81232],[-48.72241,-9.8114],[-48.72119,-9.80846],[-48.70609,-9.77493],[-48.7058,-9.77415],[-48.69916,-9.74379],[-48.69866,-9.74236],[-48.69016,-9.72531],[-48.6896,-9.7243],[-48.67273,-9.69986],[-48.67204,-9.69903],[-48.65786,-9.68417],[-48.65697,-9.68306],[-48.64749,-9.66769],[-48.64706,-9.66664],[-48.64357,-9.65601],[-48.62506,-9.59892],[-48.62348,-9.59314],[-48.62069,-9.58189],[-48.62032,-9.58049],[-48.62007,-9.57985],[-48.61959,-9.57885],[-48.61862,-9.5773],[-48.6157,-9.5732],[-48.60157,-9.55269],[-48.60106,-9.55236],[-48.60084,-9.55213],[-48.59998,-9.55084],[-48.59987,-9.55028],[-48.59973,-9.54999],[-48.59563,-9.54405],[-48.59523,-9.54335],[-48.59471,-9.54214],[-48.5944,-9.54095],[-48.59424,-9.53989],[-48.59397,-9.53931],[-48.59363,-9.53614],[-48.59376,-9.53518],[-48.59354,-9.53332],[-48.59344,-9.53298],[-48.5932,-9.53257],[-48.59292,-9.53027],[-48.59307,-9.52986],[-48.59312,-9.52938],[-48.5928,-9.52623],[-48.5924,-9.52546],[-48.59205,-9.52372],[-48.59213,-9.52309],[-48.5902,-9.51707],[-48.58995,-9.51654],[-48.58947,-9.51473],[-48.58912,-9.51286],[-48.58876,-9.51227],[-48.58844,-9.51067],[-48.58856,-9.50993],[-48.58743,-9.50365],[-48.58622,-9.49716],[-48.58592,-9.4964],[-48.58559,-9.49491],[-48.58556,-9.49435],[-48.58564,-9.49402],[-48.58418,-9.48647],[-48.57109,-9.41618],[-48.56964,-9.40848],[-48.56946,-9.40781],[-48.56893,-9.40637],[-48.56853,-9.40556],[-48.56477,-9.39965],[-48.56402,-9.39797],[-48.56359,-9.39629],[-48.56079,-9.38226],[-48.56048,-9.3809],[-48.55985,-9.37915],[-48.5591,-9.37769],[-48.54435,-9.35361],[-48.54357,-9.35256],[-48.54232,-9.35114],[-48.53857,-9.34743],[-48.5375,-9.34618],[-48.53692,-9.3453],[-48.53648,-9.34455],[-48.53595,-9.34343],[-48.53562,-9.34249],[-48.53529,-9.34118],[-48.53511,-9.33982],[-48.53512,-9.33793],[-48.53524,-9.33686],[-48.53541,-9.33607],[-48.53588,-9.3345],[-48.55303,-9.29759],[-48.55327,-9.29699],[-48.55349,-9.29607],[-48.55359,-9.29481],[-48.55358,-9.28745],[-48.55337,-9.28589],[-48.55181,-9.27689],[-48.5514,-9.2754],[-48.55103,-9.27454],[-48.5492,-9.27139],[-48.54878,-9.27053],[-48.54832,-9.26925],[-48.54809,-9.26825],[-48.54797,-9.26726],[-48.54849,-9.23875],[-48.54843,-9.23757],[-48.54806,-9.23573],[-48.5453,-9.22855],[-48.54479,-9.22646],[-48.53559,-9.17058],[-48.53552,-9.16894],[-48.53632,-9.14098],[-48.5363,-9.14019],[-48.53615,-9.13916],[-48.51939,-9.06016],[-48.51797,-9.05373],[-48.51749,-9.0523],[-48.5167,-9.05061],[-48.50411,-9.02925],[-48.50364,-9.02813],[-48.50342,-9.02709],[-48.50332,-9.02615],[-48.49967,-8.98526],[-48.49941,-8.98368],[-48.49522,-8.97041],[-48.49497,-8.96891],[-48.49494,-8.96829],[-48.49505,-8.96687],[-48.49523,-8.96599],[-48.49559,-8.96481],[-48.50198,-8.94717],[-48.50232,-8.94639],[-48.5091,-8.93304],[-48.50953,-8.93184],[-48.5097,-8.93084],[-48.50832,-8.86105],[-48.50818,-8.86028],[-48.50813,-8.85796],[-48.50829,-8.85639],[-48.51011,-8.848],[-48.51197,-8.83896],[-48.51213,-8.83723],[-48.51233,-8.79087],[-48.51097,-8.77384],[-48.504,-8.6901],[-48.50381,-8.68859],[-48.50352,-8.68726],[-48.50079,-8.67774],[-48.48181,-8.61193],[-48.48139,-8.61018],[-48.48123,-8.60866],[-48.48127,-8.60741],[-48.4814,-8.60656],[-48.48289,-8.59963],[-48.48316,-8.59755],[-48.48325,-8.52962],[-48.48337,-8.52846],[-48.48401,-8.52536],[-48.49028,-8.49623],[-48.4906,-8.49425],[-48.49071,-8.49288],[-48.49069,-8.49202],[-48.49044,-8.48989],[-48.48111,-8.41918],[-48.481,-8.41747],[-48.48121,-8.41591],[-48.48946,-8.37843],[-48.48985,-8.37634],[-48.48992,-8.37443],[-48.48975,-8.37235],[-48.48943,-8.37073],[-48.48916,-8.3698],[-48.47256,-8.31789],[-48.47202,-8.31572],[-48.47154,-8.31029],[-48.46988,-8.28899],[-48.46956,-8.28581],[-48.46177,-8.18784],[-48.46171,-8.18525],[-48.46178,-8.18401],[-48.46191,-8.18311],[-48.4641,-8.17024],[-48.46969,-8.13604],[-48.47103,-8.12831],[-48.47156,-8.12491],[-48.4716,-8.12431],[-48.47151,-8.12228],[-48.46777,-8.09733],[-48.46711,-8.07493],[-48.46706,-8.07446],[-48.46682,-8.07369],[-48.4668,-8.07218],[-48.46691,-8.07133],[-48.46678,-8.06636],[-48.46661,-8.06548],[-48.46654,-8.06372],[-48.46665,-8.06284],[-48.46658,-8.06003],[-48.46639,-8.05901],[-48.46631,-8.05669],[-48.46645,-8.05546],[-48.4663,-8.05093],[-48.46611,-8.04967],[-48.46608,-8.04822],[-48.46624,-8.04714],[-48.46613,-8.04203],[-48.46596,-8.03809],[-48.46574,-8.03691],[-48.46567,-8.03497],[-48.46584,-8.03422],[-48.46588,-8.0337],[-48.46454,-7.98944],[-48.4641,-7.97198],[-48.46373,-7.96257],[-48.46358,-7.95604],[-48.46365,-7.95502],[-48.4676,-7.92353],[-48.46769,-7.92162],[-48.4676,-7.9206],[-48.46724,-7.91912],[-48.45974,-7.89619],[-48.45708,-7.89027],[-48.45667,-7.88912],[-48.45649,-7.88814],[-48.45648,-7.88713],[-48.45868,-7.85049],[-48.45867,-7.84944],[-48.45834,-7.84744],[-48.45318,-7.8227],[-48.45279,-7.82048],[-48.45274,-7.81967],[-48.45289,-7.81553],[-48.4532,-7.8137],[-48.45679,-7.80133],[-48.45755,-7.79895],[-48.45781,-7.79831],[-48.45837,-7.79742],[-48.46437,-7.78991],[-48.46497,-7.78884],[-48.46531,-7.78794],[-48.4655,-7.78683],[-48.46551,-7.78589],[-48.46535,-7.7846],[-48.46426,-7.77902],[-48.46396,-7.77779],[-48.45775,-7.7644],[-48.42581,-7.66739],[-48.42568,-7.66657],[-48.4257,-7.66528],[-48.42772,-7.64188],[-48.42613,-7.60876],[-48.4259,-7.60728],[-48.42553,-7.60639],[-48.42067,-7.596],[-48.42043,-7.59544],[-48.42013,-7.59442],[-48.42,-7.59288],[-48.41992,-7.59017],[-48.42011,-7.58866],[-48.4222,-7.57833],[-48.42236,-7.57701],[-48.42231,-7.57611],[-48.41945,-7.55491],[-48.4193,-7.55415],[-48.41899,-7.55326],[-48.41863,-7.55253],[-48.41809,-7.55167],[-48.38517,-7.50191],[-48.38445,-7.5004],[-48.36908,-7.44994],[-48.36295,-7.42957],[-48.36274,-7.4286],[-48.36228,-7.42494],[-48.35764,-7.38677],[-48.35732,-7.38567],[-48.35684,-7.38472],[-48.3127,-7.33314],[-48.31208,-7.33221],[-48.29027,-7.29523],[-48.28971,-7.29448],[-48.28849,-7.29331],[-48.26966,-7.27789],[-48.26851,-7.27676],[-48.26751,-7.2754],[-48.26695,-7.2744],[-48.26465,-7.26911],[-48.26414,-7.26808],[-48.25647,-7.2508],[-48.25523,-7.24783],[-48.25483,-7.24583],[-48.25408,-7.23709],[-48.25368,-7.23538],[-48.25295,-7.23299],[-48.25249,-7.2322],[-48.25246,-7.23143],[-48.25177,-7.22926],[-48.24832,-7.22181],[-48.24764,-7.22087],[-48.24747,-7.22006],[-48.24215,-7.20876],[-48.24148,-7.208],[-48.24055,-7.206],[-48.2404,-7.20513],[-48.23356,-7.19068],[-48.23278,-7.18947],[-48.23109,-7.18763],[-48.22346,-7.17991],[-48.22265,-7.17938],[-48.22143,-7.17819],[-48.22078,-7.17718],[-48.21754,-7.17391],[-48.21641,-7.17305],[-48.21583,-7.17219],[-48.20727,-7.1635],[-48.20667,-7.16292],[-48.20584,-7.16227],[-48.20548,-7.16172],[-48.20526,-7.16106],[-48.20089,-7.13735],[-48.19992,-7.13172],[-48.19947,-7.13045],[-48.1989,-7.12953],[-48.18945,-7.11719],[-48.18914,-7.1168],[-48.1885,-7.11627],[-48.18823,-7.11595],[-48.18781,-7.11507],[-48.17181,-7.09414],[-48.17108,-7.09326],[-48.1702,-7.09243],[-48.16917,-7.09174],[-48.12218,-7.07056],[-48.12126,-7.07],[-48.12051,-7.06932],[-48.11974,-7.06833],[-48.11925,-7.06742],[-48.10403,-7.03422],[-48.10369,-7.03319],[-48.09786,-7.00155],[-48.09775,-7.00047],[-48.0999,-6.97107],[-48.09981,-6.96968],[-48.09967,-6.96902],[-48.09888,-6.96723],[-48.09221,-6.95409],[-48.09131,-6.95292],[-48.07298,-6.93478],[-48.05316,-6.91553],[-48.05076,-6.91411],[-47.99494,-6.8843],[-47.99397,-6.88355],[-47.99327,-6.88278],[-47.97355,-6.85556],[-47.97169,-6.85406],[-47.97095,-6.8531],[-47.96505,-6.84966],[-47.96299,-6.84855],[-47.9471,-6.83928],[-47.94593,-6.83887],[-47.94457,-6.83863],[-47.92146,-6.83519],[-47.91484,-6.83427],[-47.88465,-6.82959],[-47.88384,-6.82936],[-47.8829,-6.82897],[-47.8726,-6.82428],[-47.87194,-6.82405],[-47.87111,-6.82387],[-47.87008,-6.82381],[-47.85598,-6.82449],[-47.84,-6.82308],[-47.83555,-6.82275],[-47.82391,-6.82413],[-47.82297,-6.82417],[-47.82215,-6.82407],[-47.8212,-6.82381],[-47.82033,-6.82338],[-47.8195,-6.82273],[-47.81918,-6.82245],[-47.81851,-6.82155],[-47.81583,-6.81649],[-47.8121,-6.8092],[-47.79781,-6.78223],[-47.78753,-6.76263],[-47.7791,-6.73945],[-47.77812,-6.73704],[-47.77774,-6.73647],[-47.77718,-6.73584],[-47.76629,-6.72637],[-47.76561,-6.72558],[-47.75648,-6.71093],[-47.74045,-6.68432],[-47.72431,-6.6577],[-47.72337,-6.65642],[-47.7217,-6.65507],[-47.7209,-6.65465],[-47.71969,-6.65421],[-47.71888,-6.65403],[-47.69818,-6.65209],[-47.69684,-6.65184],[-47.69598,-6.65155],[-47.68079,-6.64525],[-47.65438,-6.63775],[-47.56422,-6.62265],[-47.56247,-6.62209],[-47.54886,-6.61673],[-47.54799,-6.61631],[-47.54711,-6.61567],[-47.54135,-6.60914],[-47.51635,-6.5803],[-47.51043,-6.57495],[-47.50917,-6.57402],[-47.50724,-6.57285],[-47.50584,-6.57216],[-47.50432,-6.57157],[-47.48891,-6.56674],[-47.45265,-6.55842],[-47.45167,-6.55823],[-47.45032,-6.5581],[-47.44883,-6.55753],[-47.44734,-6.5572],[-47.44589,-6.55665],[-47.41548,-6.53922],[-47.40052,-6.53051],[-47.39892,-6.52954],[-47.39794,-6.52881],[-47.39685,-6.52777],[-47.3965,-6.52735],[-47.39567,-6.52624],[-47.3828,-6.50757],[-47.38231,-6.50658],[-47.38203,-6.50563],[-47.38187,-6.50463],[-47.38183,-6.50387],[-47.38265,-6.49418],[-47.38284,-6.49281],[-47.38306,-6.49187],[-47.3834,-6.4909],[-47.38435,-6.4891],[-47.39546,-6.47303],[-47.39594,-6.47206],[-47.39639,-6.47058],[-47.39654,-6.46912],[-47.39666,-6.46209],[-47.39646,-6.4609],[-47.39646,-6.46042],[-47.39672,-6.45886],[-47.39728,-6.42835],[-47.39734,-6.42302],[-47.39729,-6.42194],[-47.39694,-6.42014],[-47.39647,-6.41882],[-47.38678,-6.39865],[-47.3863,-6.39734],[-47.36715,-6.31329],[-47.35054,-6.24146],[-47.3503,-6.23993],[-47.35028,-6.23859],[-47.3504,-6.23738],[-47.35879,-6.19916],[-47.36351,-6.17802],[-47.36532,-6.16945],[-47.36949,-6.15055],[-47.38136,-6.09751],[-47.38159,-6.09627],[-47.38174,-6.0949],[-47.38369,-5.95607],[-47.38386,-5.93151],[-47.38367,-5.93023],[-47.3834,-5.92928],[-47.38278,-5.928],[-47.36532,-5.89747],[-47.36438,-5.89556],[-47.36396,-5.89414],[-47.3638,-5.89331],[-47.35646,-5.8496],[-47.35639,-5.84867],[-47.35635,-5.84747],[-47.35887,-5.81046],[-47.35894,-5.80823],[-47.36,-5.71771],[-47.36026,-5.70143],[-47.36039,-5.70012],[-47.36053,-5.69945],[-47.36094,-5.69815],[-47.36143,-5.69707],[-47.36183,-5.69637],[-47.39872,-5.64111],[-47.42617,-5.60014],[-47.43433,-5.58797],[-47.43882,-5.58144],[-47.44003,-5.57948],[-47.44202,-5.57662],[-47.44532,-5.57157],[-47.45571,-5.55627],[-47.45746,-5.55362],[-47.45775,-5.55284],[-47.46398,-5.5436],[-47.46397,-5.54345],[-47.47047,-5.53386],[-47.47096,-5.53267],[-47.47112,-5.5319],[-47.47117,-5.53114],[-47.47122,-5.52689],[-47.4715,-5.52672],[-47.47172,-5.51022],[-47.47183,-5.50793],[-47.47175,-5.50671],[-47.47205,-5.48949],[-47.47274,-5.43239],[-47.47306,-5.39472],[-47.47317,-5.39321],[-47.5024,-5.285],[-47.50862,-5.26123],[-47.50867,-5.25845],[-47.50865,-5.24502],[-47.50873,-5.24438],[-47.5094,-5.24154],[-47.51625,-5.2146],[-47.51668,-5.21055],[-47.51685,-5.20956],[-47.517,-5.20902],[-47.51855,-5.20536],[-47.51876,-5.20468],[-47.51895,-5.20347],[-47.51953,-5.197],[-47.51984,-5.196],[-47.52763,-5.17554],[-47.53772,-5.15937],[-47.5382,-5.15825],[-47.55426,-5.09712],[-47.55459,-5.09527],[-47.55457,-5.09013],[-47.55469,-5.08918],[-47.55886,-5.0737],[-47.55902,-5.07301],[-47.55906,-5.07245],[-47.55882,-5.06345],[-47.55858,-5.06226],[-47.5487,-5.03777],[-47.54837,-5.0369],[-47.54818,-5.03611],[-47.54739,-5.01281],[-47.54731,-5.01182],[-47.54715,-5.01112],[-47.54666,-5.00988],[-47.54602,-5.0089],[-47.54546,-5.00828],[-47.545,-5.0079],[-47.54081,-5.00504],[-47.5399,-5.00416],[-47.53893,-5.00308],[-47.5378,-5.0016],[-47.53731,-5.00108],[-47.53685,-5.00078],[-47.53531,-5.00004],[-47.53253,-4.99843],[-47.53165,-4.99783],[-47.53063,-4.9969],[-47.5301,-4.99626],[-47.52944,-4.99521],[-47.52673,-4.98955],[-47.51337,-4.96907],[-47.50953,-4.96336],[-47.50392,-4.95458],[-47.5034,-4.95397],[-47.50349,-4.95322],[-47.50341,-4.95268],[-47.50325,-4.94807],[-47.50335,-4.9478],[-47.50324,-4.9452],[-47.50311,-4.94387],[-47.50263,-4.93],[-47.50267,-4.92847],[-47.50587,-4.91663],[-47.50922,-4.90471],[-47.51089,-4.89835],[-47.51096,-4.897],[-47.51073,-4.88802],[-47.51084,-4.88706],[-47.51115,-4.88607],[-47.51143,-4.88544],[-47.51454,-4.88059],[-47.51524,-4.87937],[-47.51568,-4.87817],[-47.51584,-4.87717],[-47.51447,-4.84347],[-47.51424,-4.84216],[-47.50747,-4.81265],[-47.50698,-4.8102],[-47.50228,-4.78996],[-47.50163,-4.78848],[-47.50096,-4.78758],[-47.48941,-4.77525],[-47.48856,-4.7739],[-47.48779,-4.7722],[-47.48749,-4.77124],[-47.48736,-4.77034],[-47.48737,-4.76959],[-47.48752,-4.76859],[-47.49082,-4.75483],[-47.49217,-4.74887],[-47.49354,-4.74355],[-47.49808,-4.72372],[-47.49817,-4.7228],[-47.49817,-4.72231],[-47.49791,-4.72034],[-47.49691,-4.71376],[-47.49531,-4.70087],[-47.495,-4.69944],[-47.49399,-4.69094],[-47.49307,-4.68419],[-47.49332,-4.67536],[-47.49378,-4.66591],[-47.49391,-4.66497],[-47.49529,-4.66052],[-47.49556,-4.65894],[-47.4956,-4.65806],[-47.49548,-4.65461],[-47.49528,-4.65217],[-47.49499,-4.6448],[-47.49363,-4.61881],[-47.49343,-4.61369],[-47.49303,-4.60958],[-47.49203,-4.59593],[-47.49016,-4.57411],[-47.49016,-4.5735],[-47.49031,-4.57219],[-47.49474,-4.55615],[-47.49651,-4.54942],[-47.49688,-4.54777],[-47.50734,-4.50936],[-47.50746,-4.50837],[-47.5075,-4.50258],[-47.5074,-4.49785],[-47.50752,-4.48849],[-47.5076,-4.48732],[-47.5079,-4.48621],[-47.51271,-4.47565],[-47.51315,-4.47496],[-47.51466,-4.47303],[-47.52482,-4.46062],[-47.52532,-4.45994],[-47.52578,-4.45914],[-47.52628,-4.45755],[-47.52685,-4.44916],[-47.52703,-4.44817],[-47.52719,-4.44775],[-47.52776,-4.44674],[-47.52829,-4.44607],[-47.5291,-4.44532],[-47.53027,-4.44458],[-47.53358,-4.44299],[-47.53429,-4.44247],[-47.53487,-4.44188],[-47.53535,-4.44123],[-47.53583,-4.44028],[-47.53606,-4.43955],[-47.53618,-4.43862],[-47.53623,-4.42645],[-47.53637,-4.42191],[-47.5364,-4.41472],[-47.53625,-4.41383],[-47.53601,-4.41296],[-47.53557,-4.41188],[-47.53142,-4.40284],[-47.53117,-4.4019],[-47.5311,-4.40069],[-47.53124,-4.39947],[-47.53673,-4.37915],[-47.53725,-4.37679],[-47.5372,-4.3759],[-47.53687,-4.37468],[-47.53674,-4.37367],[-47.53666,-4.35038],[-47.5364,-4.33768],[-47.53642,-4.3352],[-47.53681,-4.3337],[-47.53726,-4.33284],[-47.53789,-4.33203],[-47.55181,-4.31969],[-47.55224,-4.31924],[-47.55292,-4.3183],[-47.55329,-4.31757],[-47.55352,-4.31692],[-47.55369,-4.31628],[-47.55433,-4.31194],[-47.55718,-4.29193],[-47.55836,-4.2831],[-47.55916,-4.2778],[-47.56236,-4.25404],[-47.56244,-4.25269],[-47.56226,-4.25144],[-47.56204,-4.25076],[-47.56165,-4.2499],[-47.54561,-4.22036],[-47.54518,-4.2189],[-47.5451,-4.21805],[-47.54496,-4.18071],[-47.54474,-4.16129],[-47.54869,-4.12728],[-47.54862,-4.12576],[-47.54691,-4.11335],[-47.54563,-4.10477],[-47.54701,-4.09262],[-47.54696,-4.09178],[-47.54499,-4.07837],[-47.54488,-4.06204],[-47.5443,-4.01113],[-47.54446,-4.0097],[-47.54839,-3.98574],[-47.5485,-3.98456],[-47.5484,-3.98326],[-47.54786,-3.98151],[-47.54468,-3.97283],[-47.54455,-3.97226],[-47.54287,-3.96752],[-47.54031,-3.95247],[-47.52431,-3.89235],[-47.52416,-3.89149],[-47.52411,-3.8885],[-47.52401,-3.85876],[-47.52386,-3.85725],[-47.51819,-3.84046],[-47.51744,-3.83801],[-47.51272,-3.82415],[-47.51251,-3.82316],[-47.50843,-3.79586],[-47.49078,-3.7257],[-47.48746,-3.71239],[-47.48734,-3.71142],[-47.48715,-3.69229],[-47.48737,-3.67436],[-47.48765,-3.65673],[-47.48852,-3.62672],[-47.48977,-3.59668],[-47.4905,-3.58156],[-47.49234,-3.54906],[-47.49238,-3.54636],[-47.49225,-3.54477],[-47.49199,-3.5437],[-47.48598,-3.52392],[-47.46915,-3.46955],[-47.44459,-3.39492],[-47.44427,-3.3933],[-47.44426,-3.39222],[-47.44443,-3.39068],[-47.44767,-3.37742],[-47.44879,-3.3723],[-47.45681,-3.3377],[-47.46085,-3.3194],[-47.46484,-3.30035],[-47.46807,-3.2843],[-47.47219,-3.26281],[-47.47575,-3.24368],[-47.47639,-3.2399],[-47.47881,-3.22785],[-47.49102,-3.1601],[-47.49246,-3.15182],[-47.49288,-3.1492],[-47.49298,-3.1479],[-47.49283,-3.14635],[-47.47676,-3.07613],[-47.45908,-3.00072],[-47.45546,-2.98576],[-47.45504,-2.98506],[-47.45492,-2.98448],[-47.45497,-2.98381],[-47.43377,-2.89563],[-47.4336,-2.89533],[-47.43344,-2.89523],[-47.43334,-2.89506],[-47.43338,-2.89486],[-47.43361,-2.89454],[-47.43356,-2.89333],[-47.4338,-2.89169],[-47.43774,-2.871],[-47.44249,-2.8449],[-47.44321,-2.84132],[-47.44392,-2.83689],[-47.45917,-2.75252],[-47.46307,-2.73026],[-47.47749,-2.65117],[-47.48996,-2.5809],[-47.49432,-2.55697],[-47.49686,-2.54258],[-47.49723,-2.5414],[-47.50594,-2.52092],[-47.50609,-2.52022],[-47.50615,-2.51914],[-47.50596,-2.51102],[-47.50597,-2.50958],[-47.50611,-2.50796],[-47.50632,-2.50672],[-47.50662,-2.5055],[-47.50742,-2.50289],[-47.51029,-2.49453],[-47.51052,-2.49368],[-47.51058,-2.49157],[-47.51031,-2.47943],[-47.50973,-2.46131],[-47.5096,-2.45382],[-47.50941,-2.44784],[-47.50925,-2.43905],[-47.50934,-2.43801],[-47.50964,-2.43712],[-47.50988,-2.43664],[-47.51215,-2.43303],[-47.52494,-2.41302],[-47.54285,-2.38529],[-47.54779,-2.37733],[-47.55894,-2.35997],[-47.55987,-2.35833],[-47.56024,-2.35723],[-47.56149,-2.35177],[-47.56443,-2.33992],[-47.56442,-2.33599],[-47.56406,-2.31716],[-47.56396,-2.30613],[-47.5636,-2.28727],[-47.56362,-2.28536],[-47.56331,-2.27789],[-47.56312,-2.2701],[-47.56278,-2.24491],[-47.5621,-2.21396],[-47.56201,-2.21288],[-47.56111,-2.16956],[-47.56096,-2.15671],[-47.561,-2.15537],[-47.56055,-2.12156],[-47.56012,-2.10622],[-47.55981,-2.09056],[-47.55964,-2.08139],[-47.55971,-2.08049],[-47.55954,-2.07053],[-47.55948,-2.06937],[-47.55936,-2.06864],[-47.55896,-2.06747],[-47.55255,-2.05234],[-47.55336,-2.05205],[-47.55901,-2.04952],[-47.56855,-2.04793],[-47.56987,-2.04761],[-47.57715,-2.04468],[-47.58132,-2.04326],[-47.59167,-2.0387],[-47.60204,-2.03443],[-47.60272,-2.03425],[-47.60333,-2.03423],[-47.60422,-2.03437],[-47.62143,-2.03807],[-47.63114,-2.04008],[-47.63189,-2.04013],[-47.63267,-2.03995],[-47.63343,-2.03958],[-47.64137,-2.03282],[-47.64549,-2.0292],[-47.64698,-2.02802],[-47.6527,-2.02297],[-47.662,-2.01504],[-47.66284,-2.01459],[-47.66349,-2.01447],[-47.66605,-2.01438],[-47.68521,-2.0142],[-47.68747,-2.01423],[-47.6887,-2.014],[-47.69287,-2.01253],[-47.69361,-2.01239],[-47.6944,-2.01246],[-47.70262,-2.01605],[-47.7102,-2.01952],[-47.71103,-2.01995],[-47.71648,-2.02347],[-47.71734,-2.02394],[-47.73086,-2.02814],[-47.73199,-2.02839],[-47.74688,-2.02769],[-47.74745,-2.0276],[-47.75461,-2.02739],[-47.76048,-2.02705],[-47.77737,-2.02639],[-47.77989,-2.02593],[-47.79999,-2.02132],[-47.80236,-2.02092],[-47.80355,-2.02107],[-47.81487,-2.02471],[-47.81927,-2.02598],[-47.82393,-2.02748],[-47.82455,-2.02758],[-47.82558,-2.02762],[-47.83805,-2.02729],[-47.8386,-2.02723],[-47.83915,-2.02705],[-47.84008,-2.02649],[-47.84039,-2.02618],[-47.85494,-2.01649],[-47.85976,-2.01334],[-47.86057,-2.01292],[-47.8752,-2.00325],[-47.87591,-2.00287],[-47.87653,-2.00269],[-47.89571,-1.99998],[-47.90449,-1.99889],[-47.9181,-1.99692],[-47.91878,-1.99676],[-47.92339,-1.99606],[-47.9352,-1.99442],[-47.94227,-1.99329],[-47.96779,-1.98958],[-47.96856,-1.98961],[-47.98182,-1.99272],[-47.98473,-1.99333],[-47.98551,-1.99368],[-47.98843,-1.99563],[-47.98917,-1.99591],[-47.99242,-1.99688],[-47.99337,-1.99715],[-47.99401,-1.99724],[-47.99483,-1.9972],[-47.99798,-1.99664],[-47.99844,-1.99646],[-48.0022,-1.99447],[-48.00275,-1.99433],[-48.01262,-1.99456],[-48.01323,-1.99452],[-48.02529,-1.99275],[-48.02583,-1.99277],[-48.02632,-1.99289],[-48.03098,-1.99449],[-48.03155,-1.99461],[-48.03225,-1.9946],[-48.0329,-1.99445],[-48.03341,-1.9942],[-48.03568,-1.99238],[-48.03766,-1.99106],[-48.03829,-1.99089],[-48.03938,-1.99079],[-48.04021,-1.99081],[-48.04191,-1.99117],[-48.04229,-1.99105],[-48.04237,-1.99088],[-48.04233,-1.99061],[-48.02866,-1.96678],[-48.01948,-1.95124],[-48.01708,-1.94729],[-48.01697,-1.94689],[-48.01697,-1.94619],[-48.01892,-1.93195],[-48.02606,-1.87666],[-48.02625,-1.87601],[-48.02879,-1.86982],[-48.02879,-1.86929],[-48.0287,-1.86897],[-48.02801,-1.86783],[-48.02794,-1.86748],[-48.02799,-1.86712],[-48.03019,-1.85994],[-48.03032,-1.85929],[-48.03182,-1.85426],[-48.03645,-1.83933],[-48.03769,-1.83558],[-48.04201,-1.82128],[-48.04283,-1.81875],[-48.05115,-1.78973],[-48.06033,-1.75882],[-48.06727,-1.73514],[-48.06842,-1.73188],[-48.06859,-1.73104],[-48.06913,-1.72616],[-48.0705,-1.71268],[-48.0715,-1.71285],[-48.0721,-1.71284],[-48.07402,-1.71238],[-48.07448,-1.71241],[-48.07517,-1.71278],[-48.07676,-1.71386],[-48.07929,-1.71532],[-48.08152,-1.71597],[-48.08378,-1.71688],[-48.08501,-1.71722],[-48.08648,-1.71727],[-48.08684,-1.71736],[-48.09077,-1.7191],[-48.09242,-1.71965],[-48.10114,-1.72111],[-48.10163,-1.7215],[-48.10235,-1.72275],[-48.10288,-1.72322],[-48.10373,-1.72355],[-48.10556,-1.72466],[-48.10679,-1.72485],[-48.10832,-1.72564],[-48.10947,-1.726],[-48.11209,-1.72622],[-48.11547,-1.72612],[-48.11594,-1.72588],[-48.11653,-1.72515],[-48.11687,-1.72492],[-48.11727,-1.72476],[-48.12103,-1.72352],[-48.12524,-1.72244],[-48.12586,-1.72257],[-48.12804,-1.72401],[-48.12843,-1.72417],[-48.12905,-1.72412],[-48.13028,-1.72325],[-48.13053,-1.72326],[-48.13153,-1.72438],[-48.13166,-1.7247],[-48.13172,-1.72511],[-48.13164,-1.7256],[-48.13125,-1.72659],[-48.1312,-1.72703],[-48.13171,-1.72857],[-48.13114,-1.72987],[-48.13112,-1.73005],[-48.13154,-1.73037],[-48.13254,-1.73216],[-48.13403,-1.73386],[-48.13467,-1.73475],[-48.13515,-1.73564],[-48.13677,-1.73825],[-48.13933,-1.74213],[-48.14074,-1.74406],[-48.14094,-1.74475],[-48.141,-1.74546],[-48.14131,-1.74652],[-48.14148,-1.7474],[-48.14147,-1.749],[-48.14126,-1.75018],[-48.14118,-1.75273],[-48.14241,-1.75436],[-48.14283,-1.75474],[-48.1432,-1.75479],[-48.14559,-1.75396],[-48.14638,-1.75392],[-48.14854,-1.75327],[-48.15022,-1.75229],[-48.16136,-1.74752],[-48.16223,-1.74705],[-48.1655,-1.74403],[-48.16662,-1.74311],[-48.16702,-1.7424],[-48.16768,-1.74009],[-48.16813,-1.73742],[-48.1684,-1.7363],[-48.16854,-1.73586],[-48.16935,-1.73444],[-48.16947,-1.73405],[-48.16949,-1.73321],[-48.16936,-1.73106],[-48.16868,-1.72275],[-48.16875,-1.7226],[-48.16894,-1.72248],[-48.16981,-1.72259],[-48.17009,-1.72255],[-48.17035,-1.72225],[-48.17176,-1.71762],[-48.17245,-1.71597],[-48.17276,-1.71412],[-48.17408,-1.70901],[-48.17429,-1.70854],[-48.17655,-1.70656],[-48.18206,-1.70064],[-48.1824,-1.70052],[-48.18432,-1.70036],[-48.1849,-1.70025],[-48.18719,-1.69964],[-48.18754,-1.69931],[-48.18785,-1.69883],[-48.18815,-1.69818],[-48.1887,-1.69559],[-48.18868,-1.69511],[-48.18682,-1.69157],[-48.18589,-1.68919],[-48.18598,-1.68823],[-48.18666,-1.68627],[-48.18675,-1.68512],[-48.18666,-1.68411],[-48.1863,-1.6825],[-48.18631,-1.68218],[-48.18642,-1.68183],[-48.18657,-1.68162],[-48.18854,-1.67985],[-48.18941,-1.67927],[-48.19401,-1.67744],[-48.1942,-1.6773],[-48.19468,-1.67674],[-48.19508,-1.67569],[-48.19531,-1.67461],[-48.19629,-1.66856],[-48.19655,-1.66532],[-48.19631,-1.66385],[-48.19593,-1.66229],[-48.19566,-1.6608],[-48.19541,-1.65896],[-48.19522,-1.6586],[-48.19454,-1.65795],[-48.19443,-1.65769],[-48.19445,-1.657],[-48.19492,-1.65585],[-48.19514,-1.6556],[-48.19547,-1.65541],[-48.19837,-1.65419],[-48.19915,-1.65404],[-48.20262,-1.65372],[-48.20392,-1.65345],[-48.2051,-1.6529],[-48.20574,-1.65248],[-48.20636,-1.65192],[-48.2069,-1.65131],[-48.2082,-1.64928],[-48.20975,-1.64792],[-48.2107,-1.64698],[-48.21338,-1.64405],[-48.21386,-1.64367],[-48.21456,-1.64332],[-48.21521,-1.64281],[-48.21924,-1.63891],[-48.21964,-1.6383],[-48.22003,-1.63714],[-48.22015,-1.63645],[-48.22076,-1.63477],[-48.22309,-1.62701],[-48.2249,-1.62406],[-48.22885,-1.61719],[-48.22993,-1.61492],[-48.23191,-1.61009],[-48.23262,-1.60717],[-48.23328,-1.60175],[-48.23371,-1.59389],[-48.23422,-1.59033],[-48.23397,-1.58876],[-48.23628,-1.58795],[-48.23926,-1.58707],[-48.2443,-1.58543],[-48.24929,-1.58368],[-48.25152,-1.58257],[-48.2527,-1.58211],[-48.25412,-1.58213],[-48.25467,-1.58197],[-48.25499,-1.58258],[-48.25588,-1.58392],[-48.25602,-1.58407],[-48.2562,-1.5841],[-48.25815,-1.58358],[-48.25863,-1.58354],[-48.26005,-1.58372],[-48.2604,-1.5837],[-48.26066,-1.58361],[-48.26157,-1.58302],[-48.26417,-1.58217],[-48.26485,-1.58183],[-48.26634,-1.5809],[-48.26658,-1.58067],[-48.26939,-1.57733],[-48.27066,-1.57547],[-48.27093,-1.57489],[-48.27131,-1.57388],[-48.27155,-1.57271],[-48.27178,-1.57218],[-48.27244,-1.57112],[-48.273,-1.57048],[-48.27462,-1.56936],[-48.27526,-1.56905],[-48.27845,-1.56712],[-48.27996,-1.56573],[-48.28096,-1.56468],[-48.28191,-1.56396],[-48.28253,-1.5638],[-48.28497,-1.56346],[-48.28647,-1.56314],[-48.28772,-1.56268],[-48.28947,-1.56162],[-48.29224,-1.56092],[-48.29268,-1.56072],[-48.29336,-1.56022],[-48.29404,-1.55953],[-48.29518,-1.55816],[-48.29665,-1.5568],[-48.29762,-1.55548],[-48.29908,-1.55302],[-48.29994,-1.55179],[-48.3002,-1.55064],[-48.30055,-1.54951],[-48.30096,-1.54867],[-48.30164,-1.54685],[-48.30142,-1.54113],[-48.30132,-1.54046],[-48.30103,-1.53939],[-48.29791,-1.53077],[-48.29775,-1.52893],[-48.29749,-1.52136],[-48.2976,-1.52038],[-48.29867,-1.51504],[-48.30045,-1.50689],[-48.30183,-1.49978],[-48.30146,-1.49203],[-48.3011,-1.49052],[-48.29943,-1.4845],[-48.29933,-1.48385],[-48.29935,-1.47035],[-48.29954,-1.44513],[-48.2996,-1.4442],[-48.29977,-1.44356],[-48.30032,-1.44259],[-48.3007,-1.44219],[-48.30142,-1.44168],[-48.31452,-1.43605],[-48.31556,-1.43543],[-48.31617,-1.43488],[-48.31666,-1.43429],[-48.31874,-1.43132],[-48.31915,-1.43089],[-48.3196,-1.43059],[-48.32015,-1.43034],[-48.321,-1.43015],[-48.32573,-1.42996],[-48.32652,-1.42973],[-48.3273,-1.42923],[-48.32788,-1.42857],[-48.32836,-1.42753],[-48.33123,-1.41774],[-48.33139,-1.41664],[-48.33157,-1.41277],[-48.33178,-1.412],[-48.33212,-1.41138],[-48.33797,-1.40357],[-48.33847,-1.40306],[-48.33892,-1.40277],[-48.33994,-1.40242],[-48.34764,-1.40138],[-48.34857,-1.40119],[-48.34948,-1.40073],[-48.3503,-1.39992],[-48.35125,-1.39811],[-48.3578,-1.38352],[-48.35907,-1.38139],[-48.35972,-1.37933],[-48.3613,-1.37565],[-48.36148,-1.37487],[-48.36159,-1.37383],[-48.36215,-1.36709],[-48.36221,-1.36623],[-48.36221,-1.36561],[-48.36222,-1.36558],[-48.36222,-1.36521],[-48.3623,-1.36484],[-48.36252,-1.36441],[-48.36246,-1.36414],[-48.36218,-1.36396],[-48.3619,-1.36399],[-48.36169,-1.36422],[-48.36168,-1.36445],[-48.36189,-1.36497],[-48.36204,-1.36527],[-48.36217,-1.36545],[-48.36229,-1.36558],[-48.365,-1.36571],[-48.3653,-1.36545],[-48.3655,-1.36473],[-48.36641,-1.36384],[-48.36933,-1.34725],[-48.36987,-1.34636],[-48.37166,-1.34388],[-48.3728,-1.34204],[-48.37643,-1.33697],[-48.37664,-1.33675],[-48.37822,-1.33598],[-48.37836,-1.33597],[-48.37845,-1.33587],[-48.37861,-1.33586],[-48.37875,-1.33597],[-48.3789,-1.33624],[-48.37972,-1.33803],[-48.37984,-1.33809],[-48.38019,-1.33798],[-48.38385,-1.33622],[-48.38384,-1.33602],[-48.38306,-1.33426],[-48.38326,-1.33398],[-48.38541,-1.3329],[-48.39454,-1.33367],[-48.39476,-1.33375],[-48.40224,-1.3393],[-48.42435,-1.35545],[-48.4275,-1.35855],[-48.43241,-1.36148],[-48.43261,-1.36172],[-48.43517,-1.36627],[-48.43538,-1.36652],[-48.44226,-1.37155],[-48.44599,-1.37711],[-48.44674,-1.37789],[-48.44757,-1.37845],[-48.44841,-1.37888],[-48.44905,-1.37903],[-48.44901,-1.37989],[-48.44921,-1.38012],[-48.44934,-1.38041],[-48.44938,-1.38113],[-48.44826,-1.38119]]},"properties":{"route_id":"mangueirao","tipo":"rota","clube":"Remo","estadio":"Mangueirão","cidade":"Belém","estado":"PA","distancia_km":2856.7,"modo_rota":"carro","match_status":"projecao","status":"Projeção: adversário é previsto pelo chaveamento; data e estádio sujeitos a confirmação.","projecao":true,"fonte_rota":"ROTA - MANGUEIRAO.shp","metodo_rota":"Traçado viário existente convertido do shapefile do usuário.","data_partida":null,"Name":"Rotas de Parque São Jorge, São Paulo - SP até Mangueirão, Belém - Pará","ajuste_origem_m":0.0}},{"type":"Feature","geometry":{"type":"Point","coordinates":[-48.44826,-1.38119]},"properties":{"route_id":"mangueirao","tipo":"estadio_destino","clube":"Remo","estadio":"Mangueirão","cidade":"Belém","estado":"PA","distancia_km":2856.7,"status":"Projeção: adversário é previsto pelo chaveamento; data e estádio sujeitos a confirmação.","projecao":true,"data_partida":null}}]}