{"type":"FeatureCollection","name":"vila-belmiro","features":[{"type":"Feature","geometry":{"type":"LineString","coordinates":[[-46.56809,-23.53096],[-46.5686,-23.53109],[-46.56828,-23.53221],[-46.56832,-23.53227],[-46.57011,-23.53272],[-46.56946,-23.53495],[-46.56942,-23.53505],[-46.56928,-23.53498],[-46.56799,-23.53819],[-46.57557,-23.53972],[-46.57945,-23.54043],[-46.58194,-23.54093],[-46.58226,-23.54088],[-46.58244,-23.54073],[-46.58275,-23.53951],[-46.58158,-23.53925],[-46.58137,-23.53974],[-46.58111,-23.54072],[-46.5811,-23.54078],[-46.58105,-23.54096],[-46.58102,-23.54111],[-46.5809,-23.54217],[-46.58052,-23.54331],[-46.58008,-23.54551],[-46.58001,-23.54555],[-46.5797,-23.54664],[-46.57963,-23.54667],[-46.57908,-23.54899],[-46.57868,-23.55],[-46.57738,-23.55235],[-46.57708,-23.55309],[-46.57697,-23.55362],[-46.57698,-23.55453],[-46.57777,-23.55752],[-46.57777,-23.55846],[-46.57695,-23.5603],[-46.57563,-23.56498],[-46.57505,-23.56616],[-46.57369,-23.56836],[-46.57356,-23.56902],[-46.57371,-23.57031],[-46.57361,-23.57092],[-46.57316,-23.57159],[-46.57128,-23.57311],[-46.57105,-23.57342],[-46.57084,-23.57394],[-46.57079,-23.57462],[-46.57125,-23.57643],[-46.57153,-23.57791],[-46.57229,-23.57956],[-46.57222,-23.58133],[-46.57236,-23.58174],[-46.57273,-23.58212],[-46.57473,-23.58313],[-46.5748,-23.58323],[-46.5773,-23.5842],[-46.58196,-23.58485],[-46.58405,-23.58408],[-46.58552,-23.58404],[-46.58588,-23.58409],[-46.58745,-23.58474],[-46.58811,-23.58532],[-46.59054,-23.58669],[-46.59111,-23.5871],[-46.5916,-23.58726],[-46.59488,-23.58793],[-46.59541,-23.58784],[-46.59606,-23.5876],[-46.59677,-23.58758],[-46.5972,-23.58771],[-46.59773,-23.58811],[-46.59792,-23.58842],[-46.59805,-23.58886],[-46.59797,-23.59056],[-46.59803,-23.59083],[-46.59734,-23.59783],[-46.59739,-23.59839],[-46.59768,-23.59947],[-46.59801,-23.6001],[-46.59924,-23.60162],[-46.60023,-23.60266],[-46.60095,-23.60312],[-46.60206,-23.6035],[-46.60308,-23.604],[-46.60452,-23.60529],[-46.60512,-23.60589],[-46.6055,-23.6064],[-46.60905,-23.61561],[-46.6125,-23.6228],[-46.6129,-23.62335],[-46.61358,-23.62408],[-46.6145,-23.6249],[-46.61583,-23.62584],[-46.61715,-23.62653],[-46.6185,-23.62711],[-46.61943,-23.6274],[-46.62057,-23.62768],[-46.62467,-23.62836],[-46.62966,-23.62906],[-46.63045,-23.62919],[-46.63049,-23.6292],[-46.63121,-23.6293],[-46.63148,-23.62911],[-46.63148,-23.62883],[-46.63052,-23.62801],[-46.63032,-23.62802],[-46.63019,-23.62811],[-46.63015,-23.62832],[-46.63025,-23.62879],[-46.63027,-23.62897],[-46.63032,-23.62926],[-46.63031,-23.62968],[-46.63012,-23.63078],[-46.63078,-23.64216],[-46.63092,-23.64329],[-46.63136,-23.64523],[-46.63182,-23.64658],[-46.63363,-23.6509],[-46.63397,-23.65188],[-46.63422,-23.65318],[-46.63426,-23.65425],[-46.63276,-23.66843],[-46.63257,-23.66925],[-46.63207,-23.67074],[-46.63149,-23.67178],[-46.63096,-23.67252],[-46.63021,-23.67338],[-46.62922,-23.67424],[-46.62829,-23.67486],[-46.62684,-23.67558],[-46.62552,-23.67602],[-46.62442,-23.67627],[-46.62078,-23.67697],[-46.61712,-23.67777],[-46.61549,-23.67835],[-46.61443,-23.67884],[-46.61259,-23.67995],[-46.61141,-23.68092],[-46.61,-23.68245],[-46.60568,-23.68841],[-46.60484,-23.68982],[-46.6043,-23.69111],[-46.60238,-23.69912],[-46.60224,-23.70068],[-46.6023,-23.70218],[-46.60259,-23.70392],[-46.60718,-23.72456],[-46.60731,-23.72617],[-46.60712,-23.72793],[-46.60675,-23.72912],[-46.606,-23.73066],[-46.59972,-23.74089],[-46.59871,-23.74272],[-46.59198,-23.76033],[-46.59158,-23.76183],[-46.59135,-23.76355],[-46.59133,-23.76474],[-46.59144,-23.76623],[-46.59198,-23.76841],[-46.593,-23.7708],[-46.59708,-23.77948],[-46.59764,-23.78115],[-46.59801,-23.78309],[-46.59804,-23.78391],[-46.59795,-23.7859],[-46.59773,-23.78694],[-46.597,-23.78895],[-46.59157,-23.79964],[-46.58916,-23.8046],[-46.58454,-23.81476],[-46.58378,-23.81679],[-46.58312,-23.81894],[-46.58241,-23.82217],[-46.57501,-23.85004],[-46.57457,-23.85224],[-46.57434,-23.85415],[-46.57371,-23.8639],[-46.57349,-23.86542],[-46.57314,-23.86697],[-46.5714,-23.87226],[-46.56068,-23.90338],[-46.55639,-23.91605],[-46.55608,-23.91717],[-46.5558,-23.91862],[-46.55544,-23.92241],[-46.55523,-23.92383],[-46.55493,-23.92481],[-46.55459,-23.92551],[-46.55418,-23.92612],[-46.55341,-23.92693],[-46.55222,-23.92779],[-46.55154,-23.92811],[-46.5505,-23.92845],[-46.54982,-23.92857],[-46.54876,-23.92862],[-46.54745,-23.92847],[-46.5465,-23.92818],[-46.54175,-23.92595],[-46.54045,-23.92544],[-46.53887,-23.92516],[-46.53738,-23.92508],[-46.53531,-23.92486],[-46.53448,-23.92459],[-46.53399,-23.92435],[-46.5333,-23.92386],[-46.53271,-23.92329],[-46.53209,-23.92248],[-46.53161,-23.9215],[-46.53054,-23.91874],[-46.52941,-23.9167],[-46.52904,-23.91616],[-46.52836,-23.91541],[-46.51508,-23.90347],[-46.50869,-23.89785],[-46.50808,-23.89719],[-46.50763,-23.8965],[-46.50722,-23.89537],[-46.50646,-23.89231],[-46.50641,-23.89054],[-46.50619,-23.88914],[-46.50597,-23.88839],[-46.50554,-23.88742],[-46.50489,-23.88643],[-46.50375,-23.88534],[-46.50304,-23.88487],[-46.50217,-23.88445],[-46.50117,-23.88412],[-46.49985,-23.88382],[-46.49676,-23.88334],[-46.49485,-23.8834],[-46.48796,-23.88249],[-46.48647,-23.88253],[-46.48536,-23.88276],[-46.4848,-23.88295],[-46.4834,-23.88367],[-46.48276,-23.88415],[-46.48209,-23.88478],[-46.48166,-23.88529],[-46.4812,-23.88601],[-46.48076,-23.887],[-46.4805,-23.88821],[-46.48052,-23.88969],[-46.48072,-23.89144],[-46.48068,-23.89238],[-46.48055,-23.89302],[-46.48017,-23.89397],[-46.47963,-23.89478],[-46.479,-23.89544],[-46.47811,-23.89609],[-46.47524,-23.89734],[-46.47266,-23.89782],[-46.47169,-23.89817],[-46.46756,-23.90054],[-46.46414,-23.902],[-46.46282,-23.90243],[-46.46102,-23.9026],[-46.45605,-23.90242],[-46.4547,-23.90242],[-46.45403,-23.90249],[-46.453,-23.90271],[-46.45204,-23.90306],[-46.45131,-23.90343],[-46.45024,-23.90416],[-46.44907,-23.90539],[-46.43623,-23.9216],[-46.43623,-23.92171],[-46.43562,-23.9226],[-46.43532,-23.9232],[-46.4352,-23.92374],[-46.43522,-23.92496],[-46.43516,-23.92525],[-46.4349,-23.92567],[-46.43453,-23.92591],[-46.43407,-23.92604],[-46.43358,-23.92601],[-46.41886,-23.92141],[-46.41833,-23.9212],[-46.41777,-23.92082],[-46.41666,-23.91968],[-46.41616,-23.91947],[-46.41565,-23.91943],[-46.41505,-23.91956],[-46.4144,-23.91984],[-46.41193,-23.92154],[-46.41069,-23.92216],[-46.40509,-23.92603],[-46.40401,-23.92664],[-46.40306,-23.92709],[-46.40147,-23.92767],[-46.40015,-23.92801],[-46.39878,-23.92824],[-46.39654,-23.92837],[-46.39536,-23.9283],[-46.38256,-23.9267],[-46.38071,-23.92661],[-46.37881,-23.92668],[-46.37634,-23.92699],[-46.35605,-23.92993],[-46.35354,-23.9302],[-46.3482,-23.93096],[-46.3477,-23.93092],[-46.34679,-23.93059],[-46.34635,-23.93021],[-46.34564,-23.92985],[-46.34362,-23.92948],[-46.34204,-23.92949],[-46.33969,-23.93055],[-46.33921,-23.93085],[-46.33367,-23.93581],[-46.33292,-23.93595],[-46.33273,-23.93614],[-46.33276,-23.93641],[-46.33464,-23.94054],[-46.33478,-23.94144],[-46.33489,-23.9436],[-46.33564,-23.94623],[-46.33581,-23.94661],[-46.33652,-23.94718],[-46.33674,-23.94752],[-46.33716,-23.95104]]},"properties":{"route_id":"vila-belmiro","tipo":"rota","clube":"Santos","estadio":"Vila Belmiro","cidade":"Santos","estado":"SP","distancia_km":83.7,"modo_rota":"carro","match_status":"concluida","status":"Traçado fornecido para deslocamento do Brasileirão 2026.","projecao":false,"fonte_rota":"ROTA - VILA BELMIRO.shp","metodo_rota":"Traçado viário existente convertido do shapefile do usuário.","data_partida":null,"Name":"Rotas de Parque São Jorge, São Paulo - SP até Vila Belmiro, Santos - SP","ajuste_origem_m":0.0}},{"type":"Feature","geometry":{"type":"Point","coordinates":[-46.33716,-23.95104]},"properties":{"route_id":"vila-belmiro","tipo":"estadio_destino","clube":"Santos","estadio":"Vila Belmiro","cidade":"Santos","estado":"SP","distancia_km":83.7,"status":"Traçado fornecido para deslocamento do Brasileirão 2026.","projecao":false,"data_partida":null}}]}