{"type":"FeatureCollection","name":"estadios_mundo_internacionais","features":[{"type":"Feature","properties":{"ESTADIO":"Achiles Pimpão/Vitorino Gonçalves Dias","NOME_OFICIAL":"OBS: No Almanaque do timão, aparecem como 2 estádios diferentes, mas o local é o mesmo","CIDADE":null,"ESTADO":null,"PAIS":"Brazil","LATITUDE":-23.3086433,"LONGITUDE":-51.1519682,"PRIMEIRA_PARTIDA":"operario de londrina 1 x 3 Corinthians","DATA_PRIMEIRA_PARTIDA":"1951-05-01","ANO_PRIMEIRA_PARTIDA":1951,"ADVERSARIO":"operario de londrina","PLACAR":"1 x 3","COMPETICAO_PRIMEIRA_PARTIDA":"Amistoso","MANDO_PRIMEIRA_PARTIDA":"Visitante","TOTAL_JOGOS":11,"VITORIAS":3,"EMPATES":3,"DERROTAS":5,"APROVEITAMENTO_PCT":36.4,"GOLS_MARCADOS":22,"GOLS_SOFRIDOS":24,"ESTADIOS_COM_ESTREIA_NA_DECADA":72,"OBSERVACOES":"https://www.londrinaesporteclube.com.br/noticia/2020/6/24/estadio-vgd-c","FONTE_PRIMEIRA_PARTIDA":"https://www.londrinaesporteclube.com.br/noticia/2020/6/24/estadio-vgd-c","DESCRICAO_ORIGINAL":"Primeira partida: operario de londrina 1 x 3 Corinthians 01/05/1951 - Amistoso<br><br>OBS: No Almanaque do timão, aparecem como 2 estádios diferentes, mas o local é o mesmo<br><br>https://www.londrinaesporteclube.com.br/noticia/2020/6/24/estadio-vgd-c","PAIS_ISO3":"BRA","FONTE_CORRECAO_PAIS":"https://data.geocode.earth/wof/dist/legacy/whosonfirst-data-country-latest.tar.bz2"},"geometry":{"type":"Point","coordinates":[-51.1519682,-23.3086433]}},{"type":"Feature","properties":{"ESTADIO":"Antônio Alonso","NOME_OFICIAL":"Obs: A localização exata na Rua Vinte e Oito de Setembro não encontrada https://www.novomilenio.inf.br/santos/h0100b25b.htm e https://www.santosfc.com.br/memoria-santos-fc-jogan","CIDADE":null,"ESTADO":null,"PAIS":"Brazil","LATITUDE":-23.9562015,"LONGITUDE":-46.3159358,"PRIMEIRA_PARTIDA":"hespanha 5 x 6 Corinthians","DATA_PRIMEIRA_PARTIDA":"1933-01-29","ANO_PRIMEIRA_PARTIDA":1933,"ADVERSARIO":"hespanha","PLACAR":"5 x 6","COMPETICAO_PRIMEIRA_PARTIDA":"Amistoso","MANDO_PRIMEIRA_PARTIDA":"Visitante","TOTAL_JOGOS":4,"VITORIAS":2,"EMPATES":1,"DERROTAS":1,"APROVEITAMENTO_PCT":58.3,"GOLS_MARCADOS":9,"GOLS_SOFRIDOS":9,"ESTADIOS_COM_ESTREIA_NA_DECADA":19,"OBSERVACOES":null,"FONTE_PRIMEIRA_PARTIDA":"https://www.novomilenio.inf.br/santos/h0100b25b.htm","DESCRICAO_ORIGINAL":"Primeira partida: hespanha 5 x 6 Corinthians 29/01/1933 - Amistoso<br><br>Obs: A localização exata na Rua Vinte e Oito de Setembro não encontrada https://www.novomilenio.inf.br/santos/h0100b25b.htm e https://www.santosfc.com.br/memoria-santos-fc-jogan","PAIS_ISO3":"BRA","FONTE_CORRECAO_PAIS":"https://data.geocode.earth/wof/dist/legacy/whosonfirst-data-country-latest.tar.bz2"},"geometry":{"type":"Point","coordinates":[-46.3159358,-23.9562015]}},{"type":"Feature","properties":{"ESTADIO":"Libertadores de América/Avellaneda","NOME_OFICIAL":"Antigo Avellaneda","CIDADE":"Buenos Aires","ESTADO":null,"PAIS":"Argentina","LATITUDE":-34.6702197,"LONGITUDE":-58.3713407,"PRIMEIRA_PARTIDA":"independiente 2 x 0 Corinthians","DATA_PRIMEIRA_PARTIDA":"1999-09-28","ANO_PRIMEIRA_PARTIDA":1999,"ADVERSARIO":"independiente","PLACAR":"2 x 0","COMPETICAO_PRIMEIRA_PARTIDA":"Copa Mercosul","MANDO_PRIMEIRA_PARTIDA":"Visitante","TOTAL_JOGOS":9,"VITORIAS":3,"EMPATES":0,"DERROTAS":6,"APROVEITAMENTO_PCT":33.3,"GOLS_MARCADOS":3,"GOLS_SOFRIDOS":9,"ESTADIOS_COM_ESTREIA_NA_DECADA":35,"OBSERVACOES":null,"FONTE_PRIMEIRA_PARTIDA":"Meu Timão / Acervo ATLAS1910","DESCRICAO_ORIGINAL":"Antigo Avellaneda<br>Primeira partida: independiente 2 x 0 Corinthians 28/09/1999 - Copa Mercosul","PAIS_ISO3":"ARG"},"geometry":{"type":"Point","coordinates":[-58.3713407,-34.6702197]}},{"type":"Feature","properties":{"ESTADIO":"Lanchão","NOME_OFICIAL":"Doutor Lancha Filho","CIDADE":null,"ESTADO":null,"PAIS":"Brazil","LATITUDE":-20.5353204,"LONGITUDE":-47.385693,"PRIMEIRA_PARTIDA":"francana 3 x 3 Corinthians","DATA_PRIMEIRA_PARTIDA":"1948-02-01","ANO_PRIMEIRA_PARTIDA":1948,"ADVERSARIO":"francana","PLACAR":"3 x 3","COMPETICAO_PRIMEIRA_PARTIDA":"Amistoso","MANDO_PRIMEIRA_PARTIDA":"Visitante","TOTAL_JOGOS":22,"VITORIAS":10,"EMPATES":8,"DERROTAS":4,"APROVEITAMENTO_PCT":57.6,"GOLS_MARCADOS":44,"GOLS_SOFRIDOS":22,"ESTADIOS_COM_ESTREIA_NA_DECADA":48,"OBSERVACOES":null,"FONTE_PRIMEIRA_PARTIDA":"Meu Timão / Acervo ATLAS1910","DESCRICAO_ORIGINAL":"Doutor Lancha Filho<br><br>Primeira partida: francana 3 x 3 Corinthians 01/02/1948 - Amistoso","PAIS_ISO3":"BRA","FONTE_CORRECAO_PAIS":"https://data.geocode.earth/wof/dist/legacy/whosonfirst-data-country-latest.tar.bz2"},"geometry":{"type":"Point","coordinates":[-47.385693,-20.5353204]}},{"type":"Feature","properties":{"ESTADIO":"Spectrum Stadium","NOME_OFICIAL":"Bright House","CIDADE":"Orlando","ESTADO":null,"PAIS":"Estados Unidos da América","LATITUDE":28.6082145,"LONGITUDE":-81.1926196,"PRIMEIRA_PARTIDA":"vasco 1 x 4 Corinthians","DATA_PRIMEIRA_PARTIDA":"2017-01-18","ANO_PRIMEIRA_PARTIDA":2017,"ADVERSARIO":"vasco","PLACAR":"1 x 4","COMPETICAO_PRIMEIRA_PARTIDA":"Florida Cup","MANDO_PRIMEIRA_PARTIDA":"Mandante","TOTAL_JOGOS":9,"VITORIAS":3,"EMPATES":3,"DERROTAS":3,"APROVEITAMENTO_PCT":44.4,"GOLS_MARCADOS":18,"GOLS_SOFRIDOS":15,"ESTADIOS_COM_ESTREIA_NA_DECADA":31,"OBSERVACOES":null,"FONTE_PRIMEIRA_PARTIDA":"Meu Timão / Acervo ATLAS1910","DESCRICAO_ORIGINAL":"Bright House<br><br>Primeira partida: vasco 1 x 4 Corinthians 18/01/2017 - Florida Cup","PAIS_ISO3":"USA"},"geometry":{"type":"Point","coordinates":[-81.1926196,28.6082145]}},{"type":"Feature","properties":{"ESTADIO":"Caneleira","NOME_OFICIAL":"Estadio Espanha","CIDADE":null,"ESTADO":null,"PAIS":"Brazil","LATITUDE":-23.9457944,"LONGITUDE":-46.3640427,"PRIMEIRA_PARTIDA":"jabaquara 2 x 6 Corinthians","DATA_PRIMEIRA_PARTIDA":"1989-10-12","ANO_PRIMEIRA_PARTIDA":1989,"ADVERSARIO":"jabaquara","PLACAR":"2 x 6","COMPETICAO_PRIMEIRA_PARTIDA":"Amistoso","MANDO_PRIMEIRA_PARTIDA":"Visitante","TOTAL_JOGOS":1,"VITORIAS":1,"EMPATES":0,"DERROTAS":0,"APROVEITAMENTO_PCT":100.0,"GOLS_MARCADOS":6,"GOLS_SOFRIDOS":2,"ESTADIOS_COM_ESTREIA_NA_DECADA":37,"OBSERVACOES":null,"FONTE_PRIMEIRA_PARTIDA":"Meu Timão / Acervo ATLAS1910","DESCRICAO_ORIGINAL":"Estadio Espanha<br><br>Primeira partida: jabaquara 2 x 6 Corinthians 12/10/1989 - Amistoso","PAIS_ISO3":"BRA","FONTE_CORRECAO_PAIS":"https://data.geocode.earth/wof/dist/legacy/whosonfirst-data-country-latest.tar.bz2"},"geometry":{"type":"Point","coordinates":[-46.3640427,-23.9457944]}},{"type":"Feature","properties":{"ESTADIO":"Centenário","NOME_OFICIAL":null,"CIDADE":null,"ESTADO":null,"PAIS":"Uruguai","LATITUDE":-34.8945376,"LONGITUDE":-56.1528289,"PRIMEIRA_PARTIDA":"combinado uruguaio 1 x 4 Corinthians","DATA_PRIMEIRA_PARTIDA":"1951-06-30","ANO_PRIMEIRA_PARTIDA":1951,"ADVERSARIO":"combinado uruguaio","PLACAR":"1 x 4","COMPETICAO_PRIMEIRA_PARTIDA":"Torneio internacional Quadrangular de Montevidéu","MANDO_PRIMEIRA_PARTIDA":"Visitante","TOTAL_JOGOS":35,"VITORIAS":11,"EMPATES":14,"DERROTAS":10,"APROVEITAMENTO_PCT":44.8,"GOLS_MARCADOS":58,"GOLS_SOFRIDOS":39,"ESTADIOS_COM_ESTREIA_NA_DECADA":72,"OBSERVACOES":null,"FONTE_PRIMEIRA_PARTIDA":"Meu Timão / Acervo ATLAS1910","DESCRICAO_ORIGINAL":"Primeira partida: combinado uruguaio 1 x 4 Corinthians 30/06/1951 - Torneio internacional Quadrangular de Montevidéu","PAIS_ISO3":"URY"},"geometry":{"type":"Point","coordinates":[-56.1528289,-34.8945376]}},{"type":"Feature","properties":{"ESTADIO":"Coberto da ilha de Okinawa","NOME_OFICIAL":"Antigo Okinawa Athletic Park Stadium , atual Tapic Kenso Hiyagon Stadium","CIDADE":null,"ESTADO":null,"PAIS":"Japão","LATITUDE":26.3086934,"LONGITUDE":127.8212072,"PRIMEIRA_PARTIDA":"Primeir Partida: flugels 0 x 2 Corinthians 27/02/1994 - Amistoso","DATA_PRIMEIRA_PARTIDA":"1994-02-27","ANO_PRIMEIRA_PARTIDA":1994,"ADVERSARIO":"Primeir Partida: flugels","PLACAR":"0 x 2","COMPETICAO_PRIMEIRA_PARTIDA":"Amistoso","MANDO_PRIMEIRA_PARTIDA":"Visitante","TOTAL_JOGOS":1,"VITORIAS":1,"EMPATES":0,"DERROTAS":0,"APROVEITAMENTO_PCT":100.0,"GOLS_MARCADOS":2,"GOLS_SOFRIDOS":0,"ESTADIOS_COM_ESTREIA_NA_DECADA":35,"OBSERVACOES":"Referência: https://www.meutimao.com.br/jogo/2575/amistosos_1994/yokohama_flugels-0-x-2-corinthians | Primeir Partida: flugels 0 x 2 Corinthians 27/02/1994 - Amistoso","FONTE_PRIMEIRA_PARTIDA":"https://www.meutimao.com.br/jogo/2575/amistosos_1994/yokohama_flugels-0-x-2-corinthians","DESCRICAO_ORIGINAL":"Antigo Okinawa Athletic Park Stadium , atual Tapic Kenso Hiyagon Stadium<br><br>Referência: https://www.meutimao.com.br/jogo/2575/amistosos_1994/yokohama_flugels-0-x-2-corinthians<br><br>Primeir Partida: flugels 0 x 2 Corinthians 27/02/1994 - Amistoso","PAIS_ISO3":"JPN"},"geometry":{"type":"Point","coordinates":[127.8212072,26.3086934]}},{"type":"Feature","properties":{"ESTADIO":"Defensores del Chaco","NOME_OFICIAL":null,"CIDADE":null,"ESTADO":null,"PAIS":"Paraguai","LATITUDE":-25.2920837,"LONGITUDE":-57.6574033,"PRIMEIRA_PARTIDA":"seleção paraguaia 4 x 3 Corinthians","DATA_PRIMEIRA_PARTIDA":"1965-02-28","ANO_PRIMEIRA_PARTIDA":1965,"ADVERSARIO":"seleção paraguaia","PLACAR":"4 x 3","COMPETICAO_PRIMEIRA_PARTIDA":"Amistoso","MANDO_PRIMEIRA_PARTIDA":"Visitante","TOTAL_JOGOS":9,"VITORIAS":2,"EMPATES":3,"DERROTAS":4,"APROVEITAMENTO_PCT":33.3,"GOLS_MARCADOS":15,"GOLS_SOFRIDOS":17,"ESTADIOS_COM_ESTREIA_NA_DECADA":56,"OBSERVACOES":null,"FONTE_PRIMEIRA_PARTIDA":"Meu Timão / Acervo ATLAS1910","DESCRICAO_ORIGINAL":"Primeira partida: seleção paraguaia 4 x 3 Corinthians 28/02/1965 - Amistoso","PAIS_ISO3":"PRY"},"geometry":{"type":"Point","coordinates":[-57.6574033,-25.2920837]}},{"type":"Feature","properties":{"ESTADIO":"ESPN Wide World of Sports Complex","NOME_OFICIAL":null,"CIDADE":null,"ESTADO":null,"PAIS":"Estados Unidos","LATITUDE":28.3381102,"LONGITUDE":-81.5563845,"PRIMEIRA_PARTIDA":"colônia 1 x 0 Corinthians","DATA_PRIMEIRA_PARTIDA":"2015-01-15","ANO_PRIMEIRA_PARTIDA":2015,"ADVERSARIO":"colônia","PLACAR":"1 x 0","COMPETICAO_PRIMEIRA_PARTIDA":"Florida Cup","MANDO_PRIMEIRA_PARTIDA":"Mandante","TOTAL_JOGOS":4,"VITORIAS":2,"EMPATES":0,"DERROTAS":2,"APROVEITAMENTO_PCT":50.0,"GOLS_MARCADOS":6,"GOLS_SOFRIDOS":6,"ESTADIOS_COM_ESTREIA_NA_DECADA":31,"OBSERVACOES":null,"FONTE_PRIMEIRA_PARTIDA":"Meu Timão / Acervo ATLAS1910","DESCRICAO_ORIGINAL":"Primeira partida: colônia 1 x 0 Corinthians 15/01/2015 - Florida Cup","PAIS_ISO3":"USA"},"geometry":{"type":"Point","coordinates":[-81.5563845,28.3381102]}},{"type":"Feature","properties":{"ESTADIO":"Downing Stadium","NOME_OFICIAL":"Estadio demolido em 2002, dando espaço ao atual Icahn Stadium","CIDADE":null,"ESTADO":null,"PAIS":"Estados Unidos","LATITUDE":40.7929773,"LONGITUDE":-73.9244123,"PRIMEIRA_PARTIDA":"river Plate - ARG 1 x 1 Corinthians","DATA_PRIMEIRA_PARTIDA":"1969-08-02","ANO_PRIMEIRA_PARTIDA":1969,"ADVERSARIO":"river Plate - ARG","PLACAR":"1 x 1","COMPETICAO_PRIMEIRA_PARTIDA":"Troféu Apolo V","MANDO_PRIMEIRA_PARTIDA":"Visitante","TOTAL_JOGOS":2,"VITORIAS":0,"EMPATES":2,"DERROTAS":0,"APROVEITAMENTO_PCT":33.3,"GOLS_MARCADOS":2,"GOLS_SOFRIDOS":2,"ESTADIOS_COM_ESTREIA_NA_DECADA":56,"OBSERVACOES":null,"FONTE_PRIMEIRA_PARTIDA":"Meu Timão / Acervo ATLAS1910","DESCRICAO_ORIGINAL":"Estadio demolido em 2002, dando espaço ao atual Icahn Stadium<br><br>Primeira partida: river Plate - ARG 1 x 1 Corinthians 02/08/1969 - Troféu Apolo V","PAIS_ISO3":"USA"},"geometry":{"type":"Point","coordinates":[-73.9244123,40.7929773]}},{"type":"Feature","properties":{"ESTADIO":"El Egido","NOME_OFICIAL":"Alejandro Serrano Aguilar","CIDADE":"Cuenca","ESTADO":null,"PAIS":"Equador","LATITUDE":-2.9067434,"LONGITUDE":-79.0055218,"PRIMEIRA_PARTIDA":"deportivo cuenca 2 x 1 Corinthians","DATA_PRIMEIRA_PARTIDA":"1977-04-13","ANO_PRIMEIRA_PARTIDA":1977,"ADVERSARIO":"deportivo cuenca","PLACAR":"2 x 1","COMPETICAO_PRIMEIRA_PARTIDA":"Libertadores","MANDO_PRIMEIRA_PARTIDA":"Visitante","TOTAL_JOGOS":3,"VITORIAS":0,"EMPATES":0,"DERROTAS":3,"APROVEITAMENTO_PCT":0.0,"GOLS_MARCADOS":3,"GOLS_SOFRIDOS":6,"ESTADIOS_COM_ESTREIA_NA_DECADA":44,"OBSERVACOES":null,"FONTE_PRIMEIRA_PARTIDA":"Meu Timão / Acervo ATLAS1910","DESCRICAO_ORIGINAL":"Alejandro Serrano Aguilar<br><br>Primeira partida: deportivo cuenca 2 x 1 Corinthians 13/04/1977 - Libertadores","PAIS_ISO3":"ECU"},"geometry":{"type":"Point","coordinates":[-79.0055218,-2.9067434]}},{"type":"Feature","properties":{"ESTADIO":"Metropolitano de Fútbol de Lara","NOME_OFICIAL":null,"CIDADE":"Cabudare","ESTADO":null,"PAIS":"Venezuela","LATITUDE":9.99353,"LONGITUDE":-69.2201603,"PRIMEIRA_PARTIDA":"deportivo lara 2 x 7 Corinthians","DATA_PRIMEIRA_PARTIDA":"2018-05-17","ANO_PRIMEIRA_PARTIDA":2018,"ADVERSARIO":"deportivo lara","PLACAR":"2 x 7","COMPETICAO_PRIMEIRA_PARTIDA":"Libertadores","MANDO_PRIMEIRA_PARTIDA":"Visitante","TOTAL_JOGOS":2,"VITORIAS":2,"EMPATES":0,"DERROTAS":0,"APROVEITAMENTO_PCT":100.0,"GOLS_MARCADOS":9,"GOLS_SOFRIDOS":2,"ESTADIOS_COM_ESTREIA_NA_DECADA":31,"OBSERVACOES":null,"FONTE_PRIMEIRA_PARTIDA":"Meu Timão / Acervo ATLAS1910","DESCRICAO_ORIGINAL":"Primeira partida: deportivo lara 2 x 7 Corinthians 17/05/2018 - Libertadores","PAIS_ISO3":"VEN"},"geometry":{"type":"Point","coordinates":[-69.2201603,9.99353]}},{"type":"Feature","properties":{"ESTADIO":"Estádio de Ancara","NOME_OFICIAL":"19 Mayıs Stadium","CIDADE":"Ancara","ESTADO":null,"PAIS":"Turquia","LATITUDE":39.9401436,"LONGITUDE":32.8457395,"PRIMEIRA_PARTIDA":"seleção de ancara 1 x 3 Corinthians","DATA_PRIMEIRA_PARTIDA":"1952-05-03","ANO_PRIMEIRA_PARTIDA":1952,"ADVERSARIO":"seleção de ancara","PLACAR":"1 x 3","COMPETICAO_PRIMEIRA_PARTIDA":"Amis","MANDO_PRIMEIRA_PARTIDA":"Visitante","TOTAL_JOGOS":9,"VITORIAS":9,"EMPATES":0,"DERROTAS":0,"APROVEITAMENTO_PCT":100.0,"GOLS_MARCADOS":30,"GOLS_SOFRIDOS":12,"ESTADIOS_COM_ESTREIA_NA_DECADA":72,"OBSERVACOES":"Localização não confirmada, não existe facilmente um 'estádio de ancara'. Levei em conta a data de construção do estádio e sua localização","FONTE_PRIMEIRA_PARTIDA":"Meu Timão / Acervo ATLAS1910","DESCRICAO_ORIGINAL":"19 Mayıs Stadium<br><br>Localização não confirmada, não existe facilmente um 'estádio de ancara'. Levei em conta a data de construção do estádio e sua localização<br><br>Primeira partida: seleção de ancara 1 x 3 Corinthians 03/05/1952 - Amis","PAIS_ISO3":"TUR"},"geometry":{"type":"Point","coordinates":[32.8457395,39.9401436]}},{"type":"Feature","properties":{"ESTADIO":"De Kuip","NOME_OFICIAL":"Feyenoord Stadium","CIDADE":null,"ESTADO":null,"PAIS":"Holanda","LATITUDE":51.8939035,"LONGITUDE":4.5231354,"PRIMEIRA_PARTIDA":"FEYENOORD ROTTERDAM 5x1 CORINTHIANS","DATA_PRIMEIRA_PARTIDA":"1959-05-21","ANO_PRIMEIRA_PARTIDA":1959,"ADVERSARIO":"FEYENOORD ROTTERDAM","PLACAR":"5x1","COMPETICAO_PRIMEIRA_PARTIDA":"Amistosos 1959","MANDO_PRIMEIRA_PARTIDA":"Visitante","TOTAL_JOGOS":2,"VITORIAS":0,"EMPATES":0,"DERROTAS":2,"APROVEITAMENTO_PCT":0.0,"GOLS_MARCADOS":3,"GOLS_SOFRIDOS":9,"ESTADIOS_COM_ESTREIA_NA_DECADA":72,"OBSERVACOES":"No aplicativo \"Almanaque do Timão\", consta apenas o jogo Feyenoord 4 x 2 Corinthians, de 1970. Porém, outro jogo aparece no estádio 'Nehnoord,', Feyenoord 5 x 1 Corinthians de 1959, mas esse estádio aparentemente não existe.","FONTE_PRIMEIRA_PARTIDA":"https://www.meutimao.com.br/jogo/5193/amistosos-1959/amistoso/feyenoord_rotterdam-5-x-1-corinthians","DESCRICAO_ORIGINAL":"Feyenoord Stadium<br><br>No aplicativo \"Almanaque do Timão\", consta apenas o jogo Feyenoord 4 x 2 Corinthians, de 1970. Porém, outro jogo aparece no estádio 'Nehnoord,', Feyenoord 5 x 1 Corinthians de 1959, mas esse estádio aparentemente não existe.","PAIS_ISO3":"NLD"},"geometry":{"type":"Point","coordinates":[4.5231354,51.8939035]}},{"type":"Feature","properties":{"ESTADIO":"EverBank Field","NOME_OFICIAL":null,"CIDADE":null,"ESTADO":null,"PAIS":"Estados Unidos","LATITUDE":30.3239536,"LONGITUDE":-81.6372528,"PRIMEIRA_PARTIDA":"Corinthians 2 x 1 bayer leverkusen","DATA_PRIMEIRA_PARTIDA":"2015-01-17","ANO_PRIMEIRA_PARTIDA":2015,"ADVERSARIO":"bayer leverkusen","PLACAR":"2 x 1","COMPETICAO_PRIMEIRA_PARTIDA":"Florida Cup","MANDO_PRIMEIRA_PARTIDA":"Mandante","TOTAL_JOGOS":2,"VITORIAS":2,"EMPATES":0,"DERROTAS":0,"APROVEITAMENTO_PCT":100.0,"GOLS_MARCADOS":4,"GOLS_SOFRIDOS":2,"ESTADIOS_COM_ESTREIA_NA_DECADA":31,"OBSERVACOES":null,"FONTE_PRIMEIRA_PARTIDA":"Meu Timão / Acervo ATLAS1910","DESCRICAO_ORIGINAL":"Primeira partida: Corinthians 2 x 1 bayer leverkusen 17/01/2015 - Florida Cup","PAIS_ISO3":"USA"},"geometry":{"type":"Point","coordinates":[-81.6372528,30.3239536]}},{"type":"Feature","properties":{"ESTADIO":"Exploria Stadium","NOME_OFICIAL":"Orlando City Stadium","CIDADE":null,"ESTADO":null,"PAIS":"Estados Unidos","LATITUDE":28.5412473,"LONGITUDE":-81.3890904,"PRIMEIRA_PARTIDA":"CORINTHIANS 1x1 PSV EINDHOVEN","DATA_PRIMEIRA_PARTIDA":"2018-01-10","ANO_PRIMEIRA_PARTIDA":2018,"ADVERSARIO":"PSV EINDHOVEN","PLACAR":"1x1","COMPETICAO_PRIMEIRA_PARTIDA":"Florida Cup 2018","MANDO_PRIMEIRA_PARTIDA":"Mandante","TOTAL_JOGOS":5,"VITORIAS":2,"EMPATES":1,"DERROTAS":2,"APROVEITAMENTO_PCT":46.7,"GOLS_MARCADOS":7,"GOLS_SOFRIDOS":7,"ESTADIOS_COM_ESTREIA_NA_DECADA":31,"OBSERVACOES":null,"FONTE_PRIMEIRA_PARTIDA":"https://www.meutimao.com.br/jogo/796/florida-cup-2018/corinthians-1-x-1-psv_eindhoven","DESCRICAO_ORIGINAL":"Orlando City Stadium<br><br>Primeira partida: Corinthians 2 x 1 new york city 15/01/2020 - Florida Cup","PAIS_ISO3":"USA"},"geometry":{"type":"Point","coordinates":[-81.3890904,28.5412473]}},{"type":"Feature","properties":{"ESTADIO":"FAU Stadium","NOME_OFICIAL":null,"CIDADE":null,"ESTADO":null,"PAIS":"Estados Unidos","LATITUDE":26.3761349,"LONGITUDE":-80.1016311,"PRIMEIRA_PARTIDA":"Corinthians 0 x 1 atletico mineiro","DATA_PRIMEIRA_PARTIDA":"2016-01-17","ANO_PRIMEIRA_PARTIDA":2016,"ADVERSARIO":"atletico mineiro","PLACAR":"0 x 1","COMPETICAO_PRIMEIRA_PARTIDA":"Florida Cup","MANDO_PRIMEIRA_PARTIDA":"Mandante","TOTAL_JOGOS":2,"VITORIAS":0,"EMPATES":0,"DERROTAS":2,"APROVEITAMENTO_PCT":0.0,"GOLS_MARCADOS":0,"GOLS_SOFRIDOS":2,"ESTADIOS_COM_ESTREIA_NA_DECADA":31,"OBSERVACOES":null,"FONTE_PRIMEIRA_PARTIDA":"Meu Timão / Acervo ATLAS1910","DESCRICAO_ORIGINAL":"Primeira Partida: Corinthians 0 x 1 atletico mineiro 17/01/2016 - Florida Cup","PAIS_ISO3":"USA"},"geometry":{"type":"Point","coordinates":[-80.1016311,26.3761349]}},{"type":"Feature","properties":{"ESTADIO":"Ismet Inonu/Mitatpasa","NOME_OFICIAL":"Vodafone Park","CIDADE":"Istambul","ESTADO":null,"PAIS":"Turquia","LATITUDE":41.0393954,"LONGITUDE":28.9941087,"PRIMEIRA_PARTIDA":"Beşiktaş 0 x 1 Corinthians","DATA_PRIMEIRA_PARTIDA":"1952-05-24","ANO_PRIMEIRA_PARTIDA":1952,"ADVERSARIO":"Beşiktaş","PLACAR":"0 x 1","COMPETICAO_PRIMEIRA_PARTIDA":"Torneio de Istambul","MANDO_PRIMEIRA_PARTIDA":null,"TOTAL_JOGOS":1,"VITORIAS":0,"EMPATES":0,"DERROTAS":0,"APROVEITAMENTO_PCT":0.0,"GOLS_MARCADOS":0,"GOLS_SOFRIDOS":0,"ESTADIOS_COM_ESTREIA_NA_DECADA":72,"OBSERVACOES":"Estádio demolido em 2013 para construção de nova Arena | Joos da excursão do Corinthians a Europa em 1952 e um amistoso em 1972 (https://timoneirosblog.wordpress.com/2017/05/16/corinthians-derrota-djugardens-em-excursao-pela","FONTE_PRIMEIRA_PARTIDA":"https://timoneirosblog.wordpress.com/2017/05/16/corinthians-derrota-djugardens-em-excursao-pela","DESCRICAO_ORIGINAL":"Vodafone Park<br><br>Estádio demolido em 2013 para construção de nova Arena<br><br>Joos da excursão do Corinthians a Europa em 1952 e um amistoso em 1972 (https://timoneirosblog.wordpress.com/2017/05/16/corinthians-derrota-djugardens-em-excursao-pela","PAIS_ISO3":"TUR"},"geometry":{"type":"Point","coordinates":[28.9941087,41.0393954]}},{"type":"Feature","properties":{"ESTADIO":"Mohamed V","NOME_OFICIAL":null,"CIDADE":"Casablanca","ESTADO":null,"PAIS":"Marrocos","LATITUDE":33.5827953,"LONGITUDE":-7.6467228,"PRIMEIRA_PARTIDA":"seleção marroquina 1 x 0 Corinthians","DATA_PRIMEIRA_PARTIDA":"1970-05-10","ANO_PRIMEIRA_PARTIDA":1970,"ADVERSARIO":"seleção marroquina","PLACAR":"1 x 0","COMPETICAO_PRIMEIRA_PARTIDA":"Amistoso","MANDO_PRIMEIRA_PARTIDA":"Visitante","TOTAL_JOGOS":3,"VITORIAS":0,"EMPATES":0,"DERROTAS":3,"APROVEITAMENTO_PCT":0.0,"GOLS_MARCADOS":0,"GOLS_SOFRIDOS":3,"ESTADIOS_COM_ESTREIA_NA_DECADA":44,"OBSERVACOES":null,"FONTE_PRIMEIRA_PARTIDA":"Meu Timão / Acervo ATLAS1910","DESCRICAO_ORIGINAL":"Primeira partida: seleção marroquina 1 x 0 Corinthians 10/05/1970 - Amistoso","PAIS_ISO3":"MAR"},"geometry":{"type":"Point","coordinates":[-7.6467228,33.5827953]}},{"type":"Feature","properties":{"ESTADIO":"Monumental de Santiago","NOME_OFICIAL":"Estádio Monumental David Arellano","CIDADE":"Santiago","ESTADO":null,"PAIS":"Chile","LATITUDE":-33.5066621,"LONGITUDE":-70.6060094,"PRIMEIRA_PARTIDA":"colo colo 0 x 2 Corinthians","DATA_PRIMEIRA_PARTIDA":"2001-07-26","ANO_PRIMEIRA_PARTIDA":2001,"ADVERSARIO":"colo colo","PLACAR":"0 x 2","COMPETICAO_PRIMEIRA_PARTIDA":"Mercosul","MANDO_PRIMEIRA_PARTIDA":"Visitante","TOTAL_JOGOS":6,"VITORIAS":3,"EMPATES":0,"DERROTAS":3,"APROVEITAMENTO_PCT":50.0,"GOLS_MARCADOS":6,"GOLS_SOFRIDOS":3,"ESTADIOS_COM_ESTREIA_NA_DECADA":21,"OBSERVACOES":null,"FONTE_PRIMEIRA_PARTIDA":"Meu Timão / Acervo ATLAS1910","DESCRICAO_ORIGINAL":"Estádio Monumental David Arellano<br><br>Primeira partida: colo colo 0 x 2 Corinthians 26/07/2001 - Mercosul","PAIS_ISO3":"CHL"},"geometry":{"type":"Point","coordinates":[-70.6060094,-33.5066621]}},{"type":"Feature","properties":{"ESTADIO":"Municipal de Novi Sadi","NOME_OFICIAL":"Estádio Karađorđe, inaugurado em 1924 e casa do adversário.","CIDADE":"Novi Sad","ESTADO":null,"PAIS":"Sérvia","LATITUDE":45.2468973,"LONGITUDE":19.8421991,"PRIMEIRA_PARTIDA":"vojvodina 1 x 1 Corinthains","DATA_PRIMEIRA_PARTIDA":"1970-05-13","ANO_PRIMEIRA_PARTIDA":1970,"ADVERSARIO":"vojvodina","PLACAR":"1 x 1","COMPETICAO_PRIMEIRA_PARTIDA":null,"MANDO_PRIMEIRA_PARTIDA":"Visitante","TOTAL_JOGOS":3,"VITORIAS":0,"EMPATES":3,"DERROTAS":0,"APROVEITAMENTO_PCT":33.3,"GOLS_MARCADOS":3,"GOLS_SOFRIDOS":3,"ESTADIOS_COM_ESTREIA_NA_DECADA":44,"OBSERVACOES":"Ingresso da partida: https://m.facebook.com/mantoalvinegro1910/photos/a.1686456814726710/2150212738351113/?type=3","FONTE_PRIMEIRA_PARTIDA":"https://m.facebook.com/mantoalvinegro1910/photos/a.1686456814726710/2150212738351113/?type=3","DESCRICAO_ORIGINAL":"Estádio Karađorđe, inaugurado em 1924 e casa do adversário.<br><br>Ingresso da partida: https://m.facebook.com/mantoalvinegro1910/photos/a.1686456814726710/2150212738351113/?type=3<br><br>Primeira partida: vojvodina 1 X 1 Corinthains<br>13/05/1970 -","PAIS_ISO3":"SRB"},"geometry":{"type":"Point","coordinates":[19.8421991,45.2468973]}},{"type":"Feature","properties":{"ESTADIO":"Nacional de Bangcoc","NOME_OFICIAL":"Estádio Suphachalasai","CIDADE":"Bangcoc","ESTADO":null,"PAIS":"Tailândia","LATITUDE":13.7455077,"LONGITUDE":100.5256813,"PRIMEIRA_PARTIDA":"Tailândia 1 x 2 Corinthians","DATA_PRIMEIRA_PARTIDA":"1984-01-18","ANO_PRIMEIRA_PARTIDA":1984,"ADVERSARIO":"Seleção da Tailândia","PLACAR":"1 x 2","COMPETICAO_PRIMEIRA_PARTIDA":"Torneio Internacional da Tailândia","MANDO_PRIMEIRA_PARTIDA":null,"TOTAL_JOGOS":1,"VITORIAS":0,"EMPATES":0,"DERROTAS":0,"APROVEITAMENTO_PCT":0.0,"GOLS_MARCADOS":0,"GOLS_SOFRIDOS":0,"ESTADIOS_COM_ESTREIA_NA_DECADA":37,"OBSERVACOES":"Consta outro estadio como o nacional (Estádio Nacional Rajamangala) mas inaugurado somente em 1998, o Corinthians jogou em Bangcoc em 1984, dando a entender que correto é o Suphachalasai","FONTE_PRIMEIRA_PARTIDA":"Meu Timão / Acervo ATLAS1910","DESCRICAO_ORIGINAL":"Estádio Suphachalasai<br><br>Consta outro estadio como o nacional (Estádio Nacional Rajamangala) mas inaugurado somente em 1998, o Corinthians jogou em Bangcoc em 1984, dando a entender que correto é o Suphachalasai<br><br>Primeira partida: seleção","PAIS_ISO3":"THA"},"geometry":{"type":"Point","coordinates":[100.5256813,13.7455077]}},{"type":"Feature","properties":{"ESTADIO":"Nacional de Copenhague","NOME_OFICIAL":"Estádio Parken","CIDADE":"Copenhague","ESTADO":null,"PAIS":"Dinamarca","LATITUDE":55.7027169,"LONGITUDE":12.572316,"PRIMEIRA_PARTIDA":"Dinamarca 1 x 2 Corinthians","DATA_PRIMEIRA_PARTIDA":"1984-06-05","ANO_PRIMEIRA_PARTIDA":1984,"ADVERSARIO":"Seleção da Dinamarca","PLACAR":"1 x 2","COMPETICAO_PRIMEIRA_PARTIDA":"Amistoso Internacional","MANDO_PRIMEIRA_PARTIDA":null,"TOTAL_JOGOS":1,"VITORIAS":0,"EMPATES":0,"DERROTAS":0,"APROVEITAMENTO_PCT":0.0,"GOLS_MARCADOS":0,"GOLS_SOFRIDOS":0,"ESTADIOS_COM_ESTREIA_NA_DECADA":37,"OBSERVACOES":"Referências: https://web.archive.org/web/20140826114454/http://teliaparken.dk/presse/parkens-historie/ | https://pt.wikipedia.org/wiki/Est%C3%A1dio_Parken","FONTE_PRIMEIRA_PARTIDA":"https://web.archive.org/web/20140826114454/http://teliaparken.dk/presse/parkens-historie/","DESCRICAO_ORIGINAL":"Estádio Parken<br><br>Referências: https://web.archive.org/web/20140826114454/http://teliaparken.dk/presse/parkens-historie/<br>https://pt.wikipedia.org/wiki/Est%C3%A1dio_Parken<br><br>Primeira partida: staevenet/Combinado Copenhague 1 x  1 Corinthian","PAIS_ISO3":"DNK"},"geometry":{"type":"Point","coordinates":[12.572316,55.7027169]}},{"type":"Feature","properties":{"ESTADIO":"Nacional de Guayaquil","NOME_OFICIAL":"Estádio Monumental Isidro Romero Carbo","CIDADE":"Guayaquil","ESTADO":null,"PAIS":"Equador","LATITUDE":-2.186578,"LONGITUDE":-79.9250389,"PRIMEIRA_PARTIDA":"emelec 1 x 0 Corinthians","DATA_PRIMEIRA_PARTIDA":"1966-04-13","ANO_PRIMEIRA_PARTIDA":1966,"ADVERSARIO":"emelec","PLACAR":"1 x 0","COMPETICAO_PRIMEIRA_PARTIDA":"Amistoso","MANDO_PRIMEIRA_PARTIDA":"Visitante","TOTAL_JOGOS":3,"VITORIAS":1,"EMPATES":0,"DERROTAS":2,"APROVEITAMENTO_PCT":33.3,"GOLS_MARCADOS":5,"GOLS_SOFRIDOS":4,"ESTADIOS_COM_ESTREIA_NA_DECADA":56,"OBSERVACOES":"Referências: | https://www.meutimao.com.br/jogo/4635/amistosos_1966/emelec-x-corinthians","FONTE_PRIMEIRA_PARTIDA":"https://www.meutimao.com.br/jogo/4635/amistosos_1966/emelec-x-corinthians","DESCRICAO_ORIGINAL":"Estádio Monumental Isidro Romero Carbo<br><br>Referências:<br>https://www.meutimao.com.br/jogo/4635/amistosos_1966/emelec-x-corinthians<br><br>Primeira partida: emelec 1 x 0 Corinthians 13/04/1966 - Amistoso","PAIS_ISO3":"ECU"},"geometry":{"type":"Point","coordinates":[-79.9250389,-2.186578]}},{"type":"Feature","properties":{"ESTADIO":"Nacional de Lima","NOME_OFICIAL":"Estádio Nacional do Peru","CIDADE":"Lima","ESTADO":null,"PAIS":"Peru","LATITUDE":-12.0672896,"LONGITUDE":-77.0337292,"PRIMEIRA_PARTIDA":"Primeiro jogo:  universitario 3 x 3 Corinthians 13/02/1954 - Amistoso","DATA_PRIMEIRA_PARTIDA":"1954-02-13","ANO_PRIMEIRA_PARTIDA":1954,"ADVERSARIO":"Primeiro jogo:  universitario","PLACAR":"3 x 3","COMPETICAO_PRIMEIRA_PARTIDA":"Amistoso","MANDO_PRIMEIRA_PARTIDA":"Visitante","TOTAL_JOGOS":54,"VITORIAS":27,"EMPATES":18,"DERROTAS":9,"APROVEITAMENTO_PCT":61.1,"GOLS_MARCADOS":120,"GOLS_SOFRIDOS":84,"ESTADIOS_COM_ESTREIA_NA_DECADA":72,"OBSERVACOES":"Referências: | https://pt.wikipedia.org/wiki/Est%C3%A1dio_Nacional_do_Peru construção 1952 | Primeiro jogo:  universitario 3 x 3 Corinthians 13/02/1954 - Amistoso","FONTE_PRIMEIRA_PARTIDA":"https://pt.wikipedia.org/wiki/Est%C3%A1dio_Nacional_do_Peru","DESCRICAO_ORIGINAL":"Estádio Nacional do Peru<br><br>Referências:<br>https://pt.wikipedia.org/wiki/Est%C3%A1dio_Nacional_do_Peru construção 1952<br><br>Primeiro jogo:  universitario 3 x 3 Corinthians 13/02/1954 - Amistoso","PAIS_ISO3":"PER"},"geometry":{"type":"Point","coordinates":[-77.0337292,-12.0672896]}},{"type":"Feature","properties":{"ESTADIO":"Nacional de Santiago","NOME_OFICIAL":null,"CIDADE":"Lima","ESTADO":null,"PAIS":"Chile","LATITUDE":-33.4646281,"LONGITUDE":-70.6106762,"PRIMEIRA_PARTIDA":"UNIVERSITARIO DE DEPORTES 3x3 CORINTHIANS","DATA_PRIMEIRA_PARTIDA":"1954-02-13","ANO_PRIMEIRA_PARTIDA":1954,"ADVERSARIO":"UNIVERSITARIO DE DEPORTES","PLACAR":"3x3","COMPETICAO_PRIMEIRA_PARTIDA":"Amistosos 1954","MANDO_PRIMEIRA_PARTIDA":"Visitante","TOTAL_JOGOS":54,"VITORIAS":27,"EMPATES":18,"DERROTAS":9,"APROVEITAMENTO_PCT":61.1,"GOLS_MARCADOS":120,"GOLS_SOFRIDOS":84,"ESTADIOS_COM_ESTREIA_NA_DECADA":72,"OBSERVACOES":null,"FONTE_PRIMEIRA_PARTIDA":"https://www.meutimao.com.br/jogo/5550/amistosos-1954/amistoso/universitario_de_deportes-3-x-3-corinthians","DESCRICAO_ORIGINAL":"Primeira partida: combinado universidads católica e de chile 2 x 4 Corinthians 28/01/1960 - Amistoso","PAIS_ISO3":"CHL"},"geometry":{"type":"Point","coordinates":[-70.6106762,-33.4646281]}},{"type":"Feature","properties":{"ESTADIO":"Nissam Stadium","NOME_OFICIAL":"Estádio Internacional de Yokohama","CIDADE":null,"ESTADO":null,"PAIS":"Japão","LATITUDE":35.5099461,"LONGITUDE":139.6063937,"PRIMEIRA_PARTIDA":"CORINTHIANS 1x0 CHELSEA","DATA_PRIMEIRA_PARTIDA":"2012-12-16","ANO_PRIMEIRA_PARTIDA":2012,"ADVERSARIO":"CHELSEA","PLACAR":"1x0","COMPETICAO_PRIMEIRA_PARTIDA":"Mundial de Clubes 2012","MANDO_PRIMEIRA_PARTIDA":"Mandante","TOTAL_JOGOS":1,"VITORIAS":1,"EMPATES":0,"DERROTAS":0,"APROVEITAMENTO_PCT":100.0,"GOLS_MARCADOS":1,"GOLS_SOFRIDOS":0,"ESTADIOS_COM_ESTREIA_NA_DECADA":31,"OBSERVACOES":null,"FONTE_PRIMEIRA_PARTIDA":"https://www.meutimao.com.br/jogo/374/mundial-de-clubes-2012/final/corinthians-1-x-0-chelsea","DESCRICAO_ORIGINAL":"Estádio Internacional de Yokohama<br><br>Primeira partida: Corinthians 1 x 0 chelsea - Final do mundial de clubes 2012","PAIS_ISO3":"JPN"},"geometry":{"type":"Point","coordinates":[139.6063937,35.5099461]}},{"type":"Feature","properties":{"ESTADIO":"Nya Ullevi","NOME_OFICIAL":"Estádio Gamla Ullevi","CIDADE":null,"ESTADO":null,"PAIS":"Suécia","LATITUDE":57.7062579,"LONGITUDE":11.9801221,"PRIMEIRA_PARTIDA":"SELEÇÃO DE GOTEMBURGO 3x9 CORINTHIANS","DATA_PRIMEIRA_PARTIDA":"1952-05-29","ANO_PRIMEIRA_PARTIDA":1952,"ADVERSARIO":"SELEÇÃO DE GOTEMBURGO","PLACAR":"3x9","COMPETICAO_PRIMEIRA_PARTIDA":"Amistosos 1952","MANDO_PRIMEIRA_PARTIDA":"Visitante","TOTAL_JOGOS":1,"VITORIAS":1,"EMPATES":0,"DERROTAS":0,"APROVEITAMENTO_PCT":100.0,"GOLS_MARCADOS":9,"GOLS_SOFRIDOS":3,"ESTADIOS_COM_ESTREIA_NA_DECADA":72,"OBSERVACOES":"* O estádio Nya Ullevi aparece no wikipedia como construido em 1958, o jogo do Corinthians foi em 1952, por isso assinalei no Gamla Ullevi, construido em 1916","FONTE_PRIMEIRA_PARTIDA":"https://www.meutimao.com.br/jogo/5703/amistosos-1952/amistoso/selecao_de_gotemburgo-3-x-9-corinthians","DESCRICAO_ORIGINAL":"Estádio Gamla Ullevi<br><br>* O estádio Nya Ullevi aparece no wikipedia como construido em 1958, o jogo do Corinthians foi em 1952, por isso assinalei no Gamla Ullevi, construido em 1916<br><br>Primeira partida: seleção de gottemburgo 3 x 9 Corinthia","PAIS_ISO3":"SWE"},"geometry":{"type":"Point","coordinates":[11.9801221,57.7062579]}},{"type":"Feature","properties":{"ESTADIO":"Olimpico Regional","NOME_OFICIAL":"Estádio Municipal Arnaldo Busato","CIDADE":null,"ESTADO":null,"PAIS":"Brazil","LATITUDE":-24.9751235,"LONGITUDE":-53.5023756,"PRIMEIRA_PARTIDA":"cascavel 1 x 1 Corinthians","DATA_PRIMEIRA_PARTIDA":"1982-11-12","ANO_PRIMEIRA_PARTIDA":1982,"ADVERSARIO":"cascavel","PLACAR":"1 x 1","COMPETICAO_PRIMEIRA_PARTIDA":"Amistoso","MANDO_PRIMEIRA_PARTIDA":"Visitante","TOTAL_JOGOS":6,"VITORIAS":2,"EMPATES":4,"DERROTAS":0,"APROVEITAMENTO_PCT":55.6,"GOLS_MARCADOS":10,"GOLS_SOFRIDOS":4,"ESTADIOS_COM_ESTREIA_NA_DECADA":37,"OBSERVACOES":null,"FONTE_PRIMEIRA_PARTIDA":"Meu Timão / Acervo ATLAS1910","DESCRICAO_ORIGINAL":"Estádio Municipal Arnaldo Busato<br><br>Primeira partida: cascavel 1 x 1 Corinthians 12/11/1982 - Amistoso","PAIS_ISO3":"BRA","FONTE_CORRECAO_PAIS":"https://data.geocode.earth/wof/dist/legacy/whosonfirst-data-country-latest.tar.bz2"},"geometry":{"type":"Point","coordinates":[-53.5023756,-24.9751235]}},{"type":"Feature","properties":{"ESTADIO":"Olimpico da Cidade do Mexico","NOME_OFICIAL":"Estadio Olímpico Universitario","CIDADE":"Cidade do México","ESTADO":null,"PAIS":"México","LATITUDE":19.3319125,"LONGITUDE":-99.1921777,"PRIMEIRA_PARTIDA":"u.n.a.m - pumas 3 x 0 Corinthians","DATA_PRIMEIRA_PARTIDA":"2005-11-09","ANO_PRIMEIRA_PARTIDA":2005,"ADVERSARIO":"u.n.a.m - pumas","PLACAR":"3 x 0","COMPETICAO_PRIMEIRA_PARTIDA":"Sulamericana","MANDO_PRIMEIRA_PARTIDA":"Visitante","TOTAL_JOGOS":1,"VITORIAS":0,"EMPATES":0,"DERROTAS":1,"APROVEITAMENTO_PCT":0.0,"GOLS_MARCADOS":0,"GOLS_SOFRIDOS":3,"ESTADIOS_COM_ESTREIA_NA_DECADA":21,"OBSERVACOES":null,"FONTE_PRIMEIRA_PARTIDA":"Meu Timão / Acervo ATLAS1910","DESCRICAO_ORIGINAL":"Estadio Olímpico Universitario<br><br>Primeira partida: u.n.a.m - pumas 3 x 0 Corinthians 09/11/2005 - Sulamericana","PAIS_ISO3":"MEX"},"geometry":{"type":"Point","coordinates":[-99.1921777,19.3319125]}},{"type":"Feature","properties":{"ESTADIO":"Olimpico de Caracas","NOME_OFICIAL":"Estádio Olímpico de la Universidad Central de Venezuela","CIDADE":null,"ESTADO":null,"PAIS":"Venezuela","LATITUDE":10.4913486,"LONGITUDE":-66.885831,"PRIMEIRA_PARTIDA":"CORINTHIANS 1x0 ROMA","DATA_PRIMEIRA_PARTIDA":"1953-07-14","ANO_PRIMEIRA_PARTIDA":1953,"ADVERSARIO":"ROMA","PLACAR":"1x0","COMPETICAO_PRIMEIRA_PARTIDA":"Pequena Taça do Mundo 1953","MANDO_PRIMEIRA_PARTIDA":"Mandante","TOTAL_JOGOS":14,"VITORIAS":12,"EMPATES":2,"DERROTAS":0,"APROVEITAMENTO_PCT":90.5,"GOLS_MARCADOS":26,"GOLS_SOFRIDOS":10,"ESTADIOS_COM_ESTREIA_NA_DECADA":72,"OBSERVACOES":"Estádio onde aconteceram os jogos da Pequena Taça do Mundo de 1953, vale a pena ver o video  do \"The Leonardo SCCP\" https://www.youtube.com/watch?v=Ft4j5xSOauM","FONTE_PRIMEIRA_PARTIDA":"https://www.meutimao.com.br/jogo/5636/pequena-taca-do-mundo-1953/corinthians-1-x-0-roma","DESCRICAO_ORIGINAL":"Estádio Olímpico de la Universidad Central de Venezuela<br><br>Estádio onde aconteceram os jogos da Pequena Taça do Mundo de 1953, vale a pena ver o video  do \"The Leonardo SCCP\" https://www.youtube.com/watch?v=Ft4j5xSOauM<br><br>Primeira partida: C","PAIS_ISO3":"VEN"},"geometry":{"type":"Point","coordinates":[-66.885831,10.4913486]}},{"type":"Feature","properties":{"ESTADIO":"Olimpico de  Halmstad","NOME_OFICIAL":"Örjans Vall","CIDADE":"Halmstad","ESTADO":null,"PAIS":"Suécia","LATITUDE":56.6842999,"LONGITUDE":12.867545,"PRIMEIRA_PARTIDA":"seleção de halmstads/hamlia 1 x 10 Corinthians","DATA_PRIMEIRA_PARTIDA":"1952-06-08","ANO_PRIMEIRA_PARTIDA":1952,"ADVERSARIO":"seleção de halmstads/hamlia","PLACAR":"1 x 10","COMPETICAO_PRIMEIRA_PARTIDA":"Amistoso","MANDO_PRIMEIRA_PARTIDA":"Visitante","TOTAL_JOGOS":3,"VITORIAS":3,"EMPATES":0,"DERROTAS":0,"APROVEITAMENTO_PCT":100.0,"GOLS_MARCADOS":30,"GOLS_SOFRIDOS":3,"ESTADIOS_COM_ESTREIA_NA_DECADA":72,"OBSERVACOES":"Estádio construido em 1922, não encontrei um olimpico da cidade, parece ser o Örjans Vall o estádio correto.","FONTE_PRIMEIRA_PARTIDA":"Meu Timão / Acervo ATLAS1910","DESCRICAO_ORIGINAL":"Örjans Vall<br><br>Estádio construido em 1922, não encontrei um olimpico da cidade, parece ser o Örjans Vall o estádio correto.<br><br>Primeira partida: seleção de halmstads/hamlia 1 x 10 Corinthians 08/06/1952 - Amistoso","PAIS_ISO3":"SWE"},"geometry":{"type":"Point","coordinates":[12.867545,56.6842999]}},{"type":"Feature","properties":{"ESTADIO":"Olímpico de Helsinque","NOME_OFICIAL":null,"CIDADE":"Helsinque","ESTADO":null,"PAIS":"Finlândia","LATITUDE":60.187902,"LONGITUDE":24.926746,"PRIMEIRA_PARTIDA":"seleção filandesa (Olimpica) 1 x 5 Corinthians","DATA_PRIMEIRA_PARTIDA":"1952-06-01","ANO_PRIMEIRA_PARTIDA":1952,"ADVERSARIO":"seleção filandesa (Olimpica)","PLACAR":"1 x 5","COMPETICAO_PRIMEIRA_PARTIDA":"Amistoso","MANDO_PRIMEIRA_PARTIDA":"Visitante","TOTAL_JOGOS":3,"VITORIAS":3,"EMPATES":0,"DERROTAS":0,"APROVEITAMENTO_PCT":100.0,"GOLS_MARCADOS":15,"GOLS_SOFRIDOS":3,"ESTADIOS_COM_ESTREIA_NA_DECADA":72,"OBSERVACOES":null,"FONTE_PRIMEIRA_PARTIDA":"Meu Timão / Acervo ATLAS1910","DESCRICAO_ORIGINAL":"Primeira partida: seleção filandesa (Olimpica) 1 x 5 Corinthians 01/06/1952 - Amistoso","PAIS_ISO3":"FIN"},"geometry":{"type":"Point","coordinates":[24.926746,60.187902]}},{"type":"Feature","properties":{"ESTADIO":"Olímpico de Roma","NOME_OFICIAL":null,"CIDADE":"Roma","ESTADO":null,"PAIS":"Itália","LATITUDE":41.934077,"LONGITUDE":12.454725,"PRIMEIRA_PARTIDA":"roma 0 x 1 Corinthians","DATA_PRIMEIRA_PARTIDA":"1972-06-20","ANO_PRIMEIRA_PARTIDA":1972,"ADVERSARIO":"roma","PLACAR":"0 x 1","COMPETICAO_PRIMEIRA_PARTIDA":"Amistoso","MANDO_PRIMEIRA_PARTIDA":"Visitante","TOTAL_JOGOS":3,"VITORIAS":3,"EMPATES":0,"DERROTAS":0,"APROVEITAMENTO_PCT":100.0,"GOLS_MARCADOS":3,"GOLS_SOFRIDOS":0,"ESTADIOS_COM_ESTREIA_NA_DECADA":44,"OBSERVACOES":null,"FONTE_PRIMEIRA_PARTIDA":"Meu Timão / Acervo ATLAS1910","DESCRICAO_ORIGINAL":"Primeira partida: roma 0 x 1 Corinthians 20/06/1972 - Amistoso","PAIS_ISO3":"ITA"},"geometry":{"type":"Point","coordinates":[12.454725,41.934077]}},{"type":"Feature","properties":{"ESTADIO":"Pachuca","NOME_OFICIAL":"*No Almanaque do timão, o estádio aparece como 'Pachuca', porém, os jogos desse troféu são atribuidos mais precisamente para o estádio Revolucion Mexicana https://pt.wikipedia.org/wiki/Trof%C3%A9u_Internacional_Feira_de_Hidalgo_de_1981","CIDADE":"Pachuca","ESTADO":null,"PAIS":"México","LATITUDE":20.1158676,"LONGITUDE":-98.7411083,"PRIMEIRA_PARTIDA":"INDEPENDIENTE 1x2 CORINTHIANS","DATA_PRIMEIRA_PARTIDA":"1981-11-18","ANO_PRIMEIRA_PARTIDA":1981,"ADVERSARIO":"INDEPENDIENTE","PLACAR":"1x2","COMPETICAO_PRIMEIRA_PARTIDA":"Troféu Feira de Hidalgo 1981","MANDO_PRIMEIRA_PARTIDA":"Visitante","TOTAL_JOGOS":6,"VITORIAS":6,"EMPATES":0,"DERROTAS":0,"APROVEITAMENTO_PCT":100.0,"GOLS_MARCADOS":12,"GOLS_SOFRIDOS":3,"ESTADIOS_COM_ESTREIA_NA_DECADA":37,"OBSERVACOES":"Hoje","FONTE_PRIMEIRA_PARTIDA":"https://www.meutimao.com.br/jogo/3563/trofeu-feira-de-hidalgo-1981/independiente-1-x-2-corinthians","DESCRICAO_ORIGINAL":"*No Almanaque do timão, o estádio aparece como 'Pachuca', porém, os jogos desse troféu são atribuidos mais precisamente para o estádio Revolucion Mexicana https://pt.wikipedia.org/wiki/Trof%C3%A9u_Internacional_Feira_de_Hidalgo_de_1981<br><br>Hoje","PAIS_ISO3":"MEX"},"geometry":{"type":"Point","coordinates":[-98.7411083,20.1158676]}},{"type":"Feature","properties":{"ESTADIO":"Råsunda","NOME_OFICIAL":"Atual Friends Arena https://pt.wikipedia.org/wiki/Est%C3%A1dio_R%C3%A5sunda","CIDADE":"Solna","ESTADO":null,"PAIS":"Suécia","LATITUDE":59.3727005,"LONGITUDE":18.0002317,"PRIMEIRA_PARTIDA":"aik 3 x 3 Corinthians 14/05/1952 - Amistoso","DATA_PRIMEIRA_PARTIDA":"1952-05-14","ANO_PRIMEIRA_PARTIDA":1952,"ADVERSARIO":"aik","PLACAR":"3 x 3","COMPETICAO_PRIMEIRA_PARTIDA":"Amistoso","MANDO_PRIMEIRA_PARTIDA":"Visitante","TOTAL_JOGOS":6,"VITORIAS":3,"EMPATES":3,"DERROTAS":0,"APROVEITAMENTO_PCT":66.7,"GOLS_MARCADOS":18,"GOLS_SOFRIDOS":15,"ESTADIOS_COM_ESTREIA_NA_DECADA":72,"OBSERVACOES":"Partidas:","FONTE_PRIMEIRA_PARTIDA":"https://pt.wikipedia.org/wiki/Est%C3%A1dio_R%C3%A5sunda","DESCRICAO_ORIGINAL":"Atual Friends Arena https://pt.wikipedia.org/wiki/Est%C3%A1dio_R%C3%A5sunda<br><br>Partidas:<br>aik 3 x 3 Corinthians 14/05/1952 - Amistoso<br>djurgardens 2 x 3 Corinthians 16/05/1952 - Amistoso","PAIS_ISO3":"SWE"},"geometry":{"type":"Point","coordinates":[18.0002317,59.3727005]}},{"type":"Feature","properties":{"ESTADIO":"Städtisches stadion an der grünwalder strasse","NOME_OFICIAL":null,"CIDADE":"Munique","ESTADO":null,"PAIS":"Alemanha","LATITUDE":48.1109961,"LONGITUDE":11.5744736,"PRIMEIRA_PARTIDA":"bayern munique 2 x 3 Corinthians","DATA_PRIMEIRA_PARTIDA":"1959-05-24","ANO_PRIMEIRA_PARTIDA":1959,"ADVERSARIO":"bayern munique","PLACAR":"2 x 3","COMPETICAO_PRIMEIRA_PARTIDA":"Amistoso","MANDO_PRIMEIRA_PARTIDA":"Visitante","TOTAL_JOGOS":1,"VITORIAS":1,"EMPATES":0,"DERROTAS":0,"APROVEITAMENTO_PCT":100.0,"GOLS_MARCADOS":3,"GOLS_SOFRIDOS":2,"ESTADIOS_COM_ESTREIA_NA_DECADA":72,"OBSERVACOES":null,"FONTE_PRIMEIRA_PARTIDA":"Meu Timão / Acervo ATLAS1910","DESCRICAO_ORIGINAL":"Primeira partida: bayern munique 2 x 3 Corinthians 24/05/1959 - Amistoso","PAIS_ISO3":"DEU"},"geometry":{"type":"Point","coordinates":[11.5744736,48.1109961]}},{"type":"Feature","properties":{"ESTADIO":"Toyota Stadium","NOME_OFICIAL":"Pimeira partida: al-ahly 0 x 1 Corinthians 12/12/2012 - Mundial de clubes da FIFA","CIDADE":null,"ESTADO":null,"PAIS":"Japão","LATITUDE":35.0844793,"LONGITUDE":137.1709193,"PRIMEIRA_PARTIDA":"Pimeira partida: al-ahly 0 x 1 Corinthians 12/12/2012 - Mundial de clubes da FIFA","DATA_PRIMEIRA_PARTIDA":"2012-12-12","ANO_PRIMEIRA_PARTIDA":2012,"ADVERSARIO":"Pimeira partida: al-ahly","PLACAR":"0 x 1","COMPETICAO_PRIMEIRA_PARTIDA":"Mundial de clubes da FIFA","MANDO_PRIMEIRA_PARTIDA":"Mandante","TOTAL_JOGOS":1,"VITORIAS":1,"EMPATES":0,"DERROTAS":0,"APROVEITAMENTO_PCT":100.0,"GOLS_MARCADOS":1,"GOLS_SOFRIDOS":0,"ESTADIOS_COM_ESTREIA_NA_DECADA":31,"OBSERVACOES":null,"FONTE_PRIMEIRA_PARTIDA":"Meu Timão / Acervo ATLAS1910","DESCRICAO_ORIGINAL":"Pimeira partida: al-ahly 0 x 1 Corinthians 12/12/2012 - Mundial de clubes da FIFA","PAIS_ISO3":"JPN"},"geometry":{"type":"Point","coordinates":[137.1709193,35.0844793]}},{"type":"Feature","properties":{"ESTADIO":"Tokyo Dome","NOME_OFICIAL":null,"CIDADE":null,"ESTADO":null,"PAIS":"Japão","LATITUDE":35.7056396,"LONGITUDE":139.7518913,"PRIMEIRA_PARTIDA":"hiratsuka bellmare 4 x 7 Corinthians","DATA_PRIMEIRA_PARTIDA":"1994-03-02","ANO_PRIMEIRA_PARTIDA":1994,"ADVERSARIO":"hiratsuka bellmare","PLACAR":"4 x 7","COMPETICAO_PRIMEIRA_PARTIDA":"Amistoso","MANDO_PRIMEIRA_PARTIDA":"Visitante","TOTAL_JOGOS":2,"VITORIAS":2,"EMPATES":0,"DERROTAS":0,"APROVEITAMENTO_PCT":100.0,"GOLS_MARCADOS":14,"GOLS_SOFRIDOS":8,"ESTADIOS_COM_ESTREIA_NA_DECADA":35,"OBSERVACOES":null,"FONTE_PRIMEIRA_PARTIDA":"Meu Timão / Acervo ATLAS1910","DESCRICAO_ORIGINAL":"Primeira partida: hiratsuka bellmare 4 x 7 Corinthians 02/03/1994 - Amistoso","PAIS_ISO3":"JPN"},"geometry":{"type":"Point","coordinates":[139.7518913,35.7056396]}},{"type":"Feature","properties":{"ESTADIO":"Universitario","NOME_OFICIAL":null,"CIDADE":"Nuevo León","ESTADO":null,"PAIS":"México","LATITUDE":25.7225198,"LONGITUDE":-100.3120225,"PRIMEIRA_PARTIDA":"tigres 2 x 0 Corinthians","DATA_PRIMEIRA_PARTIDA":"2006-03-09","ANO_PRIMEIRA_PARTIDA":2006,"ADVERSARIO":"tigres","PLACAR":"2 x 0","COMPETICAO_PRIMEIRA_PARTIDA":"Libertadores","MANDO_PRIMEIRA_PARTIDA":"Visitante","TOTAL_JOGOS":3,"VITORIAS":0,"EMPATES":0,"DERROTAS":3,"APROVEITAMENTO_PCT":0.0,"GOLS_MARCADOS":0,"GOLS_SOFRIDOS":6,"ESTADIOS_COM_ESTREIA_NA_DECADA":21,"OBSERVACOES":null,"FONTE_PRIMEIRA_PARTIDA":"Meu Timão / Acervo ATLAS1910","DESCRICAO_ORIGINAL":"Primeira partida: tigres 2 x 0 Corinthians 09/03/2006 - Libertadores","PAIS_ISO3":"MEX"},"geometry":{"type":"Point","coordinates":[-100.3120225,25.7225198]}},{"type":"Feature","properties":{"ESTADIO":"Vila América","NOME_OFICIAL":"Antônio Garcia, Atual Tauste Rio Branco","CIDADE":"Bauru","ESTADO":"SP","PAIS":"Brazil","LATITUDE":-22.3336429,"LONGITUDE":-49.0696459,"PRIMEIRA_PARTIDA":"bauru 0 x 3 Corinthians","DATA_PRIMEIRA_PARTIDA":"1944-12-08","ANO_PRIMEIRA_PARTIDA":1944,"ADVERSARIO":"bauru","PLACAR":"0 x 3","COMPETICAO_PRIMEIRA_PARTIDA":"Amistoso","MANDO_PRIMEIRA_PARTIDA":"Visitante","TOTAL_JOGOS":6,"VITORIAS":3,"EMPATES":0,"DERROTAS":3,"APROVEITAMENTO_PCT":50.0,"GOLS_MARCADOS":18,"GOLS_SOFRIDOS":18,"ESTADIOS_COM_ESTREIA_NA_DECADA":48,"OBSERVACOES":"* No almanaque do timão usa-se tb o nome do bairro (Vila América), mas segundo pesquisas, o antigo estádio do bauru no bairro, atual","FONTE_PRIMEIRA_PARTIDA":"Meu Timão / Acervo ATLAS1910","DESCRICAO_ORIGINAL":"Antônio Garcia, Atual Tauste Rio Branco<br><br>Primeira partida: bauru 0 x 3 Corinthians 08/12/1944 - Amistoso<br><br>* No almanaque do timão usa-se tb o nome do bairro (Vila América), mas segundo pesquisas, o antigo estádio do bauru no bairro, atual","PAIS_ISO3":"BRA","FONTE_CORRECAO_PAIS":"https://data.geocode.earth/wof/dist/legacy/whosonfirst-data-country-latest.tar.bz2"},"geometry":{"type":"Point","coordinates":[-49.0696459,-22.3336429]}},{"type":"Feature","properties":{"ESTADIO":"3 de Febrero","NOME_OFICIAL":"Estádio Tenente Coronel Antonio Oddone Sarubbi","CIDADE":"Ciudad del Este","ESTADO":null,"PAIS":"Paraguai","LATITUDE":-25.5268431,"LONGITUDE":-54.6118291,"PRIMEIRA_PARTIDA":"nacional (PAR) 1 x 3 Corinthians","DATA_PRIMEIRA_PARTIDA":"2012-04-11","ANO_PRIMEIRA_PARTIDA":2012,"ADVERSARIO":"nacional (PAR)","PLACAR":"1 x 3","COMPETICAO_PRIMEIRA_PARTIDA":"Libertadores","MANDO_PRIMEIRA_PARTIDA":"Visitante","TOTAL_JOGOS":3,"VITORIAS":3,"EMPATES":0,"DERROTAS":0,"APROVEITAMENTO_PCT":100.0,"GOLS_MARCADOS":9,"GOLS_SOFRIDOS":3,"ESTADIOS_COM_ESTREIA_NA_DECADA":31,"OBSERVACOES":null,"FONTE_PRIMEIRA_PARTIDA":"Meu Timão / Acervo ATLAS1910","DESCRICAO_ORIGINAL":"Estádio Tenente Coronel Antonio Oddone Sarubbi<br><br>Primeira partida: nacional (PAR) 1 x 3 Corinthians 11/04/2012 - Libertadores","PAIS_ISO3":"PRY"},"geometry":{"type":"Point","coordinates":[-54.6118291,-25.5268431]}},{"type":"Feature","properties":{"ESTADIO":"Gran Parque Central","NOME_OFICIAL":null,"CIDADE":null,"ESTADO":null,"PAIS":"Uruguai","LATITUDE":-34.8839988,"LONGITUDE":-56.1594734,"PRIMEIRA_PARTIDA":"racing-URUGUAI 0 x 2 Corinthians","DATA_PRIMEIRA_PARTIDA":"2010-04-14","ANO_PRIMEIRA_PARTIDA":2010,"ADVERSARIO":"racing-URUGUAI","PLACAR":"0 x 2","COMPETICAO_PRIMEIRA_PARTIDA":"Libertadores","MANDO_PRIMEIRA_PARTIDA":"Visitante","TOTAL_JOGOS":3,"VITORIAS":2,"EMPATES":1,"DERROTAS":0,"APROVEITAMENTO_PCT":77.8,"GOLS_MARCADOS":4,"GOLS_SOFRIDOS":1,"ESTADIOS_COM_ESTREIA_NA_DECADA":31,"OBSERVACOES":null,"FONTE_PRIMEIRA_PARTIDA":"Meu Timão / Acervo ATLAS1910","DESCRICAO_ORIGINAL":"Primeira partida: racing-URUGUAI 0 x 2 Corinthians 14/04/2010 - Libertadores","PAIS_ISO3":"URY"},"geometry":{"type":"Point","coordinates":[-56.1594734,-34.8839988]}},{"type":"Feature","properties":{"ESTADIO":"Nacional de Manágua","NOME_OFICIAL":"Dennis Martínez National Stadium","CIDADE":"Guayaquil","ESTADO":null,"PAIS":"Nicaragua","LATITUDE":12.1344391,"LONGITUDE":-86.2693829,"PRIMEIRA_PARTIDA":"EMELEC 1x0 CORINTHIANS","DATA_PRIMEIRA_PARTIDA":"1966-04-13","ANO_PRIMEIRA_PARTIDA":1966,"ADVERSARIO":"EMELEC","PLACAR":"1x0","COMPETICAO_PRIMEIRA_PARTIDA":"Amistosos 1966","MANDO_PRIMEIRA_PARTIDA":"Visitante","TOTAL_JOGOS":3,"VITORIAS":1,"EMPATES":0,"DERROTAS":2,"APROVEITAMENTO_PCT":33.3,"GOLS_MARCADOS":5,"GOLS_SOFRIDOS":4,"ESTADIOS_COM_ESTREIA_NA_DECADA":56,"OBSERVACOES":null,"FONTE_PRIMEIRA_PARTIDA":"https://www.meutimao.com.br/jogo/4635/amistosos-1966/amistoso/emelec-1-x-0-corinthians","DESCRICAO_ORIGINAL":"Dennis Martínez National Stadium<br><br>Primeira partida: barcelona 1 x 5 Corinthians 21/04/1966 - Amistoso","PAIS_ISO3":"NIC","FONTE_CORRECAO_PAIS":"https://data.geocode.earth/wof/dist/legacy/whosonfirst-data-country-latest.tar.bz2"},"geometry":{"type":"Point","coordinates":[-86.2693829,12.1344391]}},{"type":"Feature","properties":{"ESTADIO":"La Independencia","NOME_OFICIAL":null,"CIDADE":"Tunja","ESTADO":"Boyacá","PAIS":"Colombia","LATITUDE":5.5420478,"LONGITUDE":-73.3533681,"PRIMEIRA_PARTIDA":"Patriotas 1 x 1 Corinthians","DATA_PRIMEIRA_PARTIDA":"2017-06-28","ANO_PRIMEIRA_PARTIDA":2017,"ADVERSARIO":"Patriotas","PLACAR":"1 x 1","COMPETICAO_PRIMEIRA_PARTIDA":"Copa Sul-Americana 2017","MANDO_PRIMEIRA_PARTIDA":"Visitante","TOTAL_JOGOS":1,"VITORIAS":0,"EMPATES":1,"DERROTAS":0,"APROVEITAMENTO_PCT":33.3,"GOLS_MARCADOS":1,"GOLS_SOFRIDOS":1,"ESTADIOS_COM_ESTREIA_NA_DECADA":48,"OBSERVACOES":null,"FONTE_PRIMEIRA_PARTIDA":"https://www.meutimao.com.br/jogo/6031/amistosos-1946/amistoso/atletico-mg-1-x-1-corinthians","DESCRICAO_ORIGINAL":"Primeira partida: patriotas 1 x 1 Corinthians 28/06/2017 - Sul-Americana","FONTE_COORDENADAS":"OpenStreetMap Nominatim (geocodificação reversa)","URL_FONTE_COORDENADAS":"https://www.openstreetmap.org/node/5548746213","ATRIBUICAO_COORDENADAS":"© OpenStreetMap contributors, ODbL 1.0","CAPACIDADE":"2000","CAPACIDADE_FONTE":"Meu Timão","URL_FONTE_CAPACIDADE":"https://www.meutimao.com.br/estadio/la_independencia/","FONTE_CORRECAO_LOCALIDADE":"https://www.openstreetmap.org/node/5548746213","VITÓRIAS":0,"PAIS_ISO3":"COL"},"geometry":{"type":"Point","coordinates":[-73.3533681,5.5420478]}}]}