{"type":"FeatureCollection","name":"libertadores_feminina_2026","features":[{"type":"Feature","geometry":{"type":"Point","coordinates":[-46.4734,-23.5455]},"properties":{"Grupo":"A","Time":"Corinthians","Estádio":"Neo Química Arena","Cidade":"São Paulo","País":"Brasil","Participações":9,"Títulos":6,"ESCUDO":"assets/icones/escudos-historicos/2012.png"}},{"type":"Feature","geometry":{"type":"Point","coordinates":[-70.6059,-33.5066]},"properties":{"Grupo":"A","Time":"Colo-Colo","Estádio":"Estadio Monumental David Arellano","Cidade":"Santiago","País":"Chile","Participações":12,"Títulos":1,"ESCUDO":"assets/icones/competicoes/libertadores-2026/colo-colo.png"}},{"type":"Feature","geometry":{"type":"Point","coordinates":[-66.8855,10.4913]},"properties":{"Grupo":"A","Time":"Caracas FC","Estádio":"Estadio Olímpico de la UCV","Cidade":"Caracas","País":"Venezuela","Participações":7,"Títulos":0,"ESCUDO":"assets/icones/competicoes/libertadores-2026/caracas-fc.png"}},{"type":"Feature","geometry":{"type":"Point","coordinates":[-74.0775,4.6461]},"properties":{"Grupo":"A","Time":"Santa Fé","Estádio":"Estadio Nemesio Camacho El Campín","Cidade":"Bogotá","País":"Colômbia","Participações":7,"Títulos":0,"ESCUDO":"assets/icones/competicoes/libertadores-2026/santa-fe.png"}},{"type":"Feature","geometry":{"type":"Point","coordinates":[-78.4706,-0.3492]},"properties":{"Grupo":"B","Time":"Independiente del Valle","Estádio":"Estadio Banco Guayaquil","Cidade":"Sangolquí","País":"Equador","Participações":4,"Títulos":0,"ESCUDO":"assets/icones/competicoes/libertadores-2026/independiente-del-valle.png"}},{"type":"Feature","geometry":{"type":"Point","coordinates":[-64.2065,-31.4035]},"properties":{"Grupo":"B","Time":"Belgrano","Estádio":"Estadio Julio César Villagra","Cidade":"Córdoba","País":"Argentina","Participações":1,"Títulos":0,"ESCUDO":"assets/icones/competicoes/libertadores-2026/belgrano.svg"}},{"type":"Feature","geometry":{"type":"Point","coordinates":[-76.935,-12.055]},"properties":{"Grupo":"B","Time":"Universitario","Estádio":"Estadio Monumental \"Teodoro Lolo Fernández\"","Cidade":"Lima","País":"Peru","Participações":6,"Títulos":0,"ESCUDO":"assets/icones/competicoes/libertadores-2026/universitario.svg"}},{"type":"Feature","geometry":{"type":"Point","coordinates":[-46.6784,-23.5275]},"properties":{"Grupo":"B","Time":"Palmeiras","Estádio":"Allianz Parque (Nubank Parque)","Cidade":"São Paulo","País":"Brasil","Participações":3,"Títulos":1,"ESCUDO":"assets/icones/competicoes/libertadores-2026/palmeiras.png"}},{"type":"Feature","geometry":{"type":"Point","coordinates":[-43.9708,-19.8658]},"properties":{"Grupo":"C","Time":"Cruzeiro","Estádio":"Mineirão","Cidade":"Belo Horizonte","País":"Brasil","Participações":1,"Títulos":0,"ESCUDO":"assets/icones/competicoes/libertadores-2026/cruzeiro.png"}},{"type":"Feature","geometry":{"type":"Point","coordinates":[-78.4678,-0.1807]},"properties":{"Grupo":"C","Time":"LDU Quito","Estádio":"Estadio Rodrigo Paz Delgado (Casa Blanca)","Cidade":"Quito","País":"Equador","Participações":2,"Títulos":0,"ESCUDO":"assets/icones/competicoes/libertadores-2026/ldu-quito.png"}},{"type":"Feature","geometry":{"type":"Point","coordinates":[-68.1225,-16.4994]},"properties":{"Grupo":"C","Time":"Bolívar","Estádio":"Estadio Hernando Siles","Cidade":"La Paz","País":"Bolívia","Participações":1,"Títulos":0,"ESCUDO":"assets/icones/competicoes/libertadores-2026/bolivar.png"}},{"type":"Feature","geometry":{"type":"Point","coordinates":[-57.6083,-25.2917]},"properties":{"Grupo":"C","Time":"Olimpia","Estádio":"Estadio Manuel Ferreira","Cidade":"Asunción","País":"Paraguai","Participações":5,"Títulos":0,"ESCUDO":"assets/icones/competicoes/libertadores-2026/olimpia.png"}},{"type":"Feature","geometry":{"type":"Point","coordinates":[-76.417,3.5216]},"properties":{"Grupo":"D","Time":"Deportivo Cali","Estádio":"Estadio Deportivo Cali","Cidade":"Palmira","País":"Colômbia","Participações":5,"Títulos":0,"ESCUDO":"assets/icones/competicoes/libertadores-2026/deportivo-cali.png"}},{"type":"Feature","geometry":{"type":"Point","coordinates":[-57.635,-25.291]},"properties":{"Grupo":"D","Time":"Libertad","Estádio":"Estadio La Nueva Olla","Cidade":"Asunción","País":"Paraguai","Participações":7,"Títulos":0,"ESCUDO":"assets/icones/competicoes/libertadores-2026/libertad.png"}},{"type":"Feature","geometry":{"type":"Point","coordinates":[-56.1526,-34.8941]},"properties":{"Grupo":"D","Time":"Nacional","Estádio":"Gran Parque Central","Cidade":"Montevideo","País":"Uruguai","Participações":8,"Títulos":0,"ESCUDO":"assets/icones/competicoes/libertadores-2026/nacional.png"}},{"type":"Feature","geometry":{"type":"Point","coordinates":[-70.6107,-33.4645]},"properties":{"Grupo":"D","Time":"Universidad de Chile","Estádio":"Estadio Nacional Julio Martínez Prádanos","Cidade":"Santiago","País":"Chile","Participações":6,"Títulos":0,"ESCUDO":"assets/icones/competicoes/libertadores-2026/universidad-de-chile.png"}}]}