{"type":"FeatureCollection","name":"allianz-parque","features":[{"type":"Feature","geometry":{"type":"LineString","coordinates":[[-46.56809,-23.53096],[-46.568598,-23.5311],[-46.5683,-23.532157],[-46.568328,-23.532269],[-46.570114,-23.532722],[-46.56997,-23.533242],[-46.570025,-23.533309],[-46.572275,-23.533264],[-46.572927,-23.532908],[-46.574321,-23.532406],[-46.574791,-23.532319],[-46.575538,-23.532334],[-46.575638,-23.532251],[-46.5757,-23.529857],[-46.576584,-23.529903],[-46.577325,-23.530169],[-46.578219,-23.529914],[-46.579194,-23.531119],[-46.579791,-23.531643],[-46.580733,-23.532027],[-46.581936,-23.532322],[-46.582855,-23.532789],[-46.583453,-23.531587],[-46.583763,-23.530681],[-46.583739,-23.529966],[-46.582938,-23.528073],[-46.582998,-23.527717],[-46.583374,-23.527442],[-46.583621,-23.527419],[-46.588834,-23.528714],[-46.589653,-23.528628],[-46.592782,-23.527782],[-46.59363,-23.527628],[-46.594685,-23.527191],[-46.596979,-23.526467],[-46.597423,-23.52625],[-46.601194,-23.523276],[-46.602702,-23.522448],[-46.604054,-23.522148],[-46.604797,-23.522111],[-46.606095,-23.522231],[-46.608436,-23.522679],[-46.609394,-23.522734],[-46.610391,-23.522622],[-46.611369,-23.522289],[-46.612403,-23.521727],[-46.615059,-23.519792],[-46.616363,-23.519008],[-46.617693,-23.518526],[-46.6187,-23.518338],[-46.619562,-23.518345],[-46.620751,-23.518482],[-46.62242,-23.518863],[-46.623811,-23.518922],[-46.630194,-23.518598],[-46.631582,-23.518621],[-46.636104,-23.518277],[-46.637988,-23.517988],[-46.641029,-23.517827],[-46.649037,-23.516858],[-46.652166,-23.516294],[-46.656004,-23.515889],[-46.658595,-23.515278],[-46.663064,-23.514704],[-46.666436,-23.514391],[-46.666878,-23.514325],[-46.667172,-23.514166],[-46.667262,-23.513954],[-46.667108,-23.513542],[-46.666888,-23.513435],[-46.666711,-23.51352],[-46.666612,-23.513791],[-46.666661,-23.514143],[-46.666697,-23.514395],[-46.666964,-23.516258],[-46.667398,-23.518999],[-46.667537,-23.520043],[-46.667677,-23.520429],[-46.668232,-23.521067],[-46.668341,-23.521805],[-46.66848,-23.522067],[-46.672532,-23.526505],[-46.674199,-23.527638],[-46.675983,-23.528688],[-46.677018,-23.529445],[-46.677792,-23.529431],[-46.678497,-23.529102],[-46.679522,-23.528491]]},"properties":{"route_id":"allianz-parque","tipo":"rota","clube":"Palmeiras","estadio":"Allianz Parque","cidade":"São Paulo","estado":"SP","distancia_km":14.4,"modo_rota":"carro","match_status":"projecao","status":"Projeção: adversário é previsto pelo chaveamento; data e estádio sujeitos a confirmação.","projecao":true,"fonte_rota":"OpenStreetMap via OSRM public driving router","metodo_rota":"Rota rodoviária por carro; sem perfil específico para ônibus ou tráfego em tempo real.","data_partida":null,"Name":"Parque São Jorge → Allianz Parque, São Paulo - SP","ajuste_origem_m":1.0,"duracao_estimativa_min":17}},{"type":"Feature","geometry":{"type":"Point","coordinates":[-46.679522,-23.528491]},"properties":{"route_id":"allianz-parque","tipo":"estadio_destino","clube":"Palmeiras","estadio":"Allianz Parque","cidade":"São Paulo","estado":"SP","distancia_km":14.4,"status":"Projeção: adversário é previsto pelo chaveamento; data e estádio sujeitos a confirmação.","projecao":true,"data_partida":null}}],"metadata":{"fixture_source":"https://site.api.espn.com/apis/site/v2/sports/soccer/bra.1/teams/874/schedule?season=2026&region=br&lang=pt","fixture_status":"Projeção; a agenda consultada não contém os jogos futuros restantes.","route_service":"https://project-osrm.org/","openstreetmap_copyright":"© OpenStreetMap contributors","coordinates_accuracy":"Estádio habitual do mandante; sujeito a confirmação oficial."}}