{"type":"FeatureCollection","name":"arena-mrv","features":[{"type":"Feature","geometry":{"type":"LineString","coordinates":[[-46.56809,-23.53096],[-46.5686,-23.53109],[-46.56879,-23.53032],[-46.56976,-23.5306],[-46.56984,-23.53056],[-46.57077,-23.52732],[-46.56945,-23.52758],[-46.56892,-23.52761],[-46.56625,-23.52742],[-46.56479,-23.52713],[-46.56451,-23.52697],[-46.56155,-23.52456],[-46.56112,-23.52431],[-46.56057,-23.52416],[-46.55969,-23.52411],[-46.55904,-23.52396],[-46.5584,-23.52375],[-46.55804,-23.52359],[-46.55796,-23.52354],[-46.55781,-23.52346],[-46.55772,-23.5234],[-46.55738,-23.52351],[-46.55693,-23.52438],[-46.55704,-23.52447],[-46.55716,-23.52442],[-46.55755,-23.52396],[-46.55773,-23.52364],[-46.55783,-23.52351],[-46.558,-23.52324],[-46.55879,-23.52208],[-46.559,-23.52173],[-46.55927,-23.52136],[-46.55966,-23.52067],[-46.56078,-23.5191],[-46.56131,-23.51798],[-46.56149,-23.51691],[-46.56147,-23.5163],[-46.56119,-23.51526],[-46.55889,-23.51076],[-46.55852,-23.50984],[-46.55837,-23.50895],[-46.55861,-23.50597],[-46.55943,-23.49837],[-46.55947,-23.49527],[-46.55928,-23.49222],[-46.55927,-23.49031],[-46.5598,-23.48323],[-46.56011,-23.47772],[-46.56047,-23.47582],[-46.56068,-23.47518],[-46.56115,-23.47435],[-46.56174,-23.47367],[-46.5627,-23.47279],[-46.56359,-23.47215],[-46.57005,-23.46861],[-46.57083,-23.46798],[-46.5711,-23.46762],[-46.57139,-23.46701],[-46.57153,-23.46621],[-46.57153,-23.46549],[-46.57136,-23.45965],[-46.57139,-23.4582],[-46.57101,-23.45508],[-46.56833,-23.44399],[-46.56805,-23.44247],[-46.56786,-23.4403],[-46.56784,-23.43923],[-46.56795,-23.43731],[-46.56818,-23.43589],[-46.5686,-23.43403],[-46.56906,-23.43265],[-46.56975,-23.43114],[-46.57075,-23.42945],[-46.57156,-23.42829],[-46.57311,-23.42633],[-46.57533,-23.42398],[-46.57662,-23.42248],[-46.57826,-23.42041],[-46.57895,-23.41931],[-46.58112,-23.41466],[-46.58137,-23.41382],[-46.58146,-23.41315],[-46.58152,-23.41259],[-46.58148,-23.41131],[-46.58134,-23.41052],[-46.58084,-23.40876],[-46.58008,-23.40624],[-46.57975,-23.40553],[-46.57943,-23.40519],[-46.57892,-23.40492],[-46.57743,-23.40484],[-46.57679,-23.40467],[-46.57609,-23.40424],[-46.57577,-23.40393],[-46.57553,-23.40355],[-46.57529,-23.40285],[-46.57536,-23.40177],[-46.57638,-23.40006],[-46.57646,-23.39941],[-46.57636,-23.39884],[-46.57613,-23.39843],[-46.57573,-23.398],[-46.57416,-23.39695],[-46.5733,-23.39618],[-46.57238,-23.39496],[-46.57204,-23.39431],[-46.57081,-23.39105],[-46.57056,-23.39072],[-46.56954,-23.38987],[-46.56925,-23.38944],[-46.56915,-23.38891],[-46.56928,-23.38772],[-46.56906,-23.38712],[-46.56868,-23.38671],[-46.56808,-23.38644],[-46.56586,-23.38641],[-46.56533,-23.38629],[-46.56483,-23.38596],[-46.56456,-23.38556],[-46.56443,-23.385],[-46.56471,-23.38386],[-46.56463,-23.38329],[-46.56428,-23.38281],[-46.56322,-23.38213],[-46.56295,-23.38177],[-46.56279,-23.38123],[-46.56282,-23.3808],[-46.56301,-23.38039],[-46.5643,-23.37928],[-46.56456,-23.37886],[-46.56468,-23.37848],[-46.56463,-23.37799],[-46.56433,-23.37734],[-46.56388,-23.37662],[-46.56348,-23.37625],[-46.56319,-23.37611],[-46.56291,-23.37604],[-46.56156,-23.37599],[-46.56118,-23.37586],[-46.56077,-23.37559],[-46.56036,-23.37506],[-46.55964,-23.3737],[-46.55949,-23.37354],[-46.55918,-23.37332],[-46.55649,-23.37201],[-46.55613,-23.37172],[-46.55578,-23.37122],[-46.55548,-23.36988],[-46.55515,-23.36943],[-46.55471,-23.36913],[-46.55286,-23.36824],[-46.55233,-23.36768],[-46.55215,-23.36691],[-46.5524,-23.36478],[-46.55232,-23.36384],[-46.55208,-23.36317],[-46.55153,-23.3621],[-46.55059,-23.36055],[-46.54941,-23.358],[-46.54902,-23.35732],[-46.54879,-23.35656],[-46.54875,-23.35577],[-46.54895,-23.35528],[-46.54943,-23.3547],[-46.55068,-23.35397],[-46.55116,-23.35353],[-46.55132,-23.35321],[-46.55156,-23.35195],[-46.55191,-23.35124],[-46.55311,-23.34967],[-46.55381,-23.349],[-46.55437,-23.3488],[-46.55504,-23.3488],[-46.55917,-23.35009],[-46.55949,-23.35014],[-46.56007,-23.35004],[-46.56053,-23.34973],[-46.56073,-23.34945],[-46.56113,-23.34798],[-46.5614,-23.34761],[-46.56175,-23.34735],[-46.5621,-23.34722],[-46.56462,-23.34669],[-46.57259,-23.34352],[-46.57305,-23.34323],[-46.57339,-23.34279],[-46.57816,-23.32728],[-46.57878,-23.32616],[-46.58031,-23.32422],[-46.58125,-23.3222],[-46.58228,-23.32026],[-46.58247,-23.31951],[-46.58244,-23.31744],[-46.58216,-23.31257],[-46.58189,-23.31159],[-46.58134,-23.31061],[-46.58058,-23.30977],[-46.57888,-23.30848],[-46.57673,-23.30715],[-46.57564,-23.30642],[-46.57498,-23.30588],[-46.57421,-23.30515],[-46.57349,-23.3043],[-46.5724,-23.30258],[-46.57203,-23.30166],[-46.57183,-23.30065],[-46.57157,-23.2966],[-46.57171,-23.29545],[-46.57191,-23.29478],[-46.5723,-23.29402],[-46.573,-23.2932],[-46.57346,-23.29285],[-46.57423,-23.29244],[-46.57556,-23.29208],[-46.57819,-23.29203],[-46.57897,-23.29183],[-46.57933,-23.29159],[-46.57967,-23.29121],[-46.5801,-23.28995],[-46.58025,-23.28971],[-46.58072,-23.28934],[-46.58168,-23.28892],[-46.58235,-23.28883],[-46.58303,-23.28897],[-46.5837,-23.28942],[-46.5845,-23.29057],[-46.58484,-23.29088],[-46.5851,-23.29102],[-46.58556,-23.29113],[-46.58614,-23.291],[-46.58668,-23.29058],[-46.5873,-23.2893],[-46.58774,-23.28889],[-46.58945,-23.2876],[-46.58999,-23.28678],[-46.59013,-23.28615],[-46.59008,-23.28568],[-46.58982,-23.28501],[-46.58952,-23.28459],[-46.58744,-23.28238],[-46.58692,-23.28155],[-46.58656,-23.28071],[-46.58381,-23.26787],[-46.58371,-23.26681],[-46.58385,-23.26582],[-46.58429,-23.26475],[-46.58483,-23.264],[-46.59339,-23.2552],[-46.59429,-23.25421],[-46.59451,-23.25387],[-46.59475,-23.25298],[-46.5947,-23.25226],[-46.59431,-23.25143],[-46.59314,-23.25013],[-46.59277,-23.24953],[-46.59257,-23.24882],[-46.59259,-23.24829],[-46.59274,-23.2478],[-46.59319,-23.24714],[-46.59616,-23.24418],[-46.59723,-23.24293],[-46.59783,-23.24169],[-46.59838,-23.23948],[-46.59878,-23.23851],[-46.59949,-23.23744],[-46.60127,-23.23555],[-46.60161,-23.2351],[-46.6019,-23.23445],[-46.60198,-23.23404],[-46.60192,-23.23318],[-46.6015,-23.2323],[-46.59936,-23.22997],[-46.59894,-23.22936],[-46.59859,-23.22868],[-46.59169,-23.20806],[-46.58888,-23.20143],[-46.57429,-23.16538],[-46.57373,-23.16368],[-46.57348,-23.16251],[-46.57336,-23.16115],[-46.57337,-23.16019],[-46.57572,-23.1383],[-46.57607,-23.13569],[-46.57608,-23.13506],[-46.57666,-23.12962],[-46.5767,-23.12839],[-46.57641,-23.12667],[-46.57488,-23.12254],[-46.5739,-23.11954],[-46.56869,-23.10542],[-46.56838,-23.10394],[-46.56845,-23.10244],[-46.56901,-23.1007],[-46.5723,-23.09594],[-46.57269,-23.09509],[-46.57292,-23.09423],[-46.57299,-23.09365],[-46.5729,-23.09229],[-46.57241,-23.09069],[-46.57039,-23.0851],[-46.56984,-23.08337],[-46.56973,-23.08258],[-46.56975,-23.07924],[-46.56963,-23.07871],[-46.56942,-23.07831],[-46.56882,-23.07769],[-46.56708,-23.07676],[-46.56647,-23.07635],[-46.56614,-23.07597],[-46.56593,-23.07559],[-46.56578,-23.07492],[-46.56586,-23.0742],[-46.56601,-23.07382],[-46.56858,-23.069],[-46.56946,-23.0672],[-46.57062,-23.06324],[-46.57122,-23.06074],[-46.5714,-23.05929],[-46.57133,-23.05832],[-46.57088,-23.05682],[-46.57028,-23.0558],[-46.55626,-23.03882],[-46.55549,-23.03806],[-46.55457,-23.03739],[-46.55344,-23.03682],[-46.54467,-23.03436],[-46.54318,-23.03372],[-46.54216,-23.03308],[-46.54128,-23.03233],[-46.5366,-23.02748],[-46.53555,-23.02649],[-46.52517,-23.01588],[-46.52477,-23.01542],[-46.52414,-23.01439],[-46.51836,-22.99954],[-46.51803,-22.99896],[-46.51741,-22.99817],[-46.51703,-22.99781],[-46.50887,-22.99174],[-46.50825,-22.99116],[-46.50776,-22.99055],[-46.50734,-22.98981],[-46.50633,-22.98673],[-46.50559,-22.98577],[-46.50469,-22.9851],[-46.50367,-22.98467],[-46.49461,-22.98153],[-46.4936,-22.9811],[-46.49221,-22.98029],[-46.49132,-22.97959],[-46.49066,-22.97894],[-46.4899,-22.97796],[-46.48904,-22.97646],[-46.48103,-22.95948],[-46.4806,-22.95796],[-46.47939,-22.9508],[-46.47908,-22.94968],[-46.47865,-22.94861],[-46.47763,-22.94678],[-46.46996,-22.93385],[-46.46931,-22.9328],[-46.46888,-22.93228],[-46.46799,-22.93149],[-46.46697,-22.9309],[-46.44871,-22.92355],[-46.44704,-22.92315],[-46.44327,-22.92256],[-46.4414,-22.92195],[-46.4294,-22.91615],[-46.42808,-22.91549],[-46.42771,-22.91523],[-46.42725,-22.91474],[-46.42676,-22.91396],[-46.42532,-22.91093],[-46.42457,-22.90884],[-46.42266,-22.90569],[-46.41775,-22.89592],[-46.41709,-22.89518],[-46.41517,-22.89378],[-46.41449,-22.89304],[-46.41397,-22.89217],[-46.41053,-22.88505],[-46.40994,-22.88427],[-46.40922,-22.88361],[-46.40869,-22.88329],[-46.39954,-22.87881],[-46.39852,-22.8784],[-46.39768,-22.8783],[-46.39711,-22.87835],[-46.39661,-22.87854],[-46.39118,-22.88179],[-46.39015,-22.8823],[-46.38884,-22.88261],[-46.38785,-22.88267],[-46.38696,-22.88259],[-46.38378,-22.88186],[-46.37728,-22.88135],[-46.37645,-22.88125],[-46.37582,-22.88107],[-46.37462,-22.88062],[-46.37396,-22.88027],[-46.37343,-22.87991],[-46.36994,-22.87705],[-46.36684,-22.87511],[-46.36378,-22.87342],[-46.35612,-22.86925],[-46.3529,-22.86762],[-46.35074,-22.86671],[-46.34695,-22.86528],[-46.34602,-22.86481],[-46.34568,-22.86456],[-46.34521,-22.86399],[-46.34439,-22.86191],[-46.34399,-22.86129],[-46.3436,-22.8609],[-46.3429,-22.86048],[-46.33853,-22.85896],[-46.33778,-22.85847],[-46.3373,-22.85791],[-46.33699,-22.85723],[-46.3369,-22.8567],[-46.33694,-22.8561],[-46.33764,-22.85203],[-46.33755,-22.85113],[-46.33738,-22.85058],[-46.33712,-22.85011],[-46.33679,-22.84971],[-46.33617,-22.84921],[-46.33308,-22.84709],[-46.33248,-22.8466],[-46.33203,-22.84611],[-46.32853,-22.83951],[-46.32819,-22.83874],[-46.32726,-22.83708],[-46.32682,-22.83649],[-46.32605,-22.8358],[-46.32496,-22.83534],[-46.32371,-22.83525],[-46.32125,-22.83561],[-46.3203,-22.83558],[-46.31937,-22.83532],[-46.31845,-22.83481],[-46.31798,-22.83441],[-46.31745,-22.83371],[-46.31676,-22.83223],[-46.31655,-22.83193],[-46.31491,-22.83016],[-46.31466,-22.82962],[-46.31378,-22.82688],[-46.31356,-22.82645],[-46.31308,-22.82597],[-46.31264,-22.82575],[-46.31076,-22.82519],[-46.31006,-22.82491],[-46.30971,-22.82471],[-46.30861,-22.82382],[-46.30777,-22.82333],[-46.30713,-22.82318],[-46.30514,-22.82322],[-46.30436,-22.82314],[-46.30185,-22.82236],[-46.30095,-22.8219],[-46.3006,-22.82164],[-46.29849,-22.8194],[-46.29784,-22.81891],[-46.29709,-22.81853],[-46.29349,-22.81723],[-46.2929,-22.81687],[-46.29248,-22.81635],[-46.29182,-22.81511],[-46.29124,-22.81422],[-46.29022,-22.81314],[-46.28923,-22.81227],[-46.28886,-22.81204],[-46.28822,-22.81192],[-46.28774,-22.81195],[-46.2857,-22.81255],[-46.28509,-22.81253],[-46.28453,-22.81238],[-46.28414,-22.8122],[-46.28152,-22.81053],[-46.27954,-22.80888],[-46.27922,-22.80869],[-46.27869,-22.80854],[-46.27531,-22.80846],[-46.2697,-22.80762],[-46.26905,-22.80774],[-46.26758,-22.80833],[-46.26612,-22.8083],[-46.26473,-22.80875],[-46.26415,-22.80876],[-46.2637,-22.80861],[-46.26212,-22.80745],[-46.26076,-22.80674],[-46.26034,-22.80645],[-46.25998,-22.80605],[-46.2598,-22.80545],[-46.25986,-22.80494],[-46.26026,-22.80343],[-46.2603,-22.8028],[-46.26023,-22.80213],[-46.25994,-22.80139],[-46.25948,-22.8008],[-46.25911,-22.80047],[-46.25847,-22.80009],[-46.25692,-22.79952],[-46.25601,-22.79885],[-46.25513,-22.79772],[-46.25211,-22.79333],[-46.25161,-22.79286],[-46.25089,-22.79261],[-46.25034,-22.79261],[-46.2484,-22.79328],[-46.24768,-22.79339],[-46.24693,-22.79325],[-46.2464,-22.79296],[-46.24595,-22.7925],[-46.24574,-22.79211],[-46.24502,-22.78974],[-46.24481,-22.78922],[-46.24459,-22.78891],[-46.24426,-22.78862],[-46.24392,-22.78844],[-46.24251,-22.78781],[-46.24203,-22.78728],[-46.24177,-22.7866],[-46.23947,-22.77809],[-46.23869,-22.77608],[-46.23864,-22.77561],[-46.23877,-22.77443],[-46.23868,-22.77383],[-46.23742,-22.7716],[-46.23673,-22.77108],[-46.23607,-22.77092],[-46.2329,-22.77078],[-46.23207,-22.77072],[-46.23142,-22.77059],[-46.23076,-22.77022],[-46.22823,-22.76793],[-46.22749,-22.76764],[-46.22543,-22.76719],[-46.22386,-22.76625],[-46.22344,-22.76607],[-46.2231,-22.76598],[-46.22241,-22.76597],[-46.22206,-22.76603],[-46.21996,-22.76686],[-46.21827,-22.76743],[-46.21764,-22.76752],[-46.21422,-22.76766],[-46.21338,-22.76776],[-46.21121,-22.76867],[-46.21045,-22.76891],[-46.20972,-22.76896],[-46.20758,-22.76864],[-46.2069,-22.76858],[-46.20634,-22.76862],[-46.20577,-22.76891],[-46.20415,-22.77075],[-46.20372,-22.77097],[-46.20345,-22.77102],[-46.203,-22.77101],[-46.20158,-22.77066],[-46.20125,-22.77065],[-46.20089,-22.77071],[-46.19965,-22.77115],[-46.19913,-22.7712],[-46.19872,-22.77114],[-46.1974,-22.77072],[-46.19587,-22.77034],[-46.19426,-22.77015],[-46.19374,-22.77022],[-46.19328,-22.77042],[-46.19292,-22.7707],[-46.1925,-22.77127],[-46.19182,-22.77246],[-46.19119,-22.77307],[-46.19072,-22.77333],[-46.1893,-22.77387],[-46.18788,-22.77499],[-46.18724,-22.77517],[-46.18673,-22.77514],[-46.18621,-22.77494],[-46.18558,-22.77439],[-46.1816,-22.77027],[-46.1794,-22.76783],[-46.17789,-22.76648],[-46.17744,-22.76621],[-46.17642,-22.76583],[-46.17416,-22.76553],[-46.17364,-22.76518],[-46.1721,-22.76369],[-46.17148,-22.76335],[-46.16991,-22.76287],[-46.16963,-22.76267],[-46.16929,-22.76224],[-46.1688,-22.76132],[-46.16838,-22.76095],[-46.16789,-22.76079],[-46.16497,-22.76083],[-46.1625,-22.76125],[-46.16175,-22.76118],[-46.16121,-22.76101],[-46.15893,-22.75961],[-46.15724,-22.75769],[-46.15555,-22.75655],[-46.15467,-22.75631],[-46.15412,-22.75636],[-46.15303,-22.75662],[-46.15268,-22.75664],[-46.15213,-22.75653],[-46.15143,-22.7562],[-46.15015,-22.75536],[-46.14943,-22.75504],[-46.14433,-22.75344],[-46.14355,-22.75309],[-46.14263,-22.75228],[-46.14123,-22.7507],[-46.14058,-22.74958],[-46.13995,-22.74878],[-46.13948,-22.74848],[-46.13812,-22.74796],[-46.1375,-22.74754],[-46.1364,-22.74599],[-46.13606,-22.7452],[-46.13596,-22.74476],[-46.13546,-22.7401],[-46.1349,-22.73644],[-46.13471,-22.7347],[-46.13474,-22.73415],[-46.13509,-22.73294],[-46.13513,-22.73223],[-46.13441,-22.72868],[-46.13418,-22.72769],[-46.13394,-22.7271],[-46.13126,-22.7237],[-46.12941,-22.7209],[-46.12719,-22.71856],[-46.12455,-22.71532],[-46.1242,-22.71498],[-46.12302,-22.7141],[-46.12243,-22.71345],[-46.12207,-22.71258],[-46.12164,-22.71029],[-46.12072,-22.70842],[-46.12028,-22.70668],[-46.11996,-22.70594],[-46.11959,-22.70541],[-46.11832,-22.70403],[-46.11673,-22.70181],[-46.11535,-22.70018],[-46.11502,-22.69964],[-46.11436,-22.69796],[-46.11377,-22.69685],[-46.10933,-22.69166],[-46.10548,-22.68765],[-46.10454,-22.68696],[-46.10202,-22.68569],[-46.10153,-22.6853],[-46.10127,-22.68498],[-46.10108,-22.6846],[-46.10094,-22.68404],[-46.10096,-22.68348],[-46.10128,-22.68137],[-46.10125,-22.68094],[-46.10095,-22.68044],[-46.09977,-22.67962],[-46.0992,-22.67851],[-46.09829,-22.67741],[-46.09814,-22.67692],[-46.09802,-22.67545],[-46.0978,-22.67508],[-46.09749,-22.67484],[-46.09696,-22.6747],[-46.09526,-22.67496],[-46.09476,-22.67495],[-46.09405,-22.67466],[-46.09366,-22.67423],[-46.0935,-22.67381],[-46.09349,-22.67172],[-46.09329,-22.66748],[-46.09315,-22.66669],[-46.0929,-22.66593],[-46.09243,-22.66499],[-46.09192,-22.66433],[-46.09116,-22.6636],[-46.08968,-22.66252],[-46.08888,-22.66179],[-46.08848,-22.66115],[-46.08824,-22.66035],[-46.08821,-22.65996],[-46.08829,-22.65938],[-46.08911,-22.65542],[-46.08911,-22.65472],[-46.08868,-22.65264],[-46.08865,-22.6517],[-46.08927,-22.64845],[-46.08927,-22.64794],[-46.08912,-22.64738],[-46.08864,-22.64674],[-46.08815,-22.64641],[-46.08662,-22.64585],[-46.0858,-22.6454],[-46.08536,-22.64494],[-46.08483,-22.64404],[-46.08414,-22.64318],[-46.08067,-22.63971],[-46.07975,-22.6387],[-46.07954,-22.63833],[-46.07936,-22.63775],[-46.07816,-22.63007],[-46.07723,-22.62719],[-46.07673,-22.62617],[-46.07431,-22.62233],[-46.07375,-22.6215],[-46.0731,-22.62075],[-46.06472,-22.6128],[-46.06151,-22.60968],[-46.06101,-22.60908],[-46.06073,-22.60854],[-46.0583,-22.60181],[-46.05725,-22.59922],[-46.05628,-22.59518],[-46.05583,-22.59415],[-46.04665,-22.58276],[-46.04616,-22.58197],[-46.0451,-22.57981],[-46.04337,-22.57758],[-46.04266,-22.57633],[-46.04236,-22.57517],[-46.04218,-22.57261],[-46.04205,-22.57195],[-46.04068,-22.56784],[-46.04062,-22.56743],[-46.04068,-22.56632],[-46.04102,-22.56458],[-46.04102,-22.56392],[-46.03998,-22.55748],[-46.0392,-22.55484],[-46.03911,-22.55425],[-46.03915,-22.55325],[-46.03986,-22.54931],[-46.03988,-22.54804],[-46.03975,-22.54634],[-46.0395,-22.54551],[-46.03769,-22.54227],[-46.03748,-22.5414],[-46.03736,-22.53957],[-46.03714,-22.53884],[-46.03502,-22.53497],[-46.03457,-22.53431],[-46.03405,-22.53382],[-46.03304,-22.53324],[-46.03202,-22.53295],[-46.03105,-22.53296],[-46.02992,-22.5331],[-46.02906,-22.53297],[-46.02835,-22.53255],[-46.02798,-22.53208],[-46.02548,-22.52604],[-46.02401,-22.52372],[-46.02259,-22.52198],[-46.02226,-22.52141],[-46.02208,-22.52077],[-46.02208,-22.51933],[-46.02199,-22.51858],[-46.02074,-22.51356],[-46.02044,-22.51285],[-46.01976,-22.51194],[-46.01782,-22.51046],[-46.01738,-22.50986],[-46.01658,-22.50694],[-46.01571,-22.50553],[-46.01545,-22.50498],[-46.01514,-22.5033],[-46.01381,-22.50109],[-46.01352,-22.50031],[-46.01348,-22.49965],[-46.01369,-22.49814],[-46.01366,-22.4971],[-46.0135,-22.4962],[-46.01331,-22.4956],[-46.01284,-22.49461],[-46.01153,-22.4925],[-46.01107,-22.49159],[-46.01084,-22.49012],[-46.01055,-22.47018],[-46.01046,-22.46861],[-46.01034,-22.46794],[-46.0101,-22.46738],[-46.00859,-22.46471],[-46.00842,-22.4639],[-46.00854,-22.46299],[-46.00956,-22.4612],[-46.00992,-22.46022],[-46.00996,-22.45929],[-46.00966,-22.45817],[-46.00946,-22.45772],[-46.009,-22.45713],[-46.00826,-22.45653],[-45.99635,-22.44838],[-45.99521,-22.4474],[-45.99277,-22.44488],[-45.9903,-22.4425],[-45.98862,-22.44153],[-45.98526,-22.43976],[-45.98451,-22.43906],[-45.98343,-22.43739],[-45.98244,-22.43641],[-45.97864,-22.43385],[-45.97721,-22.43274],[-45.97053,-22.42579],[-45.96882,-22.42437],[-45.96677,-22.42208],[-45.96526,-22.42068],[-45.96496,-22.42024],[-45.96477,-22.41968],[-45.96454,-22.41704],[-45.96426,-22.41635],[-45.96372,-22.41564],[-45.96142,-22.41363],[-45.95954,-22.41252],[-45.9589,-22.41191],[-45.95814,-22.41051],[-45.95773,-22.40926],[-45.95745,-22.4075],[-45.95758,-22.40663],[-45.95794,-22.40607],[-45.95858,-22.4056],[-45.96054,-22.40509],[-45.96102,-22.40484],[-45.96158,-22.40422],[-45.96184,-22.4035],[-45.96183,-22.403],[-45.96144,-22.40056],[-45.96021,-22.39836],[-45.95915,-22.39697],[-45.95816,-22.39528],[-45.95367,-22.38958],[-45.95164,-22.38612],[-45.95101,-22.38531],[-45.95022,-22.38463],[-45.94699,-22.38257],[-45.94597,-22.38178],[-45.93601,-22.37101],[-45.93328,-22.36866],[-45.93287,-22.36823],[-45.93209,-22.36716],[-45.93144,-22.36577],[-45.93005,-22.36179],[-45.92966,-22.36106],[-45.92865,-22.3595],[-45.92822,-22.35866],[-45.92803,-22.35811],[-45.92787,-22.35712],[-45.92789,-22.35384],[-45.92781,-22.35275],[-45.9266,-22.34852],[-45.92647,-22.34758],[-45.92642,-22.34445],[-45.92576,-22.34125],[-45.92553,-22.34042],[-45.92515,-22.33957],[-45.92225,-22.33531],[-45.92101,-22.33382],[-45.92002,-22.33297],[-45.91952,-22.33264],[-45.91855,-22.3321],[-45.91623,-22.331],[-45.91526,-22.33032],[-45.91443,-22.32948],[-45.91069,-22.32506],[-45.90849,-22.32336],[-45.9074,-22.32241],[-45.90677,-22.32164],[-45.90629,-22.32081],[-45.90424,-22.31491],[-45.90233,-22.30812],[-45.89395,-22.27629],[-45.8936,-22.27471],[-45.89038,-22.26293],[-45.88726,-22.25093],[-45.88671,-22.24966],[-45.88397,-22.24515],[-45.88175,-22.24107],[-45.87607,-22.23218],[-45.87594,-22.23176],[-45.87592,-22.23125],[-45.87602,-22.22952],[-45.87596,-22.227],[-45.87578,-22.22617],[-45.87529,-22.225],[-45.86796,-22.21329],[-45.8619,-22.20378],[-45.86137,-22.20308],[-45.86076,-22.20244],[-45.8595,-22.20157],[-45.85415,-22.19895],[-45.85291,-22.19822],[-45.85198,-22.19742],[-45.84784,-22.19319],[-45.84688,-22.19197],[-45.84618,-22.19068],[-45.8394,-22.17482],[-45.83874,-22.17332],[-45.83811,-22.17214],[-45.83685,-22.17034],[-45.83204,-22.16433],[-45.82978,-22.16189],[-45.82854,-22.16029],[-45.82698,-22.15802],[-45.82484,-22.15531],[-45.82426,-22.15412],[-45.82285,-22.14972],[-45.82264,-22.14929],[-45.82206,-22.14863],[-45.82069,-22.14763],[-45.81996,-22.14669],[-45.81879,-22.14544],[-45.81837,-22.14473],[-45.81789,-22.1433],[-45.81744,-22.14253],[-45.81658,-22.14172],[-45.81594,-22.14136],[-45.8146,-22.14077],[-45.8138,-22.14018],[-45.81224,-22.13825],[-45.81045,-22.13638],[-45.80983,-22.13549],[-45.80916,-22.1347],[-45.80641,-22.13254],[-45.80473,-22.13066],[-45.80398,-22.12996],[-45.79892,-22.12609],[-45.79777,-22.12533],[-45.79425,-22.12378],[-45.7928,-22.123],[-45.79029,-22.12195],[-45.78908,-22.12159],[-45.78782,-22.12136],[-45.78532,-22.12125],[-45.78043,-22.12138],[-45.77611,-22.12192],[-45.77454,-22.12196],[-45.76342,-22.12084],[-45.76281,-22.12074],[-45.76061,-22.12011],[-45.75335,-22.11716],[-45.7518,-22.11631],[-45.7508,-22.11555],[-45.74857,-22.11359],[-45.74681,-22.11177],[-45.74566,-22.11072],[-45.74482,-22.11007],[-45.74386,-22.10952],[-45.74281,-22.10908],[-45.72638,-22.10391],[-45.72484,-22.10327],[-45.72412,-22.10286],[-45.7233,-22.10227],[-45.71972,-22.09914],[-45.71076,-22.09367],[-45.70992,-22.09302],[-45.7025,-22.08521],[-45.70213,-22.08471],[-45.70167,-22.08382],[-45.70149,-22.08331],[-45.70124,-22.08239],[-45.70116,-22.08109],[-45.70261,-22.06888],[-45.7027,-22.06789],[-45.70265,-22.06692],[-45.70249,-22.06614],[-45.70208,-22.06513],[-45.69695,-22.05475],[-45.69588,-22.0531],[-45.69241,-22.04907],[-45.68785,-22.04445],[-45.68728,-22.04375],[-45.68666,-22.04247],[-45.68615,-22.04011],[-45.68592,-22.03942],[-45.6856,-22.03889],[-45.68515,-22.03837],[-45.68446,-22.03784],[-45.68386,-22.03755],[-45.67963,-22.03593],[-45.67853,-22.03536],[-45.67755,-22.03456],[-45.67675,-22.03372],[-45.67637,-22.03327],[-45.67608,-22.03271],[-45.67591,-22.03208],[-45.67588,-22.03144],[-45.67611,-22.03051],[-45.67901,-22.02379],[-45.67964,-22.02285],[-45.68137,-22.021],[-45.68178,-22.02003],[-45.68183,-22.0192],[-45.68169,-22.01857],[-45.68123,-22.01776],[-45.67963,-22.01635],[-45.6792,-22.01582],[-45.67755,-22.01181],[-45.67745,-22.01146],[-45.6774,-22.01072],[-45.6779,-22.0085],[-45.67773,-22.00769],[-45.67747,-22.00729],[-45.67704,-22.00688],[-45.67527,-22.00546],[-45.67495,-22.00508],[-45.67475,-22.00468],[-45.67463,-22.00398],[-45.67462,-22.00209],[-45.6739,-21.99884],[-45.67392,-21.99817],[-45.67435,-21.99654],[-45.67439,-21.99612],[-45.67428,-21.99534],[-45.67398,-21.9947],[-45.67337,-21.99407],[-45.67276,-21.99374],[-45.66995,-21.99297],[-45.66909,-21.99261],[-45.66255,-21.98811],[-45.66172,-21.98767],[-45.66108,-21.98744],[-45.65987,-21.98721],[-45.65176,-21.98667],[-45.65042,-21.98642],[-45.64928,-21.98597],[-45.64816,-21.9853],[-45.64544,-21.9833],[-45.64479,-21.98273],[-45.64421,-21.98203],[-45.64383,-21.98144],[-45.64299,-21.97955],[-45.6423,-21.97883],[-45.64191,-21.9786],[-45.63959,-21.97762],[-45.63788,-21.97635],[-45.63706,-21.97585],[-45.63249,-21.97399],[-45.63218,-21.97379],[-45.63151,-21.97314],[-45.63102,-21.97229],[-45.63061,-21.97079],[-45.63074,-21.96775],[-45.63066,-21.96696],[-45.63044,-21.96643],[-45.63009,-21.96595],[-45.62776,-21.96375],[-45.62705,-21.96298],[-45.62326,-21.95683],[-45.62308,-21.95608],[-45.62308,-21.95526],[-45.62325,-21.95461],[-45.62411,-21.95265],[-45.62431,-21.95179],[-45.62431,-21.9512],[-45.62423,-21.95083],[-45.62393,-21.95012],[-45.62331,-21.94929],[-45.62111,-21.94692],[-45.62019,-21.94578],[-45.61827,-21.94203],[-45.61411,-21.93768],[-45.61339,-21.93663],[-45.6128,-21.93545],[-45.61232,-21.93384],[-45.61179,-21.93087],[-45.61147,-21.92961],[-45.61136,-21.92874],[-45.61141,-21.92765],[-45.61219,-21.92453],[-45.61224,-21.92344],[-45.61207,-21.92279],[-45.6118,-21.9222],[-45.61121,-21.92142],[-45.61026,-21.92073],[-45.6097,-21.92047],[-45.60924,-21.92035],[-45.5989,-21.91946],[-45.59615,-21.919],[-45.58182,-21.91521],[-45.57804,-21.91416],[-45.57743,-21.91395],[-45.57625,-21.91339],[-45.57493,-21.91249],[-45.57217,-21.9097],[-45.57177,-21.90937],[-45.57114,-21.90903],[-45.5704,-21.90883],[-45.56979,-21.9088],[-45.56636,-21.90944],[-45.56556,-21.90951],[-45.56441,-21.90946],[-45.56359,-21.90932],[-45.5627,-21.90903],[-45.56176,-21.90856],[-45.5607,-21.90781],[-45.56015,-21.90727],[-45.55623,-21.90269],[-45.55367,-21.89887],[-45.55248,-21.89735],[-45.55182,-21.89687],[-45.55015,-21.896],[-45.54973,-21.89565],[-45.54956,-21.89541],[-45.54925,-21.89472],[-45.54848,-21.89223],[-45.54812,-21.89145],[-45.54655,-21.88862],[-45.54378,-21.88098],[-45.54142,-21.87633],[-45.53997,-21.87412],[-45.53951,-21.87313],[-45.53859,-21.87064],[-45.53829,-21.86999],[-45.53792,-21.86942],[-45.53684,-21.8682],[-45.53291,-21.86432],[-45.53042,-21.86258],[-45.52789,-21.8615],[-45.52738,-21.86123],[-45.52662,-21.86069],[-45.52221,-21.85626],[-45.52162,-21.85556],[-45.52109,-21.85466],[-45.52072,-21.85365],[-45.51936,-21.8481],[-45.51878,-21.84498],[-45.51858,-21.84442],[-45.51728,-21.84168],[-45.51662,-21.84035],[-45.51627,-21.8398],[-45.51567,-21.83921],[-45.51486,-21.83876],[-45.51236,-21.83818],[-45.50983,-21.83703],[-45.50882,-21.83676],[-45.50651,-21.8364],[-45.50509,-21.83599],[-45.50438,-21.83547],[-45.50334,-21.83415],[-45.50267,-21.83359],[-45.50199,-21.8333],[-45.49977,-21.83277],[-45.49887,-21.83226],[-45.4983,-21.83168],[-45.49777,-21.83064],[-45.49643,-21.82677],[-45.49611,-21.82603],[-45.49546,-21.82488],[-45.4942,-21.82294],[-45.49385,-21.8222],[-45.49358,-21.82128],[-45.493,-21.81734],[-45.49271,-21.81635],[-45.49203,-21.81515],[-45.49011,-21.81298],[-45.48961,-21.81226],[-45.48895,-21.81086],[-45.48851,-21.81033],[-45.48787,-21.80984],[-45.48703,-21.80951],[-45.48626,-21.80943],[-45.48398,-21.80946],[-45.48313,-21.80933],[-45.48241,-21.80904],[-45.47847,-21.80635],[-45.47784,-21.80607],[-45.47573,-21.80545],[-45.47464,-21.80502],[-45.47401,-21.80456],[-45.47192,-21.80233],[-45.47106,-21.80167],[-45.46971,-21.801],[-45.4637,-21.7993],[-45.45585,-21.79753],[-45.45503,-21.79707],[-45.45215,-21.79442],[-45.44918,-21.79187],[-45.4486,-21.7914],[-45.44795,-21.79101],[-45.44629,-21.7903],[-45.44333,-21.78937],[-45.43876,-21.78812],[-45.4379,-21.78776],[-45.43726,-21.7874],[-45.43628,-21.78664],[-45.43539,-21.78563],[-45.42758,-21.77385],[-45.42648,-21.77268],[-45.42379,-21.7701],[-45.42224,-21.76907],[-45.41634,-21.76631],[-45.41488,-21.76541],[-45.41398,-21.76466],[-45.40959,-21.76046],[-45.40815,-21.75939],[-45.4063,-21.7576],[-45.40476,-21.75649],[-45.40241,-21.75544],[-45.39534,-21.75266],[-45.39321,-21.75211],[-45.39098,-21.75123],[-45.38964,-21.75051],[-45.38887,-21.74978],[-45.38844,-21.74919],[-45.38803,-21.74827],[-45.3871,-21.74393],[-45.38536,-21.73932],[-45.38481,-21.73841],[-45.38444,-21.73799],[-45.38242,-21.73612],[-45.38214,-21.73568],[-45.38183,-21.73485],[-45.38179,-21.73383],[-45.38194,-21.73319],[-45.38301,-21.73105],[-45.38337,-21.72976],[-45.38341,-21.72854],[-45.38327,-21.72772],[-45.38306,-21.72708],[-45.38154,-21.72438],[-45.38005,-21.72247],[-45.37882,-21.72036],[-45.37828,-21.71928],[-45.37634,-21.71428],[-45.37607,-21.71327],[-45.37557,-21.71025],[-45.37536,-21.70957],[-45.37496,-21.70874],[-45.37452,-21.70806],[-45.37397,-21.70742],[-45.3731,-21.70667],[-45.37184,-21.70579],[-45.36889,-21.70401],[-45.36822,-21.70344],[-45.36786,-21.70294],[-45.36761,-21.70232],[-45.36703,-21.69885],[-45.36667,-21.69814],[-45.3664,-21.69782],[-45.36574,-21.69734],[-45.36465,-21.69698],[-45.35482,-21.6946],[-45.35345,-21.69401],[-45.35254,-21.69342],[-45.35095,-21.69193],[-45.34982,-21.69102],[-45.34886,-21.68992],[-45.34772,-21.68833],[-45.34423,-21.68449],[-45.34317,-21.68294],[-45.34211,-21.68065],[-45.34125,-21.679],[-45.33964,-21.6765],[-45.33875,-21.67545],[-45.3378,-21.67468],[-45.33703,-21.67421],[-45.33057,-21.6704],[-45.32939,-21.66991],[-45.32251,-21.66797],[-45.31655,-21.66732],[-45.31466,-21.66702],[-45.31067,-21.66567],[-45.30981,-21.66516],[-45.30948,-21.66487],[-45.30825,-21.66327],[-45.30777,-21.66281],[-45.30566,-21.66176],[-45.30455,-21.66106],[-45.3039,-21.6605],[-45.30309,-21.65959],[-45.30253,-21.65875],[-45.30209,-21.65792],[-45.3017,-21.65675],[-45.30054,-21.65113],[-45.29995,-21.64977],[-45.29924,-21.64885],[-45.29855,-21.64822],[-45.29278,-21.64414],[-45.2918,-21.64377],[-45.28906,-21.64329],[-45.28829,-21.64293],[-45.28753,-21.64224],[-45.28328,-21.63671],[-45.28255,-21.63587],[-45.28193,-21.63531],[-45.28098,-21.63461],[-45.2786,-21.63319],[-45.26677,-21.62474],[-45.26347,-21.6213],[-45.26286,-21.62045],[-45.26258,-21.61983],[-45.26246,-21.61928],[-45.26213,-21.61596],[-45.26186,-21.61532],[-45.2616,-21.61499],[-45.26127,-21.61473],[-45.2608,-21.61451],[-45.2602,-21.61441],[-45.25985,-21.61443],[-45.25919,-21.61464],[-45.25859,-21.6151],[-45.25757,-21.61627],[-45.25702,-21.61677],[-45.25618,-21.61736],[-45.25496,-21.6179],[-45.25104,-21.6192],[-45.24748,-21.61975],[-45.24657,-21.6197],[-45.24555,-21.61934],[-45.24264,-21.6171],[-45.24197,-21.61638],[-45.24162,-21.61574],[-45.24136,-21.61495],[-45.24105,-21.61134],[-45.24062,-21.60954],[-45.24056,-21.60835],[-45.24073,-21.60683],[-45.24072,-21.60612],[-45.24044,-21.60242],[-45.24032,-21.6018],[-45.24002,-21.60082],[-45.23746,-21.59444],[-45.23709,-21.59305],[-45.23697,-21.59154],[-45.23707,-21.58958],[-45.23722,-21.58875],[-45.2375,-21.58791],[-45.23877,-21.58526],[-45.23933,-21.58372],[-45.23952,-21.58291],[-45.2397,-21.5818],[-45.23983,-21.57827],[-45.23998,-21.57739],[-45.24045,-21.57655],[-45.24174,-21.57512],[-45.24224,-21.57446],[-45.24266,-21.57366],[-45.24293,-21.57281],[-45.24306,-21.57159],[-45.24299,-21.57048],[-45.24303,-21.5698],[-45.24324,-21.56847],[-45.24386,-21.56595],[-45.24397,-21.56504],[-45.24383,-21.56349],[-45.24324,-21.56145],[-45.24319,-21.56087],[-45.24342,-21.56015],[-45.24424,-21.55901],[-45.24464,-21.55814],[-45.24469,-21.55736],[-45.24458,-21.5555],[-45.24484,-21.55374],[-45.24474,-21.55296],[-45.24432,-21.55212],[-45.24292,-21.55011],[-45.24119,-21.54735],[-45.24058,-21.54661],[-45.2398,-21.5454],[-45.23925,-21.54418],[-45.23879,-21.5434],[-45.23,-21.52916],[-45.22941,-21.52843],[-45.22583,-21.52512],[-45.2239,-21.52287],[-45.22358,-21.52203],[-45.22312,-21.51904],[-45.22279,-21.51835],[-45.21649,-21.51146],[-45.21599,-21.51072],[-45.21543,-21.50944],[-45.21522,-21.50844],[-45.21494,-21.50199],[-45.21479,-21.5013],[-45.21459,-21.50094],[-45.21408,-21.50043],[-45.21234,-21.49961],[-45.21175,-21.49905],[-45.21129,-21.49804],[-45.21018,-21.49485],[-45.21012,-21.49388],[-45.21031,-21.49246],[-45.21027,-21.49201],[-45.2101,-21.49155],[-45.20975,-21.49105],[-45.20917,-21.49058],[-45.20772,-21.48965],[-45.20694,-21.48889],[-45.20647,-21.48804],[-45.20488,-21.48464],[-45.20459,-21.48417],[-45.20131,-21.47998],[-45.20109,-21.4794],[-45.20104,-21.47897],[-45.20124,-21.4782],[-45.20332,-21.47519],[-45.20354,-21.47475],[-45.20375,-21.47422],[-45.20437,-21.47165],[-45.20597,-21.46744],[-45.20608,-21.46663],[-45.20608,-21.46567],[-45.20568,-21.463],[-45.20572,-21.46258],[-45.20591,-21.462],[-45.20616,-21.46157],[-45.20668,-21.46096],[-45.20706,-21.46067],[-45.20937,-21.45932],[-45.21,-21.45887],[-45.21042,-21.45839],[-45.21067,-21.45793],[-45.21088,-21.4572],[-45.21203,-21.45085],[-45.21201,-21.45007],[-45.2118,-21.44929],[-45.20912,-21.4449],[-45.20867,-21.44408],[-45.20853,-21.44364],[-45.20852,-21.44294],[-45.20867,-21.44227],[-45.20947,-21.4406],[-45.20962,-21.44014],[-45.20963,-21.43953],[-45.20952,-21.43918],[-45.20918,-21.43862],[-45.20798,-21.4377],[-45.20762,-21.43734],[-45.20726,-21.4367],[-45.20717,-21.43615],[-45.20731,-21.43544],[-45.20777,-21.43476],[-45.20836,-21.43435],[-45.20982,-21.43378],[-45.2103,-21.43339],[-45.21066,-21.43286],[-45.21082,-21.43209],[-45.21058,-21.42911],[-45.21066,-21.42823],[-45.21089,-21.42764],[-45.21172,-21.42627],[-45.21211,-21.42545],[-45.21236,-21.42471],[-45.21277,-21.42283],[-45.21283,-21.42223],[-45.21281,-21.42145],[-45.21266,-21.42055],[-45.21068,-21.41394],[-45.2105,-21.41291],[-45.21049,-21.41201],[-45.21066,-21.41097],[-45.21186,-21.40707],[-45.21195,-21.40621],[-45.21186,-21.40569],[-45.21164,-21.40509],[-45.21086,-21.40395],[-45.21051,-21.40323],[-45.21041,-21.40254],[-45.2106,-21.40022],[-45.21052,-21.39953],[-45.21026,-21.39889],[-45.20996,-21.39846],[-45.20959,-21.39808],[-45.20889,-21.39763],[-45.20784,-21.39728],[-45.20423,-21.39641],[-45.2032,-21.39602],[-45.20102,-21.39492],[-45.19915,-21.39364],[-45.1977,-21.39308],[-45.19553,-21.39188],[-45.19492,-21.39143],[-45.19446,-21.39085],[-45.19417,-21.39029],[-45.19384,-21.38929],[-45.19375,-21.38846],[-45.19403,-21.38741],[-45.1958,-21.38372],[-45.19598,-21.38276],[-45.19586,-21.38163],[-45.19534,-21.38041],[-45.19147,-21.37416],[-45.19087,-21.37342],[-45.18893,-21.37177],[-45.18857,-21.3712],[-45.18848,-21.37067],[-45.18848,-21.37031],[-45.18862,-21.36982],[-45.18971,-21.36763],[-45.19145,-21.3626],[-45.19152,-21.3622],[-45.19148,-21.36158],[-45.191,-21.36019],[-45.1905,-21.35951],[-45.18957,-21.35889],[-45.18736,-21.35767],[-45.18515,-21.35679],[-45.18262,-21.35563],[-45.18186,-21.35509],[-45.18152,-21.35466],[-45.1812,-21.35398],[-45.18084,-21.35216],[-45.1804,-21.35083],[-45.18021,-21.35049],[-45.17971,-21.34995],[-45.17881,-21.3494],[-45.17836,-21.34902],[-45.17747,-21.34738],[-45.17661,-21.34638],[-45.17601,-21.34554],[-45.17583,-21.34505],[-45.17583,-21.34419],[-45.17645,-21.33871],[-45.17643,-21.33799],[-45.17621,-21.33725],[-45.17526,-21.33556],[-45.1746,-21.33483],[-45.1738,-21.33437],[-45.17178,-21.3338],[-45.17133,-21.33349],[-45.171,-21.33307],[-45.16941,-21.32858],[-45.16683,-21.3249],[-45.16545,-21.32161],[-45.16538,-21.32084],[-45.16563,-21.32008],[-45.16614,-21.31948],[-45.16691,-21.31883],[-45.16724,-21.31846],[-45.16748,-21.31805],[-45.16762,-21.31755],[-45.16755,-21.31679],[-45.16651,-21.31328],[-45.16617,-21.31246],[-45.16579,-21.31202],[-45.16541,-21.31177],[-45.16479,-21.31156],[-45.16348,-21.31131],[-45.16303,-21.31115],[-45.16278,-21.31098],[-45.16239,-21.31063],[-45.16139,-21.30922],[-45.16097,-21.30876],[-45.15943,-21.30734],[-45.15623,-21.3048],[-45.15424,-21.30267],[-45.15108,-21.29978],[-45.15068,-21.29926],[-45.15047,-21.29883],[-45.14792,-21.29072],[-45.14718,-21.28952],[-45.14651,-21.28882],[-45.14555,-21.28811],[-45.14424,-21.28759],[-45.14269,-21.28728],[-45.14188,-21.28688],[-45.14066,-21.28566],[-45.14021,-21.28488],[-45.14008,-21.284],[-45.13996,-21.27931],[-45.13985,-21.27852],[-45.13963,-21.27768],[-45.13892,-21.27631],[-45.1363,-21.27263],[-45.13609,-21.27217],[-45.13595,-21.2716],[-45.13594,-21.27081],[-45.13625,-21.2698],[-45.13958,-21.26226],[-45.13988,-21.26115],[-45.13997,-21.2602],[-45.13988,-21.25926],[-45.13871,-21.25408],[-45.1383,-21.24918],[-45.13812,-21.24809],[-45.13764,-21.24685],[-45.13595,-21.24343],[-45.13556,-21.24216],[-45.13551,-21.24104],[-45.13558,-21.23865],[-45.1355,-21.23752],[-45.13408,-21.23068],[-45.13385,-21.23008],[-45.13331,-21.22927],[-45.13122,-21.22716],[-45.13077,-21.22656],[-45.13031,-21.22563],[-45.12965,-21.22248],[-45.12917,-21.22122],[-45.12796,-21.21946],[-45.12567,-21.21649],[-45.12536,-21.21592],[-45.12432,-21.21275],[-45.12287,-21.20758],[-45.12224,-21.20606],[-45.12035,-21.20242],[-45.11956,-21.20081],[-45.11926,-21.19999],[-45.11915,-21.19955],[-45.11911,-21.19884],[-45.11935,-21.19714],[-45.11919,-21.1963],[-45.11673,-21.19214],[-45.11651,-21.1916],[-45.11634,-21.19081],[-45.11617,-21.18865],[-45.11623,-21.18828],[-45.11646,-21.18769],[-45.11751,-21.1863],[-45.12009,-21.18315],[-45.12095,-21.18158],[-45.12182,-21.17964],[-45.12226,-21.17893],[-45.12294,-21.17835],[-45.12428,-21.17758],[-45.12456,-21.17731],[-45.12485,-21.17687],[-45.12502,-21.17609],[-45.12503,-21.17466],[-45.12515,-21.17381],[-45.12534,-21.17337],[-45.12658,-21.17131],[-45.12679,-21.17049],[-45.12675,-21.16984],[-45.12611,-21.16652],[-45.12577,-21.16574],[-45.12545,-21.16533],[-45.12499,-21.16492],[-45.11845,-21.16051],[-45.1181,-21.16018],[-45.11785,-21.15982],[-45.11715,-21.15795],[-45.11673,-21.15729],[-45.11624,-21.15687],[-45.11361,-21.15532],[-45.11323,-21.155],[-45.11275,-21.15433],[-45.11248,-21.15381],[-45.10953,-21.147],[-45.10856,-21.14494],[-45.10788,-21.14398],[-45.10466,-21.14062],[-45.10422,-21.14006],[-45.10389,-21.13927],[-45.10385,-21.13883],[-45.10433,-21.13537],[-45.10424,-21.1347],[-45.10403,-21.13416],[-45.09755,-21.12343],[-45.0962,-21.12178],[-45.09553,-21.12064],[-45.09493,-21.11935],[-45.09477,-21.11883],[-45.09451,-21.11744],[-45.09207,-21.10896],[-45.09082,-21.10678],[-45.08895,-21.10385],[-45.08554,-21.10014],[-45.08478,-21.09944],[-45.07737,-21.09413],[-45.07661,-21.09366],[-45.07421,-21.09253],[-45.072,-21.09092],[-45.07121,-21.09043],[-45.06804,-21.08942],[-45.06718,-21.08897],[-45.06658,-21.08836],[-45.06334,-21.0838],[-45.06133,-21.08134],[-45.06052,-21.08012],[-45.05986,-21.07931],[-45.05876,-21.07838],[-45.05322,-21.07461],[-45.05284,-21.07427],[-45.05242,-21.07375],[-45.05202,-21.07305],[-45.05173,-21.07209],[-45.05164,-21.07137],[-45.05174,-21.07024],[-45.05252,-21.06559],[-45.05252,-21.06494],[-45.05225,-21.06429],[-45.05041,-21.06114],[-45.04885,-21.05858],[-45.04839,-21.05807],[-45.04769,-21.0576],[-45.04652,-21.05718],[-45.04027,-21.05512],[-45.03916,-21.05489],[-45.03774,-21.05482],[-45.03334,-21.05523],[-45.0274,-21.05484],[-45.02078,-21.0534],[-45.01716,-21.0527],[-45.01614,-21.0528],[-45.01421,-21.05329],[-45.01326,-21.05334],[-45.01249,-21.05328],[-45.01188,-21.05317],[-45.00873,-21.05222],[-45.00526,-21.05218],[-45.00455,-21.0521],[-45.00352,-21.05168],[-45.00207,-21.05088],[-45.00165,-21.0505],[-45.00129,-21.04987],[-45.00018,-21.0443],[-45.00031,-21.043],[-45.0005,-21.04215],[-45.00152,-21.03946],[-45.00186,-21.03812],[-45.00207,-21.03267],[-45.00203,-21.03178],[-45.00179,-21.03065],[-45.00142,-21.02976],[-45.00091,-21.02886],[-44.99886,-21.02581],[-44.99786,-21.02485],[-44.99054,-21.0193],[-44.98935,-21.01803],[-44.98529,-21.0126],[-44.98423,-21.01159],[-44.9838,-21.0113],[-44.97453,-21.00641],[-44.973,-21.00545],[-44.96812,-21.00172],[-44.96459,-20.99851],[-44.96288,-20.99677],[-44.95353,-20.98836],[-44.95289,-20.98801],[-44.95242,-20.98787],[-44.94987,-20.98772],[-44.94934,-20.98762],[-44.94871,-20.98737],[-44.94835,-20.98714],[-44.94712,-20.98609],[-44.94423,-20.98346],[-44.94382,-20.98298],[-44.94363,-20.98263],[-44.9424,-20.9798],[-44.93982,-20.97606],[-44.93937,-20.97554],[-44.93899,-20.97525],[-44.93836,-20.97499],[-44.93546,-20.97442],[-44.93456,-20.97417],[-44.93351,-20.9736],[-44.93259,-20.9727],[-44.93219,-20.97207],[-44.93192,-20.97137],[-44.93003,-20.96369],[-44.92975,-20.96305],[-44.92935,-20.96255],[-44.92862,-20.96204],[-44.92575,-20.96086],[-44.9231,-20.96014],[-44.92256,-20.95989],[-44.92214,-20.95959],[-44.92188,-20.9593],[-44.92119,-20.95783],[-44.92078,-20.95719],[-44.92016,-20.95668],[-44.91893,-20.95606],[-44.91759,-20.95565],[-44.91454,-20.95531],[-44.91043,-20.95446],[-44.90964,-20.95438],[-44.909,-20.9545],[-44.90344,-20.95713],[-44.90215,-20.95761],[-44.90101,-20.95779],[-44.90014,-20.95783],[-44.89785,-20.95754],[-44.897,-20.95728],[-44.89648,-20.95696],[-44.896,-20.95651],[-44.89252,-20.9528],[-44.89191,-20.95221],[-44.89123,-20.95169],[-44.88692,-20.9492],[-44.88635,-20.94899],[-44.8839,-20.94856],[-44.88331,-20.94831],[-44.88269,-20.9479],[-44.88222,-20.94746],[-44.88172,-20.94669],[-44.88111,-20.94505],[-44.88082,-20.94457],[-44.87654,-20.9403],[-44.8758,-20.93915],[-44.87543,-20.9383],[-44.87528,-20.93775],[-44.87515,-20.93654],[-44.87522,-20.93465],[-44.8738,-20.92753],[-44.87366,-20.92446],[-44.87352,-20.9238],[-44.87335,-20.9234],[-44.87278,-20.92273],[-44.86949,-20.92038],[-44.86859,-20.91943],[-44.86495,-20.91434],[-44.8645,-20.91349],[-44.86376,-20.91161],[-44.86336,-20.9109],[-44.86284,-20.91023],[-44.86075,-20.90827],[-44.8603,-20.90771],[-44.85468,-20.89898],[-44.85419,-20.89809],[-44.85375,-20.89681],[-44.85165,-20.88833],[-44.85156,-20.88736],[-44.85181,-20.88337],[-44.85142,-20.88104],[-44.85109,-20.87995],[-44.8506,-20.879],[-44.85014,-20.87835],[-44.84965,-20.87782],[-44.84826,-20.87668],[-44.84733,-20.87624],[-44.84584,-20.87594],[-44.84502,-20.87567],[-44.84449,-20.87535],[-44.844,-20.87481],[-44.84377,-20.87429],[-44.84367,-20.87355],[-44.84406,-20.87189],[-44.84408,-20.87101],[-44.84376,-20.87018],[-44.84128,-20.86645],[-44.84098,-20.8658],[-44.8409,-20.86517],[-44.84121,-20.86325],[-44.84106,-20.86246],[-44.84077,-20.86194],[-44.84028,-20.8615],[-44.83731,-20.86001],[-44.83674,-20.85937],[-44.83651,-20.85871],[-44.83649,-20.85826],[-44.83701,-20.85622],[-44.83692,-20.85516],[-44.83659,-20.85434],[-44.83351,-20.84814],[-44.83322,-20.84767],[-44.83242,-20.84685],[-44.8286,-20.84413],[-44.82798,-20.84358],[-44.82466,-20.83947],[-44.82439,-20.83902],[-44.82415,-20.83827],[-44.82411,-20.83757],[-44.82435,-20.83673],[-44.82504,-20.83505],[-44.82517,-20.83424],[-44.82506,-20.8335],[-44.82465,-20.83254],[-44.82428,-20.83211],[-44.8236,-20.8316],[-44.82261,-20.83123],[-44.81932,-20.83058],[-44.8188,-20.83038],[-44.81746,-20.82949],[-44.81698,-20.82928],[-44.81565,-20.82911],[-44.81235,-20.82924],[-44.80992,-20.82901],[-44.80881,-20.82877],[-44.80762,-20.82832],[-44.80324,-20.82613],[-44.80199,-20.82539],[-44.80166,-20.82507],[-44.80135,-20.8246],[-44.8011,-20.82373],[-44.8006,-20.82015],[-44.80029,-20.81934],[-44.79986,-20.81877],[-44.79931,-20.81832],[-44.79868,-20.81801],[-44.79452,-20.81716],[-44.79362,-20.81682],[-44.79322,-20.81657],[-44.79272,-20.8161],[-44.79239,-20.81565],[-44.79218,-20.81521],[-44.79201,-20.81462],[-44.79185,-20.8134],[-44.79104,-20.80619],[-44.78945,-20.79862],[-44.78947,-20.79499],[-44.78915,-20.79311],[-44.78879,-20.79203],[-44.78757,-20.78933],[-44.78586,-20.78615],[-44.78546,-20.78498],[-44.78521,-20.78377],[-44.78489,-20.78271],[-44.78288,-20.77878],[-44.78214,-20.77686],[-44.78175,-20.77498],[-44.78169,-20.77408],[-44.7818,-20.77336],[-44.78215,-20.77214],[-44.78221,-20.77111],[-44.78202,-20.77019],[-44.781,-20.76734],[-44.78067,-20.76664],[-44.77994,-20.76559],[-44.77796,-20.76343],[-44.77746,-20.76276],[-44.77698,-20.76188],[-44.77673,-20.7612],[-44.77567,-20.75696],[-44.77427,-20.75192],[-44.77107,-20.73894],[-44.77111,-20.73824],[-44.77131,-20.73772],[-44.7718,-20.73712],[-44.77303,-20.73605],[-44.77329,-20.73562],[-44.77343,-20.7352],[-44.77347,-20.73466],[-44.77338,-20.73343],[-44.77301,-20.73001],[-44.77283,-20.7293],[-44.77222,-20.72825],[-44.77174,-20.72779],[-44.76994,-20.72648],[-44.76952,-20.72597],[-44.76789,-20.72204],[-44.76614,-20.71949],[-44.76599,-20.71895],[-44.76575,-20.7171],[-44.7653,-20.71637],[-44.7648,-20.71594],[-44.76146,-20.71361],[-44.7587,-20.71156],[-44.75797,-20.71089],[-44.75464,-20.70732],[-44.75297,-20.70492],[-44.75254,-20.70454],[-44.74972,-20.70267],[-44.74937,-20.70233],[-44.74887,-20.70147],[-44.74869,-20.70089],[-44.74866,-20.70036],[-44.74876,-20.69889],[-44.74871,-20.69803],[-44.7484,-20.69667],[-44.74791,-20.69565],[-44.74634,-20.69294],[-44.74564,-20.69201],[-44.74477,-20.69116],[-44.74273,-20.68962],[-44.74189,-20.68871],[-44.7394,-20.68491],[-44.73885,-20.68376],[-44.73836,-20.68239],[-44.73801,-20.68059],[-44.73797,-20.67871],[-44.73809,-20.67761],[-44.73889,-20.67395],[-44.73898,-20.67337],[-44.73895,-20.6724],[-44.73876,-20.67154],[-44.73816,-20.67015],[-44.73779,-20.66908],[-44.73766,-20.66846],[-44.73746,-20.66452],[-44.73719,-20.66102],[-44.73528,-20.65066],[-44.73535,-20.64981],[-44.73735,-20.64138],[-44.73741,-20.64051],[-44.73736,-20.63989],[-44.73719,-20.63903],[-44.73696,-20.63837],[-44.73518,-20.63522],[-44.73496,-20.63452],[-44.73488,-20.63399],[-44.73496,-20.63291],[-44.73576,-20.62894],[-44.73579,-20.62844],[-44.73567,-20.62752],[-44.73544,-20.62683],[-44.73514,-20.62627],[-44.73363,-20.62387],[-44.73336,-20.62299],[-44.73334,-20.62246],[-44.73345,-20.62181],[-44.73572,-20.6164],[-44.73595,-20.6154],[-44.73591,-20.61468],[-44.73523,-20.61156],[-44.73442,-20.60901],[-44.73402,-20.60818],[-44.73363,-20.60774],[-44.73301,-20.60729],[-44.73229,-20.60699],[-44.73174,-20.60691],[-44.73066,-20.607],[-44.72834,-20.60754],[-44.72784,-20.60756],[-44.72713,-20.60745],[-44.72633,-20.6071],[-44.72475,-20.60619],[-44.72014,-20.60292],[-44.71943,-20.60253],[-44.71874,-20.60232],[-44.71803,-20.60224],[-44.71577,-20.6022],[-44.71499,-20.60212],[-44.71412,-20.60187],[-44.71347,-20.60155],[-44.71248,-20.60078],[-44.70537,-20.5946],[-44.70335,-20.59318],[-44.69776,-20.58981],[-44.69654,-20.58898],[-44.69575,-20.58812],[-44.69451,-20.58635],[-44.69114,-20.58245],[-44.69011,-20.58148],[-44.68899,-20.58062],[-44.68713,-20.57896],[-44.685,-20.57758],[-44.68457,-20.57722],[-44.67899,-20.57134],[-44.66763,-20.56296],[-44.66693,-20.5626],[-44.66499,-20.56186],[-44.66446,-20.56151],[-44.66398,-20.561],[-44.6636,-20.56031],[-44.66072,-20.55384],[-44.65862,-20.5479],[-44.65807,-20.54713],[-44.65767,-20.54674],[-44.65694,-20.54626],[-44.65642,-20.54603],[-44.65575,-20.54585],[-44.64918,-20.54521],[-44.64819,-20.5449],[-44.64667,-20.54383],[-44.64172,-20.53999],[-44.64117,-20.53952],[-44.64048,-20.53871],[-44.63994,-20.53772],[-44.63965,-20.53697],[-44.63942,-20.53602],[-44.63876,-20.53017],[-44.63861,-20.52942],[-44.63831,-20.52874],[-44.63771,-20.52794],[-44.6371,-20.52743],[-44.63616,-20.52694],[-44.62984,-20.52498],[-44.62932,-20.52475],[-44.62866,-20.5243],[-44.62801,-20.52367],[-44.62661,-20.52132],[-44.62611,-20.52074],[-44.6253,-20.52007],[-44.6243,-20.51954],[-44.61774,-20.51729],[-44.61718,-20.51704],[-44.61648,-20.51664],[-44.61587,-20.51618],[-44.61306,-20.51389],[-44.61251,-20.51301],[-44.61212,-20.51195],[-44.61201,-20.51125],[-44.61209,-20.50954],[-44.61188,-20.50886],[-44.60921,-20.505],[-44.60858,-20.50365],[-44.60832,-20.50228],[-44.60838,-20.50003],[-44.60827,-20.49916],[-44.608,-20.49839],[-44.60766,-20.49782],[-44.60481,-20.49474],[-44.60322,-20.49243],[-44.60234,-20.49147],[-44.60152,-20.49079],[-44.60076,-20.49031],[-44.59332,-20.4865],[-44.59214,-20.48571],[-44.59132,-20.48486],[-44.5886,-20.48091],[-44.58817,-20.48042],[-44.58582,-20.47859],[-44.58516,-20.47796],[-44.58477,-20.47739],[-44.58453,-20.47685],[-44.58436,-20.47615],[-44.58383,-20.47154],[-44.58357,-20.47054],[-44.58296,-20.4693],[-44.58242,-20.46858],[-44.58136,-20.46763],[-44.57734,-20.46505],[-44.5764,-20.46437],[-44.57437,-20.46215],[-44.57083,-20.45808],[-44.57022,-20.45728],[-44.56976,-20.45638],[-44.56947,-20.45552],[-44.56845,-20.45054],[-44.5683,-20.45008],[-44.56796,-20.44942],[-44.56613,-20.4474],[-44.56547,-20.44648],[-44.565,-20.44541],[-44.56422,-20.44214],[-44.56386,-20.4411],[-44.56322,-20.44],[-44.56242,-20.43908],[-44.56152,-20.43838],[-44.55799,-20.43607],[-44.55463,-20.43369],[-44.55078,-20.43118],[-44.5501,-20.43065],[-44.54884,-20.42938],[-44.54765,-20.42853],[-44.53709,-20.42206],[-44.53614,-20.42164],[-44.5325,-20.42027],[-44.5318,-20.41981],[-44.53111,-20.41907],[-44.53,-20.41736],[-44.52848,-20.41418],[-44.5273,-20.41203],[-44.52509,-20.40814],[-44.5245,-20.40751],[-44.52365,-20.40711],[-44.52171,-20.40679],[-44.52082,-20.40648],[-44.5153,-20.40314],[-44.51434,-20.40268],[-44.51355,-20.40251],[-44.50877,-20.40248],[-44.50821,-20.40237],[-44.50769,-20.40213],[-44.50743,-20.40191],[-44.50696,-20.40127],[-44.50496,-20.39745],[-44.50425,-20.39651],[-44.50382,-20.39611],[-44.50284,-20.39542],[-44.50197,-20.39501],[-44.50097,-20.39472],[-44.49853,-20.3942],[-44.49787,-20.39395],[-44.49584,-20.39289],[-44.49309,-20.3913],[-44.49259,-20.39083],[-44.49229,-20.3904],[-44.49064,-20.38671],[-44.4903,-20.38628],[-44.48983,-20.38591],[-44.48943,-20.38571],[-44.4889,-20.38558],[-44.48651,-20.38565],[-44.48593,-20.38562],[-44.48521,-20.38547],[-44.48437,-20.38512],[-44.48162,-20.38332],[-44.48092,-20.38275],[-44.47359,-20.3752],[-44.47267,-20.37461],[-44.47106,-20.37392],[-44.47016,-20.37341],[-44.46947,-20.37269],[-44.46923,-20.37224],[-44.46906,-20.37148],[-44.46935,-20.36794],[-44.46935,-20.36675],[-44.46913,-20.36543],[-44.46896,-20.36496],[-44.46867,-20.36446],[-44.46804,-20.36353],[-44.46709,-20.36238],[-44.46684,-20.36186],[-44.46655,-20.36071],[-44.46606,-20.36004],[-44.4651,-20.35946],[-44.46404,-20.35863],[-44.46341,-20.35831],[-44.45615,-20.35585],[-44.45526,-20.35549],[-44.44635,-20.35107],[-44.44511,-20.35015],[-44.44453,-20.34956],[-44.44176,-20.34622],[-44.44137,-20.34563],[-44.44116,-20.34515],[-44.44102,-20.3446],[-44.44095,-20.3438],[-44.44083,-20.34167],[-44.44089,-20.34056],[-44.44106,-20.33986],[-44.44136,-20.33921],[-44.44201,-20.33839],[-44.44266,-20.33787],[-44.44548,-20.33645],[-44.44654,-20.33576],[-44.45439,-20.3289],[-44.45535,-20.32789],[-44.45589,-20.32708],[-44.45638,-20.32604],[-44.45669,-20.3245],[-44.45671,-20.32379],[-44.45661,-20.3229],[-44.45637,-20.32198],[-44.4559,-20.32082],[-44.44676,-20.30499],[-44.44631,-20.30437],[-44.44553,-20.30352],[-44.44464,-20.30281],[-44.44169,-20.30077],[-44.44126,-20.30022],[-44.44084,-20.29903],[-44.44053,-20.29842],[-44.43827,-20.29631],[-44.43761,-20.29545],[-44.43701,-20.29411],[-44.43537,-20.28702],[-44.43496,-20.28612],[-44.43457,-20.28566],[-44.43399,-20.28523],[-44.42976,-20.28301],[-44.42904,-20.28246],[-44.42856,-20.2818],[-44.42825,-20.28104],[-44.42741,-20.2779],[-44.42603,-20.27408],[-44.42441,-20.27036],[-44.42309,-20.267],[-44.42221,-20.26435],[-44.42083,-20.26076],[-44.42016,-20.25907],[-44.41972,-20.25829],[-44.41942,-20.25786],[-44.41865,-20.25709],[-44.41774,-20.25647],[-44.41387,-20.25473],[-44.41305,-20.25427],[-44.4124,-20.25372],[-44.41168,-20.25274],[-44.41133,-20.25197],[-44.41114,-20.25074],[-44.41123,-20.24986],[-44.4119,-20.24739],[-44.41203,-20.24513],[-44.41233,-20.24231],[-44.41223,-20.24133],[-44.41204,-20.24072],[-44.41175,-20.24013],[-44.4114,-20.23966],[-44.41071,-20.23899],[-44.40844,-20.23742],[-44.40685,-20.23604],[-44.40609,-20.23557],[-44.40464,-20.23485],[-44.40158,-20.23294],[-44.39866,-20.23185],[-44.39793,-20.23132],[-44.39743,-20.23062],[-44.39537,-20.22658],[-44.39519,-20.22599],[-44.39511,-20.22562],[-44.39498,-20.21992],[-44.39464,-20.21848],[-44.39164,-20.21141],[-44.38975,-20.20845],[-44.38957,-20.20776],[-44.38934,-20.20626],[-44.3886,-20.20439],[-44.37761,-20.17897],[-44.37702,-20.17787],[-44.37591,-20.17609],[-44.37572,-20.17539],[-44.3756,-20.17377],[-44.37541,-20.17342],[-44.3704,-20.16822],[-44.36946,-20.16668],[-44.36706,-20.16452],[-44.36675,-20.16439],[-44.36622,-20.16433],[-44.3644,-20.16462],[-44.36317,-20.16461],[-44.3626,-20.16452],[-44.36068,-20.16397],[-44.35857,-20.16304],[-44.35775,-20.16282],[-44.35703,-20.16292],[-44.35529,-20.16337],[-44.35222,-20.16315],[-44.35078,-20.16296],[-44.34884,-20.16225],[-44.34817,-20.16224],[-44.34689,-20.16241],[-44.34653,-20.16238],[-44.34321,-20.16161],[-44.34236,-20.16154],[-44.34162,-20.1618],[-44.34075,-20.16226],[-44.34038,-20.16267],[-44.33983,-20.16348],[-44.33936,-20.16382],[-44.33624,-20.16501],[-44.3358,-20.16535],[-44.33448,-20.16703],[-44.33397,-20.16747],[-44.33365,-20.16759],[-44.33322,-20.16763],[-44.33261,-20.16743],[-44.33224,-20.16711],[-44.33142,-20.16609],[-44.33093,-20.16454],[-44.33019,-20.16361],[-44.32989,-20.16309],[-44.32961,-20.1585],[-44.32949,-20.15803],[-44.32931,-20.15771],[-44.32902,-20.15742],[-44.32761,-20.1567],[-44.3272,-20.15628],[-44.32646,-20.15405],[-44.32576,-20.15242],[-44.32557,-20.15068],[-44.32531,-20.15025],[-44.32444,-20.14953],[-44.32413,-20.14918],[-44.32404,-20.14897],[-44.32398,-20.14839],[-44.32405,-20.14742],[-44.324,-20.14718],[-44.32369,-20.14667],[-44.32145,-20.14448],[-44.31982,-20.1432],[-44.31941,-20.14278],[-44.31876,-20.14169],[-44.31787,-20.13987],[-44.31722,-20.13876],[-44.31668,-20.1381],[-44.31442,-20.13659],[-44.31245,-20.13465],[-44.31199,-20.13429],[-44.31149,-20.13403],[-44.31091,-20.13384],[-44.30843,-20.13368],[-44.30799,-20.13357],[-44.3068,-20.13292],[-44.30489,-20.13236],[-44.30436,-20.13204],[-44.30389,-20.13153],[-44.30354,-20.13068],[-44.3029,-20.12758],[-44.30269,-20.12697],[-44.30175,-20.1251],[-44.3006,-20.12323],[-44.30047,-20.12271],[-44.30051,-20.1224],[-44.30082,-20.12191],[-44.30184,-20.12123],[-44.30207,-20.12104],[-44.30229,-20.12071],[-44.30235,-20.12026],[-44.30205,-20.11867],[-44.30219,-20.11815],[-44.30246,-20.11784],[-44.30395,-20.1167],[-44.30523,-20.11478],[-44.30556,-20.11453],[-44.30911,-20.11265],[-44.31157,-20.11078],[-44.31334,-20.10981],[-44.31438,-20.10876],[-44.31487,-20.10856],[-44.31545,-20.1086],[-44.31961,-20.11044],[-44.32171,-20.11096],[-44.3232,-20.11072],[-44.32505,-20.11105],[-44.32579,-20.111],[-44.32645,-20.11066],[-44.32672,-20.11038],[-44.32699,-20.10972],[-44.327,-20.10925],[-44.3268,-20.10869],[-44.32644,-20.10826],[-44.32619,-20.10809],[-44.32442,-20.10746],[-44.32388,-20.10712],[-44.32217,-20.10577],[-44.32136,-20.10539],[-44.31975,-20.10489],[-44.3194,-20.10468],[-44.31914,-20.1044],[-44.31892,-20.10388],[-44.31889,-20.10358],[-44.31927,-20.10148],[-44.31926,-20.10091],[-44.31913,-20.10048],[-44.31874,-20.09995],[-44.31669,-20.09853],[-44.31626,-20.09791],[-44.31581,-20.09581],[-44.31332,-20.0896],[-44.31274,-20.08852],[-44.3052,-20.07861],[-44.30436,-20.07763],[-44.29254,-20.06198],[-44.29101,-20.06027],[-44.29028,-20.0596],[-44.282,-20.05285],[-44.27967,-20.05059],[-44.27915,-20.05027],[-44.27698,-20.04954],[-44.27598,-20.04891],[-44.27521,-20.04805],[-44.27409,-20.04591],[-44.27374,-20.04552],[-44.27322,-20.04514],[-44.27099,-20.04426],[-44.25588,-20.03896],[-44.25438,-20.0386],[-44.25191,-20.03833],[-44.25077,-20.03812],[-44.24885,-20.03762],[-44.24794,-20.0373],[-44.24606,-20.03648],[-44.24506,-20.03595],[-44.23728,-20.03134],[-44.23625,-20.03058],[-44.23472,-20.02885],[-44.23268,-20.0271],[-44.23141,-20.02573],[-44.23001,-20.02366],[-44.2286,-20.01996],[-44.2281,-20.01917],[-44.22726,-20.01855],[-44.22381,-20.01715],[-44.22299,-20.01668],[-44.22252,-20.01611],[-44.22052,-20.01286],[-44.22014,-20.01235],[-44.21306,-20.00434],[-44.21262,-20.00356],[-44.21112,-20.00012],[-44.21067,-19.99925],[-44.20967,-19.99809],[-44.20904,-19.99717],[-44.20814,-19.99564],[-44.2065,-19.99162],[-44.20384,-19.98729],[-44.20303,-19.98583],[-44.20017,-19.97921],[-44.19964,-19.97706],[-44.19929,-19.97648],[-44.19857,-19.97596],[-44.19762,-19.97574],[-44.18669,-19.97469],[-44.18591,-19.97449],[-44.18542,-19.97421],[-44.18472,-19.97357],[-44.18161,-19.96974],[-44.17952,-19.96729],[-44.17875,-19.96657],[-44.17822,-19.96628],[-44.17304,-19.96482],[-44.16157,-19.96176],[-44.16074,-19.96162],[-44.15994,-19.96158],[-44.15694,-19.96178],[-44.15582,-19.96159],[-44.15451,-19.96103],[-44.14896,-19.95697],[-44.14784,-19.95645],[-44.14667,-19.95614],[-44.14602,-19.95605],[-44.1449,-19.95606],[-44.13953,-19.95674],[-44.13803,-19.95679],[-44.13697,-19.95671],[-44.13178,-19.95595],[-44.13114,-19.95588],[-44.12992,-19.9559],[-44.12928,-19.95597],[-44.12185,-19.95777],[-44.12073,-19.95783],[-44.11984,-19.9575],[-44.11777,-19.95565],[-44.11738,-19.95546],[-44.11688,-19.95536],[-44.11107,-19.95581],[-44.10467,-19.95621],[-44.10362,-19.95619],[-44.09755,-19.95565],[-44.09664,-19.95567],[-44.09592,-19.95582],[-44.09496,-19.95625],[-44.09099,-19.95889],[-44.09034,-19.95919],[-44.08977,-19.95932],[-44.08842,-19.95945],[-44.08444,-19.95973],[-44.08257,-19.95978],[-44.08179,-19.95965],[-44.08112,-19.9593],[-44.07976,-19.95796],[-44.0791,-19.95766],[-44.07873,-19.95761],[-44.07797,-19.95774],[-44.07485,-19.95882],[-44.0739,-19.95897],[-44.0639,-19.95903],[-44.05849,-19.95828],[-44.05751,-19.95817],[-44.05678,-19.95818],[-44.0559,-19.95835],[-44.05501,-19.95874],[-44.05184,-19.96092],[-44.04872,-19.96323],[-44.04767,-19.96382],[-44.04662,-19.96419],[-44.04578,-19.96432],[-44.04478,-19.96431],[-44.04395,-19.96418],[-44.04292,-19.96382],[-44.03963,-19.96236],[-44.03688,-19.96102],[-44.01634,-19.95148],[-44.009,-19.94815],[-44.00883,-19.94818],[-44.00824,-19.94794],[-44.00812,-19.94788],[-44.00809,-19.94786],[-44.00802,-19.94783],[-44.00781,-19.94789],[-44.00768,-19.94809],[-44.00777,-19.94873],[-44.00792,-19.94883],[-44.00812,-19.94877],[-44.0082,-19.94843],[-44.00814,-19.94794],[-44.0081,-19.94771],[-44.00805,-19.94724],[-44.00794,-19.94577],[-44.00753,-19.93594],[-44.00739,-19.93305],[-44.00739,-19.93286],[-44.00733,-19.93151],[-44.00731,-19.93126],[-44.00721,-19.93116],[-44.0069,-19.93015],[-44.00662,-19.92866],[-44.00609,-19.92852],[-44.00606,-19.93],[-44.00681,-19.93015],[-44.00687,-19.93194],[-44.00672,-19.93241],[-44.00641,-19.9327],[-44.00652,-19.9329],[-44.00728,-19.93274],[-44.00782,-19.93273],[-44.01083,-19.93316],[-44.01199,-19.93303],[-44.01277,-19.93266],[-44.01285,-19.93249],[-44.01371,-19.93179],[-44.01312,-19.93106],[-44.01326,-19.93097]]},"properties":{"route_id":"arena-mrv","tipo":"rota","clube":"Atlético-MG","estadio":"Arena MRV","cidade":"Belo Horizonte","estado":"MG","distancia_km":570.6,"modo_rota":"carro","match_status":"projecao","status":"Projeção: adversário é previsto pelo chaveamento; data e estádio sujeitos a confirmação.","projecao":true,"fonte_rota":"ROTA - ARENA MRV.shp","metodo_rota":"Traçado viário existente convertido do shapefile do usuário.","data_partida":null,"Name":"Rotas de Parque São Jorge, São Paulo - SP até Arena MRV - Rua Cristina Maria de Assis - Califórnia, Belo Horizonte - MG","ajuste_origem_m":0.0}},{"type":"Feature","geometry":{"type":"Point","coordinates":[-44.01326,-19.93097]},"properties":{"route_id":"arena-mrv","tipo":"estadio_destino","clube":"Atlético-MG","estadio":"Arena MRV","cidade":"Belo Horizonte","estado":"MG","distancia_km":570.6,"status":"Projeção: adversário é previsto pelo chaveamento; data e estádio sujeitos a confirmação.","projecao":true,"data_partida":null}}]}