{"type":"FeatureCollection","name":"braganca-paulista","features":[{"type":"Feature","geometry":{"type":"LineString","coordinates":[[-46.56809,-23.53096],[-46.5686,-23.53109],[-46.56879,-23.53032],[-46.56976,-23.5306],[-46.56984,-23.53056],[-46.57077,-23.52732],[-46.56945,-23.52758],[-46.56892,-23.52761],[-46.56625,-23.52742],[-46.56479,-23.52713],[-46.56451,-23.52697],[-46.56155,-23.52456],[-46.56112,-23.52431],[-46.56057,-23.52416],[-46.55969,-23.52411],[-46.55904,-23.52396],[-46.5584,-23.52375],[-46.55804,-23.52359],[-46.55796,-23.52354],[-46.55781,-23.52346],[-46.55772,-23.5234],[-46.55738,-23.52351],[-46.55693,-23.52438],[-46.55704,-23.52447],[-46.55716,-23.52442],[-46.55755,-23.52396],[-46.55773,-23.52364],[-46.55783,-23.52351],[-46.558,-23.52324],[-46.55879,-23.52208],[-46.559,-23.52173],[-46.55927,-23.52136],[-46.55966,-23.52067],[-46.56078,-23.5191],[-46.56131,-23.51798],[-46.56149,-23.51691],[-46.56147,-23.5163],[-46.56119,-23.51526],[-46.55889,-23.51076],[-46.55852,-23.50984],[-46.55837,-23.50895],[-46.55861,-23.50597],[-46.55943,-23.49837],[-46.55947,-23.49527],[-46.55928,-23.49222],[-46.55927,-23.49031],[-46.5598,-23.48323],[-46.56011,-23.47772],[-46.56047,-23.47582],[-46.56068,-23.47518],[-46.56115,-23.47435],[-46.56174,-23.47367],[-46.5627,-23.47279],[-46.56359,-23.47215],[-46.57005,-23.46861],[-46.57083,-23.46798],[-46.5711,-23.46762],[-46.57139,-23.46701],[-46.57153,-23.46621],[-46.57153,-23.46549],[-46.57136,-23.45965],[-46.57139,-23.4582],[-46.57101,-23.45508],[-46.56833,-23.44399],[-46.56805,-23.44247],[-46.56789,-23.44087],[-46.56784,-23.43923],[-46.56795,-23.43731],[-46.56818,-23.43589],[-46.5686,-23.43403],[-46.56906,-23.43265],[-46.56975,-23.43114],[-46.57075,-23.42945],[-46.57156,-23.42829],[-46.57311,-23.42633],[-46.57533,-23.42398],[-46.57662,-23.42248],[-46.57826,-23.42041],[-46.57895,-23.41931],[-46.58112,-23.41466],[-46.58137,-23.41382],[-46.58146,-23.41315],[-46.58152,-23.41259],[-46.58148,-23.41131],[-46.58134,-23.41052],[-46.58084,-23.40876],[-46.58008,-23.40624],[-46.57975,-23.40553],[-46.57943,-23.40519],[-46.57892,-23.40492],[-46.57743,-23.40484],[-46.57679,-23.40467],[-46.57609,-23.40424],[-46.57577,-23.40393],[-46.57553,-23.40355],[-46.57529,-23.40285],[-46.57536,-23.40177],[-46.57638,-23.40006],[-46.57646,-23.39941],[-46.57636,-23.39884],[-46.57613,-23.39843],[-46.57573,-23.398],[-46.57416,-23.39695],[-46.5733,-23.39618],[-46.57238,-23.39496],[-46.57204,-23.39431],[-46.57081,-23.39105],[-46.57056,-23.39072],[-46.56954,-23.38987],[-46.56925,-23.38944],[-46.56915,-23.38891],[-46.56928,-23.38772],[-46.56906,-23.38712],[-46.56868,-23.38671],[-46.56808,-23.38644],[-46.56586,-23.38641],[-46.56533,-23.38629],[-46.56483,-23.38596],[-46.56456,-23.38556],[-46.56443,-23.385],[-46.56471,-23.38386],[-46.56463,-23.38329],[-46.56428,-23.38281],[-46.56322,-23.38213],[-46.56295,-23.38177],[-46.56279,-23.38123],[-46.56282,-23.3808],[-46.56301,-23.38039],[-46.5643,-23.37928],[-46.56456,-23.37886],[-46.56468,-23.37848],[-46.56463,-23.37799],[-46.56433,-23.37734],[-46.56388,-23.37662],[-46.56348,-23.37625],[-46.56319,-23.37611],[-46.56291,-23.37604],[-46.56156,-23.37599],[-46.56118,-23.37586],[-46.56077,-23.37559],[-46.56036,-23.37506],[-46.55964,-23.3737],[-46.55949,-23.37354],[-46.55918,-23.37332],[-46.55649,-23.37201],[-46.55613,-23.37172],[-46.55578,-23.37122],[-46.55548,-23.36988],[-46.55515,-23.36943],[-46.55471,-23.36913],[-46.55286,-23.36824],[-46.55233,-23.36768],[-46.55215,-23.36691],[-46.5524,-23.36478],[-46.55232,-23.36384],[-46.55208,-23.36317],[-46.55153,-23.3621],[-46.55059,-23.36055],[-46.54941,-23.358],[-46.54902,-23.35732],[-46.54879,-23.35656],[-46.54875,-23.35577],[-46.54895,-23.35528],[-46.54943,-23.3547],[-46.55068,-23.35397],[-46.55116,-23.35353],[-46.55132,-23.35321],[-46.55156,-23.35195],[-46.55191,-23.35124],[-46.55311,-23.34967],[-46.55381,-23.349],[-46.55437,-23.3488],[-46.55504,-23.3488],[-46.55917,-23.35009],[-46.55949,-23.35014],[-46.56007,-23.35004],[-46.56053,-23.34973],[-46.56073,-23.34945],[-46.56113,-23.34798],[-46.5614,-23.34761],[-46.56175,-23.34735],[-46.5621,-23.34722],[-46.56413,-23.34682],[-46.56507,-23.34652],[-46.57259,-23.34352],[-46.57305,-23.34323],[-46.57339,-23.34279],[-46.57816,-23.32728],[-46.57878,-23.32616],[-46.58031,-23.32422],[-46.58125,-23.3222],[-46.58228,-23.32026],[-46.58247,-23.31951],[-46.58244,-23.31744],[-46.58216,-23.31257],[-46.58189,-23.31159],[-46.58134,-23.31061],[-46.58058,-23.30977],[-46.57888,-23.30848],[-46.57673,-23.30715],[-46.57564,-23.30642],[-46.57498,-23.30588],[-46.57421,-23.30515],[-46.57349,-23.3043],[-46.5724,-23.30258],[-46.57203,-23.30166],[-46.57183,-23.30065],[-46.57157,-23.2966],[-46.57171,-23.29545],[-46.57191,-23.29478],[-46.5723,-23.29402],[-46.573,-23.2932],[-46.57346,-23.29285],[-46.57423,-23.29244],[-46.57556,-23.29208],[-46.57819,-23.29203],[-46.57897,-23.29183],[-46.57933,-23.29159],[-46.57967,-23.29121],[-46.5801,-23.28995],[-46.58025,-23.28971],[-46.58072,-23.28934],[-46.58168,-23.28892],[-46.58235,-23.28883],[-46.58303,-23.28897],[-46.5837,-23.28942],[-46.5845,-23.29057],[-46.58484,-23.29088],[-46.5851,-23.29102],[-46.58556,-23.29113],[-46.58614,-23.291],[-46.58668,-23.29058],[-46.5873,-23.2893],[-46.58774,-23.28889],[-46.58945,-23.2876],[-46.58999,-23.28678],[-46.59012,-23.28632],[-46.59011,-23.28591],[-46.59002,-23.28546],[-46.58982,-23.28501],[-46.58952,-23.28459],[-46.58744,-23.28238],[-46.58692,-23.28155],[-46.58656,-23.28071],[-46.58381,-23.26787],[-46.58371,-23.26681],[-46.58385,-23.26582],[-46.58429,-23.26475],[-46.58483,-23.264],[-46.59339,-23.2552],[-46.59429,-23.25421],[-46.59451,-23.25387],[-46.59475,-23.25298],[-46.5947,-23.25226],[-46.59431,-23.25143],[-46.59314,-23.25013],[-46.59277,-23.24953],[-46.59257,-23.24882],[-46.59259,-23.24829],[-46.59274,-23.2478],[-46.59319,-23.24714],[-46.59616,-23.24418],[-46.59723,-23.24293],[-46.59783,-23.24169],[-46.59838,-23.23948],[-46.59878,-23.23851],[-46.59949,-23.23744],[-46.60127,-23.23555],[-46.60161,-23.2351],[-46.60195,-23.23423],[-46.60197,-23.23347],[-46.60178,-23.23279],[-46.6015,-23.2323],[-46.59936,-23.22997],[-46.59894,-23.22936],[-46.59859,-23.22868],[-46.59169,-23.20806],[-46.58888,-23.20143],[-46.57429,-23.16538],[-46.57373,-23.16368],[-46.57348,-23.16251],[-46.57336,-23.16115],[-46.57337,-23.16019],[-46.57572,-23.1383],[-46.57607,-23.13569],[-46.57608,-23.13506],[-46.57666,-23.12962],[-46.5767,-23.12839],[-46.57641,-23.12667],[-46.57488,-23.12254],[-46.5739,-23.11954],[-46.56869,-23.10542],[-46.56838,-23.10394],[-46.56845,-23.10244],[-46.56901,-23.1007],[-46.5723,-23.09594],[-46.57269,-23.09509],[-46.57292,-23.09423],[-46.57299,-23.09365],[-46.5729,-23.09229],[-46.57241,-23.09069],[-46.57039,-23.0851],[-46.56984,-23.08337],[-46.56973,-23.08258],[-46.56975,-23.07924],[-46.56963,-23.07871],[-46.56942,-23.07831],[-46.56882,-23.07769],[-46.56708,-23.07676],[-46.56647,-23.07635],[-46.56614,-23.07597],[-46.56593,-23.07559],[-46.56578,-23.07492],[-46.56586,-23.0742],[-46.56601,-23.07382],[-46.56858,-23.069],[-46.56966,-23.06666],[-46.57062,-23.06324],[-46.5713,-23.06029],[-46.57139,-23.0588],[-46.5712,-23.05773],[-46.57103,-23.05721],[-46.57062,-23.05631],[-46.56998,-23.05539],[-46.56568,-23.05028],[-46.56352,-23.04754],[-46.55626,-23.03882],[-46.55549,-23.03806],[-46.55457,-23.03739],[-46.55344,-23.03682],[-46.54467,-23.03436],[-46.54318,-23.03372],[-46.54216,-23.03308],[-46.54128,-23.03233],[-46.5366,-23.02748],[-46.53555,-23.02649],[-46.52517,-23.01588],[-46.52477,-23.01542],[-46.52414,-23.01439],[-46.51836,-22.99954],[-46.51815,-22.99915],[-46.51722,-22.99798],[-46.51555,-22.99668],[-46.51288,-22.99588],[-46.5127,-22.99574],[-46.51258,-22.9955],[-46.51265,-22.99504],[-46.513,-22.99432],[-46.51297,-22.99412],[-46.5126,-22.99341],[-46.51277,-22.99161],[-46.51292,-22.99099],[-46.51322,-22.99045],[-46.51459,-22.98916],[-46.51508,-22.98882],[-46.52177,-22.98624],[-46.52229,-22.986],[-46.52297,-22.98556],[-46.52533,-22.98303],[-46.52598,-22.9822],[-46.52683,-22.98154],[-46.52867,-22.97972],[-46.52974,-22.97843],[-46.53042,-22.978],[-46.53084,-22.9776],[-46.53127,-22.97705],[-46.5314,-22.9766],[-46.53211,-22.97544],[-46.53236,-22.97512],[-46.53287,-22.97469],[-46.53422,-22.97242],[-46.53583,-22.97046],[-46.53591,-22.97001],[-46.53563,-22.96943],[-46.53524,-22.96903],[-46.53431,-22.9684],[-46.53325,-22.96815],[-46.53164,-22.96831],[-46.5313,-22.96814],[-46.53118,-22.96796],[-46.53133,-22.9661],[-46.53121,-22.96564],[-46.53082,-22.96508],[-46.53077,-22.96473],[-46.53095,-22.96443],[-46.53165,-22.96366],[-46.53172,-22.96345],[-46.5317,-22.96313],[-46.53142,-22.96264],[-46.52928,-22.96009],[-46.52869,-22.95734],[-46.52867,-22.95591],[-46.52906,-22.95504],[-46.52919,-22.95348],[-46.52887,-22.95276],[-46.52899,-22.95211],[-46.52898,-22.95146],[-46.52995,-22.95164]]},"properties":{"route_id":"braganca-paulista","tipo":"rota","clube":"Red Bull Bragantino","estadio":"Estádio Municipal Cícero de Souza Marques","cidade":"Bragança Paulista","estado":"SP","distancia_km":79.4,"modo_rota":"carro","match_status":"concluida","status":"Traçado fornecido para deslocamento do Brasileirão 2026.","projecao":false,"fonte_rota":"ROTA - BRAGANÇA PAULISTA.shp","metodo_rota":"Traçado viário existente convertido do shapefile do usuário.","data_partida":null,"Name":"Rotas de Parque São Jorge, São Paulo - SP até Estádio Municipal Cicero De Souza Marques - Vila Municipal, Bragança Paulista - SP","ajuste_origem_m":0.0}},{"type":"Feature","geometry":{"type":"Point","coordinates":[-46.52995,-22.95164]},"properties":{"route_id":"braganca-paulista","tipo":"estadio_destino","clube":"Red Bull Bragantino","estadio":"Estádio Municipal Cícero de Souza Marques","cidade":"Bragança Paulista","estado":"SP","distancia_km":79.4,"status":"Traçado fornecido para deslocamento do Brasileirão 2026.","projecao":false,"data_partida":null}}]}