{"type":"FeatureCollection","name":"engenhao","features":[{"type":"Feature","geometry":{"type":"LineString","coordinates":[[-46.56809,-23.53096],[-46.5686,-23.53109],[-46.56879,-23.53032],[-46.56976,-23.5306],[-46.56984,-23.53056],[-46.57077,-23.52732],[-46.56945,-23.52758],[-46.56892,-23.52761],[-46.56625,-23.52742],[-46.56473,-23.52711],[-46.56163,-23.52462],[-46.56112,-23.52431],[-46.56057,-23.52416],[-46.55969,-23.52411],[-46.5587,-23.52386],[-46.55804,-23.52359],[-46.55711,-23.52303],[-46.55641,-23.52243],[-46.55574,-23.52157],[-46.55525,-23.52053],[-46.55502,-23.51959],[-46.5551,-23.51887],[-46.55519,-23.51872],[-46.55593,-23.51503],[-46.55597,-23.5136],[-46.55587,-23.51283],[-46.55552,-23.51143],[-46.55508,-23.51043],[-46.55437,-23.50949],[-46.55356,-23.50876],[-46.55253,-23.50815],[-46.55155,-23.50776],[-46.55071,-23.50757],[-46.54652,-23.50703],[-46.54514,-23.50658],[-46.54402,-23.50599],[-46.54305,-23.50532],[-46.54247,-23.50481],[-46.53635,-23.4985],[-46.53532,-23.4976],[-46.53413,-23.49698],[-46.53313,-23.49669],[-46.53221,-23.49657],[-46.52432,-23.49639],[-46.52325,-23.49623],[-46.5144,-23.49313],[-46.51298,-23.49255],[-46.5119,-23.49198],[-46.51062,-23.4911],[-46.50998,-23.49056],[-46.5088,-23.48931],[-46.50317,-23.4813],[-46.49905,-23.47561],[-46.49854,-23.47503],[-46.49754,-23.4742],[-46.49623,-23.47359],[-46.49521,-23.47335],[-46.49398,-23.47328],[-46.48884,-23.47412],[-46.48726,-23.47426],[-46.48586,-23.47424],[-46.481,-23.47386],[-46.48025,-23.47388],[-46.47907,-23.47406],[-46.47818,-23.47432],[-46.47697,-23.4749],[-46.47088,-23.47937],[-46.46954,-23.48015],[-46.4677,-23.48099],[-46.46656,-23.4814],[-46.46403,-23.48201],[-46.46152,-23.48223],[-46.45987,-23.48221],[-46.45809,-23.48203],[-46.45585,-23.48164],[-46.44515,-23.47963],[-46.44323,-23.47917],[-46.44176,-23.47862],[-46.44037,-23.47796],[-46.4393,-23.4773],[-46.43834,-23.4766],[-46.43741,-23.4758],[-46.436,-23.47426],[-46.43386,-23.47128],[-46.43275,-23.47012],[-46.43206,-23.4696],[-46.43101,-23.46902],[-46.43013,-23.46866],[-46.4287,-23.46833],[-46.42689,-23.46825],[-46.4202,-23.46835],[-46.41566,-23.46791],[-46.41466,-23.46795],[-46.40164,-23.47021],[-46.39996,-23.47028],[-46.39858,-23.47014],[-46.39679,-23.46968],[-46.38983,-23.46746],[-46.3854,-23.46622],[-46.38364,-23.46586],[-46.37988,-23.46541],[-46.37669,-23.46536],[-46.37401,-23.46551],[-46.37281,-23.46565],[-46.37114,-23.4659],[-46.36382,-23.46756],[-46.36174,-23.46786],[-46.36009,-23.46795],[-46.35771,-23.46786],[-46.35527,-23.46752],[-46.35425,-23.46728],[-46.35261,-23.46677],[-46.35115,-23.4662],[-46.34961,-23.46544],[-46.34824,-23.46464],[-46.34631,-23.46322],[-46.33698,-23.45526],[-46.33029,-23.44967],[-46.32796,-23.44832],[-46.32639,-23.44766],[-46.3252,-23.44727],[-46.30442,-23.44282],[-46.30318,-23.44262],[-46.30159,-23.44247],[-46.30012,-23.44244],[-46.29893,-23.44249],[-46.29364,-23.44303],[-46.29204,-23.44297],[-46.29099,-23.44277],[-46.29026,-23.44254],[-46.28724,-23.44122],[-46.2857,-23.44067],[-46.2844,-23.44039],[-46.28306,-23.44024],[-46.28124,-23.44026],[-46.27937,-23.44057],[-46.27864,-23.44076],[-46.27208,-23.44304],[-46.27105,-23.44329],[-46.27024,-23.44339],[-46.26911,-23.4434],[-46.26671,-23.44301],[-46.24317,-23.43794],[-46.24254,-23.43771],[-46.2415,-23.43719],[-46.23363,-23.43255],[-46.23171,-23.43159],[-46.20864,-23.42245],[-46.20748,-23.42185],[-46.2062,-23.42103],[-46.20276,-23.41817],[-46.20188,-23.41757],[-46.20106,-23.41713],[-46.19979,-23.41663],[-46.19604,-23.41558],[-46.19411,-23.41492],[-46.19178,-23.41386],[-46.18927,-23.41234],[-46.18711,-23.41062],[-46.18518,-23.40864],[-46.1839,-23.40698],[-46.17957,-23.40084],[-46.17796,-23.39889],[-46.17603,-23.39691],[-46.17345,-23.39473],[-46.17104,-23.39306],[-46.16896,-23.39184],[-46.15812,-23.38642],[-46.15623,-23.38538],[-46.15444,-23.38462],[-46.14943,-23.38206],[-46.14848,-23.38151],[-46.14746,-23.38082],[-46.14641,-23.37997],[-46.13592,-23.37038],[-46.13333,-23.36818],[-46.13256,-23.3674],[-46.13131,-23.36567],[-46.13065,-23.36503],[-46.12981,-23.36453],[-46.12807,-23.36389],[-46.12714,-23.36334],[-46.12653,-23.36277],[-46.12513,-23.36118],[-46.12431,-23.36051],[-46.12358,-23.36004],[-46.1224,-23.3595],[-46.11824,-23.35813],[-46.1149,-23.35712],[-46.11348,-23.357],[-46.11253,-23.35708],[-46.11178,-23.35725],[-46.11078,-23.35762],[-46.10809,-23.3589],[-46.10739,-23.35911],[-46.10622,-23.35929],[-46.09934,-23.35981],[-46.09808,-23.35985],[-46.09582,-23.35957],[-46.09271,-23.35884],[-46.09092,-23.35874],[-46.08981,-23.35883],[-46.08114,-23.3601],[-46.07973,-23.36018],[-46.0775,-23.35992],[-46.0661,-23.35808],[-46.06465,-23.35777],[-46.06216,-23.35698],[-46.05319,-23.35314],[-46.052,-23.3525],[-46.05075,-23.35169],[-46.04343,-23.34632],[-46.04125,-23.3448],[-46.04017,-23.34424],[-46.03889,-23.34375],[-46.03779,-23.34348],[-46.03702,-23.3434],[-46.03584,-23.3434],[-46.03492,-23.34351],[-46.02884,-23.34492],[-46.02775,-23.34523],[-46.02559,-23.34556],[-46.02349,-23.34567],[-46.02274,-23.34564],[-46.01572,-23.3445],[-46.01476,-23.34439],[-46.01334,-23.34438],[-46.01184,-23.34459],[-46.01015,-23.34513],[-46.00857,-23.34553],[-46.00681,-23.34573],[-46.00482,-23.34565],[-46.00181,-23.34541],[-46.00028,-23.3455],[-45.99908,-23.34582],[-45.99792,-23.34629],[-45.99616,-23.34683],[-45.99514,-23.34704],[-45.99395,-23.34709],[-45.99306,-23.34695],[-45.99175,-23.34654],[-45.9884,-23.34481],[-45.98727,-23.34447],[-45.98633,-23.34432],[-45.97318,-23.34346],[-45.97167,-23.34324],[-45.96826,-23.34235],[-45.96706,-23.34219],[-45.96571,-23.34216],[-45.96499,-23.34223],[-45.96,-23.34302],[-45.95873,-23.34307],[-45.95725,-23.34296],[-45.95593,-23.34269],[-45.95434,-23.34219],[-45.95219,-23.34082],[-45.95024,-23.33932],[-45.94915,-23.33873],[-45.9479,-23.33827],[-45.9467,-23.33799],[-45.94536,-23.33787],[-45.94294,-23.33795],[-45.94169,-23.33789],[-45.93996,-23.33753],[-45.93921,-23.33729],[-45.93748,-23.33646],[-45.93437,-23.33429],[-45.93204,-23.33308],[-45.92961,-23.33215],[-45.92457,-23.33046],[-45.92061,-23.32904],[-45.91975,-23.32862],[-45.91841,-23.32775],[-45.91716,-23.32661],[-45.91076,-23.31908],[-45.90968,-23.31807],[-45.90879,-23.31752],[-45.90808,-23.31721],[-45.90721,-23.31695],[-45.90443,-23.31638],[-45.90295,-23.31587],[-45.90139,-23.31503],[-45.90003,-23.31394],[-45.89891,-23.31265],[-45.89201,-23.30288],[-45.89099,-23.30189],[-45.89028,-23.30144],[-45.88946,-23.3011],[-45.88819,-23.30083],[-45.88245,-23.30058],[-45.88091,-23.30041],[-45.87959,-23.30002],[-45.87817,-23.29927],[-45.87713,-23.29837],[-45.86831,-23.28979],[-45.86637,-23.28799],[-45.86223,-23.28477],[-45.8603,-23.28347],[-45.8586,-23.28196],[-45.85481,-23.27906],[-45.85362,-23.27847],[-45.85247,-23.27813],[-45.85104,-23.27798],[-45.84682,-23.27803],[-45.84493,-23.27789],[-45.84221,-23.27739],[-45.84034,-23.27682],[-45.83851,-23.27607],[-45.83685,-23.27521],[-45.8297,-23.27073],[-45.8279,-23.26975],[-45.82618,-23.26908],[-45.82122,-23.26747],[-45.8178,-23.26646],[-45.81097,-23.26422],[-45.80915,-23.26344],[-45.80774,-23.2627],[-45.806,-23.26155],[-45.80444,-23.26022],[-45.79632,-23.2525],[-45.79413,-23.25024],[-45.79281,-23.24861],[-45.79218,-23.24771],[-45.78545,-23.2376],[-45.78402,-23.23596],[-45.78321,-23.23521],[-45.78234,-23.2345],[-45.77997,-23.2328],[-45.7664,-23.22318],[-45.76425,-23.2219],[-45.74811,-23.2138],[-45.746,-23.21238],[-45.74465,-23.21121],[-45.74377,-23.21029],[-45.74262,-23.20885],[-45.74163,-23.20724],[-45.74126,-23.2065],[-45.74056,-23.20479],[-45.73813,-23.19704],[-45.73748,-23.19539],[-45.73695,-23.19441],[-45.73633,-23.19344],[-45.72849,-23.18246],[-45.72748,-23.18129],[-45.72663,-23.18046],[-45.72527,-23.17944],[-45.72425,-23.17882],[-45.71394,-23.17356],[-45.71201,-23.17245],[-45.71009,-23.17112],[-45.70787,-23.16914],[-45.70708,-23.16833],[-45.70588,-23.16692],[-45.70032,-23.15887],[-45.69937,-23.15766],[-45.69767,-23.15602],[-45.69675,-23.15488],[-45.69604,-23.15413],[-45.69348,-23.1521],[-45.69068,-23.15038],[-45.68797,-23.1491],[-45.68664,-23.14858],[-45.67091,-23.14309],[-45.66918,-23.1424],[-45.66636,-23.14092],[-45.66482,-23.13988],[-45.66255,-23.13801],[-45.66062,-23.13597],[-45.65995,-23.13513],[-45.65894,-23.13371],[-45.6579,-23.13193],[-45.65702,-23.12998],[-45.65646,-23.12842],[-45.6534,-23.11909],[-45.65287,-23.11783],[-45.65202,-23.11633],[-45.65134,-23.11538],[-45.65057,-23.11449],[-45.64991,-23.11387],[-45.64909,-23.11316],[-45.64784,-23.11229],[-45.63504,-23.10455],[-45.63413,-23.10411],[-45.63179,-23.10316],[-45.62985,-23.10208],[-45.62765,-23.10026],[-45.62635,-23.09931],[-45.62022,-23.0957],[-45.61862,-23.0949],[-45.6173,-23.09438],[-45.61415,-23.09345],[-45.61368,-23.09317],[-45.61321,-23.09259],[-45.61301,-23.09192],[-45.61312,-23.09117],[-45.61475,-23.0877],[-45.61503,-23.08691],[-45.61514,-23.08609],[-45.61508,-23.08347],[-45.61526,-23.0825],[-45.61582,-23.0813],[-45.61709,-23.07976],[-45.61753,-23.07911],[-45.61792,-23.07813],[-45.61803,-23.07745],[-45.61804,-23.07679],[-45.61788,-23.07388],[-45.61791,-23.07313],[-45.61808,-23.07239],[-45.62007,-23.06715],[-45.62024,-23.06633],[-45.62023,-23.06508],[-45.62002,-23.0636],[-45.61962,-23.06204],[-45.61931,-23.06145],[-45.61857,-23.06049],[-45.61837,-23.05973],[-45.61837,-23.05939],[-45.61818,-23.05897],[-45.61753,-23.05823],[-45.61593,-23.05734],[-45.61589,-23.05724],[-45.60564,-23.05215],[-45.60366,-23.05121],[-45.59937,-23.04938],[-45.59376,-23.04749],[-45.59155,-23.04686],[-45.57912,-23.04375],[-45.56304,-23.03955],[-45.56042,-23.03861],[-45.55815,-23.03755],[-45.55584,-23.03622],[-45.55377,-23.03484],[-45.53884,-23.02412],[-45.53825,-23.02377],[-45.53539,-23.02174],[-45.52081,-23.01123],[-45.51801,-23.00939],[-45.51586,-23.00817],[-45.47782,-22.98912],[-45.45833,-22.97923],[-45.45489,-22.97756],[-45.44887,-22.97448],[-45.40539,-22.95271],[-45.39925,-22.94956],[-45.369,-22.93437],[-45.36255,-22.93116],[-45.36081,-22.93048],[-45.35897,-22.92935],[-45.35746,-22.92856],[-45.35016,-22.925],[-45.34001,-22.91977],[-45.31088,-22.90508],[-45.30821,-22.90347],[-45.28256,-22.88578],[-45.27339,-22.87828],[-45.27286,-22.87787],[-45.27165,-22.87712],[-45.26992,-22.87635],[-45.2687,-22.876],[-45.25587,-22.87412],[-45.24767,-22.87203],[-45.24712,-22.87184],[-45.24579,-22.87112],[-45.245,-22.8705],[-45.24447,-22.86995],[-45.24279,-22.86761],[-45.24205,-22.86683],[-45.24143,-22.86636],[-45.23897,-22.86481],[-45.23824,-22.86419],[-45.22918,-22.85407],[-45.22714,-22.85034],[-45.22703,-22.84963],[-45.22723,-22.84766],[-45.22703,-22.84676],[-45.22637,-22.84568],[-45.22487,-22.84375],[-45.22459,-22.84327],[-45.22347,-22.83924],[-45.22299,-22.83836],[-45.2222,-22.83742],[-45.21361,-22.83067],[-45.20561,-22.82707],[-45.2047,-22.82651],[-45.20419,-22.82603],[-45.20382,-22.82555],[-45.20225,-22.82284],[-45.20179,-22.82238],[-45.20129,-22.82206],[-45.19928,-22.82134],[-45.19822,-22.82135],[-45.19719,-22.82167],[-45.19345,-22.82311],[-45.19279,-22.82322],[-45.19197,-22.82316],[-45.19139,-22.82298],[-45.19068,-22.82259],[-45.18753,-22.82052],[-45.18645,-22.82007],[-45.18381,-22.81929],[-45.18272,-22.81867],[-45.1822,-22.81816],[-45.18133,-22.81706],[-45.17184,-22.80457],[-45.16588,-22.79502],[-45.16494,-22.79394],[-45.16391,-22.79309],[-45.0941,-22.743],[-45.07555,-22.72981],[-45.05226,-22.7131],[-45.05049,-22.71194],[-44.99796,-22.67442],[-44.99671,-22.67342],[-44.9953,-22.6714],[-44.9946,-22.67083],[-44.99388,-22.67051],[-44.99347,-22.67041],[-44.99132,-22.67008],[-44.99077,-22.66992],[-44.99021,-22.66965],[-44.9887,-22.6685],[-44.98661,-22.66667],[-44.98526,-22.66563],[-44.98104,-22.66253],[-44.98035,-22.66213],[-44.97938,-22.6618],[-44.96545,-22.65849],[-44.9637,-22.6578],[-44.96231,-22.65696],[-44.96057,-22.65548],[-44.95879,-22.65383],[-44.95828,-22.65296],[-44.95766,-22.65096],[-44.95708,-22.64992],[-44.95625,-22.64895],[-44.95573,-22.64853],[-44.95475,-22.64794],[-44.95246,-22.64699],[-44.9516,-22.64646],[-44.94723,-22.6421],[-44.94643,-22.6415],[-44.94548,-22.641],[-44.94446,-22.64066],[-44.94029,-22.64013],[-44.9392,-22.63991],[-44.93889,-22.63978],[-44.93831,-22.63944],[-44.93787,-22.63906],[-44.93748,-22.6386],[-44.93626,-22.63671],[-44.93588,-22.63628],[-44.9349,-22.63545],[-44.92774,-22.63185],[-44.92716,-22.63146],[-44.9246,-22.62917],[-44.92389,-22.62872],[-44.9182,-22.62603],[-44.9179,-22.62583],[-44.91552,-22.62478],[-44.91439,-22.62452],[-44.91138,-22.62432],[-44.91063,-22.62408],[-44.91018,-22.62376],[-44.90976,-22.62323],[-44.90907,-22.62096],[-44.90863,-22.62018],[-44.90806,-22.61966],[-44.90459,-22.61751],[-44.89992,-22.61406],[-44.89943,-22.61362],[-44.89896,-22.61293],[-44.89689,-22.60801],[-44.89641,-22.60719],[-44.8961,-22.60683],[-44.88912,-22.60065],[-44.88852,-22.6],[-44.8881,-22.59929],[-44.88792,-22.5988],[-44.88638,-22.59391],[-44.88628,-22.59306],[-44.88631,-22.59149],[-44.88614,-22.59078],[-44.88597,-22.59044],[-44.88558,-22.58993],[-44.8818,-22.58601],[-44.8814,-22.58567],[-44.8808,-22.58537],[-44.87902,-22.58493],[-44.87842,-22.58459],[-44.87814,-22.58431],[-44.87793,-22.58398],[-44.87771,-22.58335],[-44.87747,-22.57993],[-44.87715,-22.57906],[-44.87657,-22.5782],[-44.87575,-22.57751],[-44.87519,-22.57721],[-44.87454,-22.57699],[-44.8673,-22.57511],[-44.86636,-22.57456],[-44.86558,-22.57378],[-44.86503,-22.57276],[-44.86482,-22.57162],[-44.86494,-22.56895],[-44.86567,-22.5662],[-44.86566,-22.56505],[-44.86547,-22.56437],[-44.86505,-22.56358],[-44.86438,-22.56285],[-44.86374,-22.5624],[-44.85378,-22.55703],[-44.85285,-22.55676],[-44.85218,-22.55671],[-44.85118,-22.55686],[-44.84935,-22.55744],[-44.84626,-22.55801],[-44.84485,-22.55843],[-44.84285,-22.55918],[-44.84187,-22.55939],[-44.84107,-22.5594],[-44.84028,-22.55926],[-44.83707,-22.5581],[-44.83626,-22.55798],[-44.83535,-22.55801],[-44.83472,-22.55814],[-44.83375,-22.55856],[-44.8321,-22.55978],[-44.83125,-22.56018],[-44.83019,-22.56038],[-44.82962,-22.56036],[-44.82891,-22.56022],[-44.82115,-22.55743],[-44.81996,-22.55663],[-44.81753,-22.55471],[-44.81647,-22.55398],[-44.80496,-22.54751],[-44.80435,-22.54704],[-44.80361,-22.54622],[-44.80326,-22.54568],[-44.80268,-22.5445],[-44.80189,-22.54343],[-44.80136,-22.54295],[-44.80073,-22.54252],[-44.79954,-22.54192],[-44.79841,-22.54167],[-44.79707,-22.54162],[-44.79577,-22.54195],[-44.78849,-22.54442],[-44.78764,-22.54456],[-44.78689,-22.54457],[-44.7857,-22.5444],[-44.78362,-22.54388],[-44.78237,-22.54337],[-44.78193,-22.54311],[-44.78115,-22.54247],[-44.77959,-22.54078],[-44.77876,-22.54],[-44.77766,-22.53915],[-44.77689,-22.53866],[-44.77527,-22.53781],[-44.77303,-22.5369],[-44.77069,-22.53632],[-44.76954,-22.53618],[-44.76787,-22.53615],[-44.7643,-22.53626],[-44.76341,-22.53613],[-44.76234,-22.53558],[-44.76051,-22.53418],[-44.75942,-22.53364],[-44.7509,-22.53079],[-44.74964,-22.53049],[-44.74507,-22.52972],[-44.74454,-22.52957],[-44.74222,-22.52852],[-44.73533,-22.52516],[-44.73409,-22.52472],[-44.73241,-22.52443],[-44.72628,-22.5238],[-44.72434,-22.52378],[-44.72179,-22.52405],[-44.72092,-22.52398],[-44.71976,-22.5237],[-44.71833,-22.52301],[-44.71543,-22.52139],[-44.71398,-22.5207],[-44.71271,-22.52027],[-44.71023,-22.51962],[-44.70889,-22.51909],[-44.70379,-22.51626],[-44.69844,-22.51318],[-44.69757,-22.5128],[-44.69535,-22.51201],[-44.68776,-22.50973],[-44.68001,-22.50677],[-44.66327,-22.49943],[-44.66244,-22.49877],[-44.66024,-22.49602],[-44.65971,-22.49549],[-44.6591,-22.49511],[-44.65745,-22.49441],[-44.65691,-22.49401],[-44.6559,-22.49286],[-44.6553,-22.49247],[-44.65478,-22.4923],[-44.65398,-22.49226],[-44.65206,-22.49234],[-44.65126,-22.49242],[-44.65082,-22.49254],[-44.64991,-22.49306],[-44.64663,-22.49542],[-44.6376,-22.49975],[-44.62653,-22.50398],[-44.62566,-22.50423],[-44.62408,-22.50441],[-44.60648,-22.50468],[-44.59475,-22.50474],[-44.5935,-22.50444],[-44.59254,-22.50401],[-44.59016,-22.50229],[-44.58978,-22.50205],[-44.58911,-22.50177],[-44.58851,-22.50164],[-44.58327,-22.50116],[-44.58245,-22.50105],[-44.58174,-22.50082],[-44.58104,-22.50043],[-44.5791,-22.4988],[-44.57827,-22.49826],[-44.56881,-22.49471],[-44.56754,-22.49415],[-44.56409,-22.49283],[-44.56093,-22.49048],[-44.56021,-22.49004],[-44.55909,-22.48973],[-44.55435,-22.48945],[-44.55353,-22.4893],[-44.55304,-22.48911],[-44.54646,-22.48502],[-44.54471,-22.4841],[-44.53295,-22.48005],[-44.53152,-22.47947],[-44.52979,-22.47846],[-44.52094,-22.4722],[-44.51993,-22.47167],[-44.51308,-22.4686],[-44.51167,-22.46818],[-44.51035,-22.46795],[-44.49561,-22.46659],[-44.49415,-22.46638],[-44.48224,-22.46321],[-44.47429,-22.46083],[-44.47299,-22.46053],[-44.47217,-22.46044],[-44.46827,-22.46043],[-44.45925,-22.45977],[-44.45578,-22.46019],[-44.44743,-22.46144],[-44.44592,-22.46149],[-44.44416,-22.46124],[-44.44009,-22.45984],[-44.43875,-22.45957],[-44.32214,-22.44941],[-44.32032,-22.44933],[-44.31353,-22.44961],[-44.31255,-22.4497],[-44.31131,-22.44993],[-44.30974,-22.45052],[-44.30361,-22.45374],[-44.30266,-22.45419],[-44.30212,-22.45434],[-44.30106,-22.45433],[-44.29788,-22.45359],[-44.29677,-22.45358],[-44.29572,-22.45379],[-44.29468,-22.45429],[-44.29396,-22.45483],[-44.2917,-22.45728],[-44.29129,-22.45797],[-44.29047,-22.46045],[-44.29018,-22.46102],[-44.28961,-22.46174],[-44.28777,-22.46328],[-44.28706,-22.46379],[-44.28536,-22.46479],[-44.28411,-22.46564],[-44.27668,-22.4728],[-44.27602,-22.47319],[-44.27528,-22.47343],[-44.26629,-22.47557],[-44.26548,-22.4759],[-44.26335,-22.47744],[-44.26277,-22.47798],[-44.26247,-22.47852],[-44.2616,-22.48079],[-44.26079,-22.48193],[-44.26035,-22.48234],[-44.25727,-22.48425],[-44.25496,-22.48648],[-44.25445,-22.48679],[-44.254,-22.48698],[-44.25302,-22.48712],[-44.24934,-22.48675],[-44.24847,-22.48673],[-44.24796,-22.48681],[-44.24703,-22.48719],[-44.24653,-22.48751],[-44.24592,-22.48816],[-44.24316,-22.49225],[-44.24251,-22.493],[-44.24177,-22.49368],[-44.23718,-22.49708],[-44.23641,-22.49754],[-44.23492,-22.49813],[-44.23353,-22.49843],[-44.23228,-22.4988],[-44.23081,-22.4996],[-44.2296,-22.50064],[-44.22639,-22.5039],[-44.22565,-22.50456],[-44.22382,-22.50592],[-44.22187,-22.50704],[-44.22121,-22.50766],[-44.22052,-22.50858],[-44.22021,-22.50887],[-44.21956,-22.50929],[-44.21851,-22.50982],[-44.21812,-22.51011],[-44.2177,-22.51064],[-44.217,-22.51182],[-44.21634,-22.51242],[-44.21538,-22.51282],[-44.21073,-22.51372],[-44.21017,-22.51397],[-44.20967,-22.51433],[-44.20919,-22.51493],[-44.20853,-22.51619],[-44.20805,-22.51682],[-44.2078,-22.51705],[-44.20647,-22.51785],[-44.20583,-22.51847],[-44.20459,-22.52076],[-44.20423,-22.52123],[-44.20174,-22.52311],[-44.19862,-22.52598],[-44.19671,-22.52789],[-44.19548,-22.53013],[-44.19528,-22.53079],[-44.19533,-22.53164],[-44.19608,-22.53353],[-44.19622,-22.53405],[-44.19622,-22.53471],[-44.19602,-22.53548],[-44.19584,-22.53583],[-44.19365,-22.53892],[-44.19265,-22.54013],[-44.18978,-22.54396],[-44.18942,-22.54432],[-44.1888,-22.5447],[-44.18809,-22.54493],[-44.18565,-22.54543],[-44.18498,-22.54568],[-44.18431,-22.54618],[-44.18385,-22.54682],[-44.18363,-22.5474],[-44.18272,-22.55095],[-44.18238,-22.55154],[-44.18173,-22.55214],[-44.18125,-22.5524],[-44.18056,-22.5526],[-44.17852,-22.55259],[-44.17763,-22.55273],[-44.17485,-22.55387],[-44.17436,-22.55413],[-44.17392,-22.55447],[-44.17345,-22.55509],[-44.17316,-22.55589],[-44.17286,-22.55893],[-44.17251,-22.56022],[-44.17195,-22.56139],[-44.17165,-22.56176],[-44.17081,-22.56253],[-44.1701,-22.56285],[-44.1692,-22.56287],[-44.16475,-22.56143],[-44.16363,-22.56126],[-44.16253,-22.56147],[-44.15963,-22.56275],[-44.15901,-22.56285],[-44.15849,-22.56283],[-44.15753,-22.56254],[-44.15542,-22.56115],[-44.15489,-22.5609],[-44.15432,-22.56077],[-44.15083,-22.56038],[-44.15004,-22.56042],[-44.14945,-22.56057],[-44.14725,-22.56188],[-44.14673,-22.5621],[-44.14605,-22.56221],[-44.14489,-22.56209],[-44.144,-22.5619],[-44.14326,-22.56165],[-44.1414,-22.56087],[-44.14057,-22.5608],[-44.13897,-22.56104],[-44.13823,-22.56099],[-44.13771,-22.56084],[-44.13718,-22.56057],[-44.13187,-22.55682],[-44.131,-22.55628],[-44.13027,-22.55606],[-44.12964,-22.55602],[-44.12865,-22.55622],[-44.12793,-22.5566],[-44.12361,-22.55944],[-44.12274,-22.5601],[-44.12245,-22.56042],[-44.12214,-22.56097],[-44.12195,-22.56183],[-44.12198,-22.56241],[-44.12236,-22.56443],[-44.12238,-22.56499],[-44.12207,-22.56625],[-44.12146,-22.5681],[-44.12081,-22.56888],[-44.12022,-22.56925],[-44.11954,-22.56947],[-44.11715,-22.56983],[-44.11646,-22.57014],[-44.11578,-22.57071],[-44.11526,-22.57166],[-44.11518,-22.57215],[-44.1152,-22.57272],[-44.11547,-22.57409],[-44.11548,-22.57463],[-44.11537,-22.57535],[-44.11504,-22.5762],[-44.11398,-22.5776],[-44.1105,-22.58098],[-44.11026,-22.58139],[-44.11009,-22.58191],[-44.10974,-22.58375],[-44.10944,-22.58429],[-44.109,-22.58478],[-44.10766,-22.58571],[-44.10721,-22.58613],[-44.10688,-22.58665],[-44.10592,-22.58863],[-44.1056,-22.58902],[-44.10508,-22.58947],[-44.10442,-22.58982],[-44.10367,-22.59001],[-44.1029,-22.59003],[-44.09017,-22.58749],[-44.08917,-22.58737],[-44.08864,-22.58739],[-44.08596,-22.58787],[-44.08495,-22.58818],[-44.08142,-22.58993],[-44.07659,-22.59246],[-44.07608,-22.59265],[-44.07564,-22.59277],[-44.07469,-22.59287],[-44.07136,-22.59299],[-44.07006,-22.5929],[-44.06907,-22.59269],[-44.06797,-22.59224],[-44.06104,-22.58825],[-44.05521,-22.5858],[-44.03865,-22.58228],[-44.0373,-22.58219],[-44.03025,-22.58201],[-44.02439,-22.58095],[-44.02354,-22.58092],[-44.023,-22.58098],[-44.02176,-22.58133],[-44.02092,-22.58181],[-44.0202,-22.58243],[-44.01725,-22.58563],[-44.01638,-22.58617],[-44.01578,-22.58634],[-44.01507,-22.5864],[-44.01184,-22.58617],[-44.01046,-22.58602],[-43.99931,-22.58311],[-43.98836,-22.57924],[-43.98723,-22.57863],[-43.98597,-22.57782],[-43.98522,-22.57748],[-43.98453,-22.57735],[-43.98383,-22.57737],[-43.98318,-22.57756],[-43.98264,-22.57785],[-43.97836,-22.58089],[-43.97719,-22.58137],[-43.97367,-22.58255],[-43.97295,-22.58268],[-43.97185,-22.58276],[-43.96218,-22.58329],[-43.96144,-22.58345],[-43.96089,-22.58371],[-43.95897,-22.58538],[-43.95827,-22.58622],[-43.95796,-22.5869],[-43.95533,-22.59465],[-43.95467,-22.59604],[-43.95396,-22.59699],[-43.95179,-22.59906],[-43.95136,-22.59933],[-43.95054,-22.5996],[-43.94804,-22.59982],[-43.94698,-22.5998],[-43.94205,-22.59935],[-43.94127,-22.59943],[-43.94061,-22.59966],[-43.93942,-22.60033],[-43.93745,-22.60157],[-43.93631,-22.60245],[-43.93578,-22.603],[-43.93553,-22.60357],[-43.93531,-22.60561],[-43.93519,-22.60617],[-43.93487,-22.60685],[-43.93436,-22.60742],[-43.93234,-22.60895],[-43.93193,-22.60953],[-43.93166,-22.61018],[-43.93158,-22.61118],[-43.93158,-22.61326],[-43.93206,-22.61506],[-43.93208,-22.61539],[-43.93193,-22.61608],[-43.93141,-22.61679],[-43.93071,-22.61717],[-43.92915,-22.61774],[-43.92864,-22.61805],[-43.92782,-22.61891],[-43.92698,-22.61962],[-43.92185,-22.62359],[-43.92137,-22.62389],[-43.92072,-22.62417],[-43.92002,-22.62433],[-43.91724,-22.62461],[-43.91664,-22.62481],[-43.9162,-22.62507],[-43.91254,-22.62829],[-43.91011,-22.6303],[-43.9094,-22.63081],[-43.90543,-22.63309],[-43.90278,-22.63502],[-43.90221,-22.6356],[-43.90121,-22.63696],[-43.89971,-22.63802],[-43.8993,-22.63839],[-43.89902,-22.63875],[-43.89875,-22.63929],[-43.89839,-22.64082],[-43.89813,-22.64148],[-43.89341,-22.65029],[-43.89189,-22.65328],[-43.89009,-22.65768],[-43.88771,-22.66086],[-43.88618,-22.66309],[-43.88581,-22.66349],[-43.88521,-22.66392],[-43.88233,-22.66504],[-43.88148,-22.66528],[-43.88064,-22.66538],[-43.87959,-22.66538],[-43.87666,-22.66502],[-43.87445,-22.66484],[-43.87288,-22.66484],[-43.87224,-22.66491],[-43.87044,-22.66534],[-43.86775,-22.66656],[-43.86716,-22.66666],[-43.86676,-22.66666],[-43.86618,-22.66652],[-43.86509,-22.66593],[-43.86449,-22.6657],[-43.86411,-22.66567],[-43.86345,-22.66577],[-43.86305,-22.66594],[-43.86157,-22.66692],[-43.86099,-22.66707],[-43.85958,-22.66712],[-43.85912,-22.6673],[-43.85679,-22.6691],[-43.85606,-22.66946],[-43.85541,-22.66955],[-43.85361,-22.66927],[-43.85305,-22.66909],[-43.85261,-22.66886],[-43.85216,-22.66852],[-43.84962,-22.66589],[-43.84902,-22.66555],[-43.84863,-22.66553],[-43.84827,-22.66562],[-43.84696,-22.66638],[-43.8452,-22.66639],[-43.84231,-22.66724],[-43.84183,-22.66717],[-43.84163,-22.66705],[-43.84123,-22.66665],[-43.84059,-22.66552],[-43.84049,-22.66544],[-43.84027,-22.66545],[-43.839,-22.66605],[-43.83874,-22.66634],[-43.83888,-22.66797],[-43.83878,-22.66817],[-43.83847,-22.6684],[-43.8384,-22.66855],[-43.83842,-22.66883],[-43.83865,-22.66941],[-43.83855,-22.6697],[-43.8384,-22.66984],[-43.83818,-22.66996],[-43.83776,-22.66992],[-43.83599,-22.66908],[-43.83574,-22.66914],[-43.83556,-22.6693],[-43.8355,-22.66944],[-43.83554,-22.66971],[-43.83612,-22.67081],[-43.83622,-22.67122],[-43.83619,-22.67143],[-43.83601,-22.67166],[-43.83494,-22.6724],[-43.83487,-22.67329],[-43.83465,-22.67347],[-43.83442,-22.67352],[-43.83403,-22.67344],[-43.83327,-22.67298],[-43.83236,-22.6723],[-43.83133,-22.67115],[-43.83044,-22.6707],[-43.8301,-22.6702],[-43.82933,-22.66945],[-43.82908,-22.66883],[-43.82889,-22.66865],[-43.82848,-22.66854],[-43.82692,-22.66836],[-43.82673,-22.66847],[-43.82665,-22.66863],[-43.82676,-22.66948],[-43.82692,-22.66962],[-43.82765,-22.6698],[-43.82801,-22.67011],[-43.82821,-22.67061],[-43.82873,-22.67126],[-43.82894,-22.67176],[-43.82884,-22.67246],[-43.82888,-22.67262],[-43.82906,-22.67279],[-43.82962,-22.67304],[-43.82998,-22.67344],[-43.83021,-22.67383],[-43.83023,-22.67473],[-43.8311,-22.67519],[-43.83133,-22.67583],[-43.83146,-22.67599],[-43.83181,-22.67608],[-43.83301,-22.67584],[-43.83338,-22.67592],[-43.83366,-22.67607],[-43.83438,-22.67721],[-43.83453,-22.67785],[-43.83468,-22.67799],[-43.83542,-22.67823],[-43.8356,-22.67842],[-43.83568,-22.67898],[-43.83588,-22.67935],[-43.83667,-22.67948],[-43.83728,-22.6797],[-43.83817,-22.67958],[-43.83891,-22.67963],[-43.83969,-22.67956],[-43.83993,-22.67968],[-43.84005,-22.67989],[-43.84002,-22.6802],[-43.83989,-22.68034],[-43.83963,-22.68041],[-43.83936,-22.68039],[-43.83909,-22.68022],[-43.83882,-22.67988],[-43.83838,-22.6798],[-43.83762,-22.68005],[-43.83708,-22.68033],[-43.83625,-22.68031],[-43.8355,-22.68038],[-43.83531,-22.68027],[-43.83521,-22.68009],[-43.83507,-22.67925],[-43.83455,-22.6787],[-43.83405,-22.67858],[-43.83321,-22.67877],[-43.83252,-22.67871],[-43.83201,-22.67835],[-43.83114,-22.67755],[-43.83077,-22.67741],[-43.83008,-22.67746],[-43.82973,-22.67759],[-43.82927,-22.67826],[-43.82925,-22.6784],[-43.82952,-22.67929],[-43.82906,-22.68002],[-43.82893,-22.68094],[-43.82875,-22.68124],[-43.82818,-22.68177],[-43.82763,-22.6825],[-43.8268,-22.68308],[-43.82657,-22.68317],[-43.82583,-22.68309],[-43.82534,-22.68327],[-43.82509,-22.68327],[-43.82476,-22.68302],[-43.82468,-22.68242],[-43.82388,-22.68123],[-43.82371,-22.68082],[-43.82355,-22.68009],[-43.82197,-22.67819],[-43.82158,-22.67797],[-43.82119,-22.6779],[-43.81976,-22.67791],[-43.81767,-22.67685],[-43.81648,-22.67713],[-43.81622,-22.67723],[-43.81583,-22.67757],[-43.81376,-22.68044],[-43.81349,-22.68104],[-43.81342,-22.68299],[-43.81379,-22.68472],[-43.81372,-22.68527],[-43.81357,-22.6855],[-43.81331,-22.6857],[-43.81112,-22.68689],[-43.80524,-22.68892],[-43.80289,-22.68962],[-43.80207,-22.68972],[-43.80108,-22.68969],[-43.7956,-22.68887],[-43.7949,-22.68887],[-43.79419,-22.68898],[-43.79182,-22.68963],[-43.78864,-22.69115],[-43.78621,-22.69165],[-43.78555,-22.69186],[-43.78024,-22.69436],[-43.77951,-22.69459],[-43.77901,-22.69461],[-43.77842,-22.69453],[-43.77338,-22.69299],[-43.7726,-22.69294],[-43.77195,-22.69307],[-43.77112,-22.69349],[-43.76518,-22.6987],[-43.76438,-22.69924],[-43.76358,-22.69962],[-43.75965,-22.7009],[-43.75869,-22.70105],[-43.75763,-22.70096],[-43.75282,-22.70014],[-43.75203,-22.7001],[-43.75134,-22.70022],[-43.75069,-22.70047],[-43.75029,-22.70072],[-43.74854,-22.70211],[-43.74776,-22.70257],[-43.73998,-22.70547],[-43.73909,-22.70613],[-43.73741,-22.708],[-43.73506,-22.71227],[-43.73462,-22.71286],[-43.73372,-22.71359],[-43.73289,-22.71397],[-43.73216,-22.71415],[-43.72679,-22.71496],[-43.71578,-22.71655],[-43.71196,-22.71701],[-43.68434,-22.72088],[-43.68165,-22.72129],[-43.66624,-22.724],[-43.62743,-22.72973],[-43.62553,-22.73015],[-43.62105,-22.73154],[-43.61997,-22.73177],[-43.61875,-22.73182],[-43.61739,-22.73164],[-43.616,-22.7312],[-43.61339,-22.73014],[-43.61232,-22.72991],[-43.61163,-22.72986],[-43.61041,-22.72997],[-43.60563,-22.73104],[-43.6031,-22.73146],[-43.60096,-22.7316],[-43.59929,-22.73158],[-43.59786,-22.73147],[-43.5952,-22.73104],[-43.58814,-22.72923],[-43.58656,-22.72907],[-43.57701,-22.72935],[-43.57293,-22.72996],[-43.57112,-22.73013],[-43.56442,-22.7299],[-43.56283,-22.72999],[-43.56206,-22.73014],[-43.56112,-22.73043],[-43.56006,-22.73091],[-43.55897,-22.73162],[-43.55574,-22.73422],[-43.55422,-22.73503],[-43.5531,-22.73541],[-43.55223,-22.73561],[-43.55122,-22.73573],[-43.54996,-22.73574],[-43.54295,-22.73611],[-43.54158,-22.73631],[-43.51221,-22.74409],[-43.51101,-22.7443],[-43.50994,-22.74436],[-43.50848,-22.74427],[-43.50682,-22.74393],[-43.50569,-22.74351],[-43.49297,-22.7381],[-43.49181,-22.73778],[-43.49011,-22.73758],[-43.45957,-22.74],[-43.45762,-22.74027],[-43.45626,-22.74059],[-43.45417,-22.74134],[-43.45238,-22.74222],[-43.45136,-22.74286],[-43.43944,-22.7511],[-43.43477,-22.75441],[-43.42786,-22.75913],[-43.42573,-22.76034],[-43.41594,-22.7651],[-43.41367,-22.76628],[-43.41253,-22.76696],[-43.41046,-22.76832],[-43.40945,-22.76911],[-43.40609,-22.7714],[-43.39652,-22.77814],[-43.39398,-22.77971],[-43.39092,-22.78119],[-43.38933,-22.78177],[-43.3874,-22.78235],[-43.38396,-22.78321],[-43.3827,-22.78367],[-43.35233,-22.801],[-43.32295,-22.81717],[-43.32119,-22.81837],[-43.32095,-22.8186],[-43.3205,-22.81939],[-43.3199,-22.82128],[-43.31968,-22.82156],[-43.31927,-22.82185],[-43.31875,-22.82204],[-43.31854,-22.82204],[-43.3173,-22.82178],[-43.31693,-22.82156],[-43.31598,-22.82069],[-43.31539,-22.82042],[-43.31453,-22.82019],[-43.31167,-22.82],[-43.31065,-22.81967],[-43.30913,-22.81889],[-43.30659,-22.8173],[-43.30561,-22.81687],[-43.30393,-22.81632],[-43.2963,-22.81458],[-43.29571,-22.81446],[-43.29423,-22.81452],[-43.29016,-22.81558],[-43.28879,-22.81609],[-43.28793,-22.81662],[-43.2723,-22.82885],[-43.26974,-22.83075],[-43.25624,-22.83803],[-43.25538,-22.83857],[-43.25441,-22.83938],[-43.24828,-22.84609],[-43.24786,-22.84674],[-43.24759,-22.84732],[-43.24729,-22.8486],[-43.24729,-22.8495],[-43.24773,-22.85212],[-43.24782,-22.85368],[-43.24803,-22.86277],[-43.24815,-22.86385],[-43.24804,-22.86544],[-43.24756,-22.8684],[-43.24771,-22.86894],[-43.24803,-22.86933],[-43.24871,-22.86977],[-43.24881,-22.86991],[-43.24908,-22.87131],[-43.24921,-22.87154],[-43.24937,-22.8717],[-43.24983,-22.87193],[-43.25159,-22.87215],[-43.25628,-22.87165],[-43.25811,-22.87123],[-43.25893,-22.87115],[-43.26312,-22.87133],[-43.26435,-22.87149],[-43.26577,-22.87197],[-43.27192,-22.87527],[-43.27257,-22.8755],[-43.27491,-22.87603],[-43.27558,-22.8763],[-43.27608,-22.8766],[-43.27669,-22.87714],[-43.27721,-22.87778],[-43.27776,-22.87863],[-43.27838,-22.87929],[-43.27893,-22.87971],[-43.28015,-22.88046],[-43.28132,-22.88101],[-43.28441,-22.88204],[-43.285,-22.88203],[-43.28562,-22.8819],[-43.28856,-22.88062],[-43.28896,-22.88056],[-43.28938,-22.88061],[-43.28973,-22.88074],[-43.29142,-22.88239],[-43.29183,-22.88256],[-43.29225,-22.88296],[-43.29008,-22.88554],[-43.28907,-22.88614],[-43.28837,-22.88665],[-43.28781,-22.88689],[-43.29154,-22.89144],[-43.29253,-22.89115],[-43.29268,-22.89146],[-43.29267,-22.89165],[-43.29304,-22.89197],[-43.29296,-22.89221]]},"properties":{"route_id":"engenhao","tipo":"rota","clube":"Botafogo","estadio":"Estádio Nilton Santos (Engenhão)","cidade":"Rio de Janeiro","estado":"RJ","distancia_km":429.5,"modo_rota":"carro","match_status":"concluida","status":"Traçado fornecido para deslocamento do Brasileirão 2026.","projecao":false,"fonte_rota":"ROTA - ENGENHAO.shp","metodo_rota":"Traçado viário existente convertido do shapefile do usuário.","data_partida":null,"Name":"Rotas de Parque São Jorge, São Paulo - SP até Estádio Nilton Santos - Rua José dos Reis - Engenho de Dentro, Rio de Janeiro - RJ","ajuste_origem_m":0.0}},{"type":"Feature","geometry":{"type":"Point","coordinates":[-43.29296,-22.89221]},"properties":{"route_id":"engenhao","tipo":"estadio_destino","clube":"Botafogo","estadio":"Estádio Nilton Santos (Engenhão)","cidade":"Rio de Janeiro","estado":"RJ","distancia_km":429.5,"status":"Traçado fornecido para deslocamento do Brasileirão 2026.","projecao":false,"data_partida":null}}]}