{"type":"FeatureCollection","name":"mirassol","features":[{"type":"Feature","geometry":{"type":"LineString","coordinates":[[-46.56809,-23.53096],[-46.5686,-23.53109],[-46.56828,-23.53221],[-46.56832,-23.53227],[-46.57011,-23.53272],[-46.56993,-23.53334],[-46.57209,-23.53327],[-46.5723,-23.53324],[-46.57294,-23.5329],[-46.57447,-23.53235],[-46.57565,-23.53238],[-46.57569,-23.52985],[-46.57649,-23.52987],[-46.57733,-23.53016],[-46.57823,-23.52989],[-46.57836,-23.53013],[-46.57929,-23.53121],[-46.57982,-23.53165],[-46.58077,-23.53204],[-46.58194,-23.53231],[-46.58289,-23.53284],[-46.58365,-23.5312],[-46.58379,-23.53051],[-46.58375,-23.53007],[-46.58304,-23.5282],[-46.58309,-23.52781],[-46.58341,-23.5275],[-46.58383,-23.52746],[-46.58811,-23.52856],[-46.58894,-23.5287],[-46.5895,-23.52864],[-46.59367,-23.52761],[-46.59754,-23.52621],[-46.59934,-23.52471],[-46.60123,-23.52327],[-46.60214,-23.52272],[-46.60296,-23.52236],[-46.60467,-23.52211],[-46.60617,-23.52224],[-46.60886,-23.52272],[-46.60994,-23.5227],[-46.6105,-23.52259],[-46.6113,-23.52234],[-46.61222,-23.52187],[-46.61516,-23.51971],[-46.616,-23.5192],[-46.61721,-23.51868],[-46.6186,-23.51837],[-46.62007,-23.51838],[-46.62245,-23.51885],[-46.62394,-23.51892],[-46.6305,-23.51859],[-46.6314,-23.51862],[-46.6398,-23.51805],[-46.64392,-23.51766],[-46.65096,-23.51669],[-46.65382,-23.51643],[-46.65621,-23.51602],[-46.6626,-23.51524],[-46.66607,-23.51489],[-46.66863,-23.51448],[-46.67667,-23.51347],[-46.67792,-23.51318],[-46.67885,-23.51278],[-46.6795,-23.51238],[-46.68201,-23.51052],[-46.68258,-23.51019],[-46.68377,-23.5097],[-46.68497,-23.50942],[-46.68937,-23.50867],[-46.69191,-23.50804],[-46.69486,-23.50752],[-46.69623,-23.50741],[-46.69717,-23.50746],[-46.70647,-23.50826],[-46.7089,-23.50813],[-46.70987,-23.50804],[-46.71037,-23.50791],[-46.7163,-23.50735],[-46.71783,-23.50747],[-46.71923,-23.50771],[-46.71991,-23.50765],[-46.72075,-23.50731],[-46.72171,-23.50662],[-46.72228,-23.50611],[-46.72696,-23.501],[-46.72873,-23.49869],[-46.73149,-23.49459],[-46.73647,-23.48854],[-46.73702,-23.48734],[-46.73721,-23.48666],[-46.7378,-23.48212],[-46.73803,-23.48098],[-46.73846,-23.47977],[-46.73901,-23.47877],[-46.74,-23.4776],[-46.74089,-23.47687],[-46.74238,-23.47606],[-46.74535,-23.4748],[-46.74623,-23.47427],[-46.74703,-23.47357],[-46.74776,-23.47261],[-46.74807,-23.47201],[-46.75111,-23.46501],[-46.75186,-23.46315],[-46.75213,-23.46211],[-46.7558,-23.44431],[-46.7563,-23.4422],[-46.75687,-23.44078],[-46.75979,-23.4349],[-46.76005,-23.43407],[-46.76015,-23.43348],[-46.76073,-23.4241],[-46.76093,-23.42294],[-46.76148,-23.42165],[-46.76582,-23.41417],[-46.76665,-23.41213],[-46.76712,-23.41048],[-46.76738,-23.4091],[-46.76753,-23.40737],[-46.7676,-23.40197],[-46.76772,-23.3999],[-46.76892,-23.38986],[-46.7692,-23.38362],[-46.76928,-23.38293],[-46.76953,-23.38194],[-46.77014,-23.38058],[-46.77056,-23.37994],[-46.77126,-23.37911],[-46.77265,-23.37787],[-46.77682,-23.37449],[-46.77755,-23.37376],[-46.77831,-23.37277],[-46.78339,-23.36418],[-46.7838,-23.36298],[-46.78428,-23.36068],[-46.78466,-23.35973],[-46.7853,-23.35874],[-46.7862,-23.35784],[-46.78676,-23.35743],[-46.78754,-23.35701],[-46.78832,-23.35672],[-46.79102,-23.35601],[-46.7921,-23.35554],[-46.79266,-23.35518],[-46.79552,-23.35289],[-46.79644,-23.35232],[-46.79777,-23.35173],[-46.79895,-23.35138],[-46.80003,-23.35117],[-46.80679,-23.35038],[-46.80857,-23.34991],[-46.80946,-23.34952],[-46.81073,-23.34878],[-46.81196,-23.34779],[-46.81974,-23.34032],[-46.82075,-23.33906],[-46.82173,-23.33743],[-46.82234,-23.33595],[-46.82284,-23.33386],[-46.82294,-23.33293],[-46.82315,-23.32643],[-46.82329,-23.32434],[-46.82344,-23.31699],[-46.82357,-23.31596],[-46.82393,-23.31492],[-46.82447,-23.314],[-46.82504,-23.3133],[-46.82581,-23.31262],[-46.82642,-23.31224],[-46.82716,-23.31189],[-46.83261,-23.3099],[-46.83321,-23.30959],[-46.83415,-23.30895],[-46.8367,-23.30647],[-46.83871,-23.30443],[-46.83973,-23.30329],[-46.84016,-23.30258],[-46.84054,-23.30154],[-46.84074,-23.30039],[-46.84109,-23.29704],[-46.84131,-23.29588],[-46.84157,-23.29516],[-46.84209,-23.29428],[-46.8428,-23.29345],[-46.8454,-23.29124],[-46.84619,-23.29047],[-46.84673,-23.28968],[-46.84712,-23.28885],[-46.8474,-23.28767],[-46.8484,-23.27891],[-46.84886,-23.27766],[-46.84973,-23.27643],[-46.8503,-23.27588],[-46.85386,-23.27304],[-46.85479,-23.27218],[-46.85562,-23.27118],[-46.85745,-23.2686],[-46.85858,-23.26742],[-46.86018,-23.26622],[-46.86069,-23.26595],[-46.86532,-23.26291],[-46.86653,-23.26188],[-46.86719,-23.2611],[-46.86746,-23.26067],[-46.86801,-23.25952],[-46.86927,-23.25623],[-46.86972,-23.25538],[-46.87048,-23.25431],[-46.87105,-23.25368],[-46.87171,-23.25311],[-46.87705,-23.24884],[-46.87857,-23.24751],[-46.87953,-23.2465],[-46.88222,-23.24314],[-46.88395,-23.24141],[-46.89148,-23.23494],[-46.89297,-23.23375],[-46.91894,-23.21425],[-46.92043,-23.21303],[-46.9217,-23.21182],[-46.92345,-23.20976],[-46.92444,-23.20833],[-46.9257,-23.20612],[-46.92636,-23.20462],[-46.9351,-23.1789],[-46.93626,-23.17584],[-46.93716,-23.17401],[-46.93831,-23.17208],[-46.93925,-23.17074],[-46.94101,-23.16854],[-46.94346,-23.16611],[-46.95336,-23.15721],[-46.9553,-23.15525],[-46.96055,-23.14938],[-46.96221,-23.14786],[-46.96333,-23.147],[-46.96486,-23.14598],[-46.97475,-23.14045],[-46.97603,-23.13946],[-46.97709,-23.1383],[-46.97791,-23.13702],[-46.97836,-23.13603],[-46.97975,-23.13185],[-46.98027,-23.1305],[-46.98059,-23.12985],[-46.98115,-23.12898],[-46.98201,-23.12796],[-46.99553,-23.11599],[-46.99822,-23.11415],[-47.00212,-23.11203],[-47.00329,-23.11119],[-47.00405,-23.11048],[-47.01427,-23.09819],[-47.01573,-23.09626],[-47.01657,-23.09455],[-47.01792,-23.09019],[-47.01869,-23.08862],[-47.01931,-23.08772],[-47.02316,-23.08286],[-47.02404,-23.08162],[-47.02527,-23.07967],[-47.02979,-23.07158],[-47.03087,-23.07008],[-47.04149,-23.06007],[-47.04446,-23.05744],[-47.04552,-23.0563],[-47.05006,-23.05201],[-47.05259,-23.04982],[-47.06038,-23.04344],[-47.06142,-23.04271],[-47.0626,-23.042],[-47.06645,-23.03997],[-47.06728,-23.03943],[-47.06833,-23.03852],[-47.06917,-23.03751],[-47.06994,-23.03618],[-47.07525,-23.02518],[-47.07587,-23.02402],[-47.07685,-23.02252],[-47.07946,-23.01956],[-47.08246,-23.01632],[-47.0841,-23.01478],[-47.0851,-23.014],[-47.09272,-23.00862],[-47.09449,-23.00727],[-47.09602,-23.0058],[-47.10057,-23.00032],[-47.10205,-22.99861],[-47.10294,-22.9977],[-47.10436,-22.99645],[-47.10912,-22.99313],[-47.10994,-22.99234],[-47.11038,-22.99173],[-47.11074,-22.99108],[-47.11093,-22.99055],[-47.11114,-22.98958],[-47.11163,-22.97974],[-47.11182,-22.97878],[-47.11224,-22.97763],[-47.11364,-22.97512],[-47.11704,-22.96944],[-47.11819,-22.96784],[-47.12385,-22.96097],[-47.12443,-22.96008],[-47.12504,-22.95872],[-47.12531,-22.95785],[-47.12551,-22.95645],[-47.12576,-22.94272],[-47.12593,-22.94078],[-47.12634,-22.93837],[-47.12883,-22.92907],[-47.13006,-22.92485],[-47.13068,-22.9236],[-47.13168,-22.92234],[-47.13272,-22.92119],[-47.13328,-22.92041],[-47.13387,-22.91935],[-47.13442,-22.91791],[-47.13632,-22.91155],[-47.13651,-22.91072],[-47.13672,-22.90914],[-47.13675,-22.90479],[-47.13668,-22.90031],[-47.13641,-22.89844],[-47.136,-22.89699],[-47.13552,-22.8958],[-47.13155,-22.88696],[-47.13078,-22.88442],[-47.13047,-22.88213],[-47.13051,-22.87966],[-47.13163,-22.86983],[-47.13216,-22.86815],[-47.13259,-22.86729],[-47.13307,-22.86659],[-47.13362,-22.86591],[-47.1342,-22.86535],[-47.13528,-22.86454],[-47.15113,-22.85533],[-47.16057,-22.84931],[-47.16203,-22.84825],[-47.1634,-22.84712],[-47.16473,-22.84586],[-47.17798,-22.83184],[-47.1796,-22.83031],[-47.18164,-22.82876],[-47.18282,-22.82798],[-47.18434,-22.8271],[-47.2069,-22.81501],[-47.20805,-22.81429],[-47.21066,-22.81246],[-47.21244,-22.81098],[-47.21305,-22.81044],[-47.21979,-22.80345],[-47.22065,-22.80241],[-47.22184,-22.80066],[-47.23507,-22.77454],[-47.23577,-22.77345],[-47.23626,-22.77285],[-47.23734,-22.77179],[-47.23865,-22.77065],[-47.24265,-22.76765],[-47.24549,-22.76532],[-47.24795,-22.76315],[-47.26912,-22.74287],[-47.2705,-22.74171],[-47.27207,-22.74065],[-47.27305,-22.74009],[-47.28794,-22.73297],[-47.28911,-22.73217],[-47.28955,-22.73178],[-47.29022,-22.7311],[-47.29099,-22.73013],[-47.29172,-22.72881],[-47.29245,-22.7268],[-47.29626,-22.71416],[-47.2969,-22.71254],[-47.2975,-22.71138],[-47.29826,-22.71019],[-47.29907,-22.70914],[-47.3092,-22.69703],[-47.30986,-22.69606],[-47.31038,-22.69497],[-47.3108,-22.69363],[-47.31098,-22.69209],[-47.31056,-22.6839],[-47.31082,-22.67652],[-47.31092,-22.67566],[-47.31117,-22.6746],[-47.3114,-22.67392],[-47.312,-22.67274],[-47.31951,-22.66165],[-47.32321,-22.65458],[-47.32547,-22.6493],[-47.32624,-22.64712],[-47.32801,-22.64141],[-47.32864,-22.64009],[-47.32957,-22.63876],[-47.33519,-22.63224],[-47.35331,-22.61294],[-47.35486,-22.61173],[-47.35591,-22.6111],[-47.35883,-22.60961],[-47.35965,-22.60909],[-47.3606,-22.60819],[-47.3613,-22.60706],[-47.36268,-22.60361],[-47.36692,-22.59234],[-47.36729,-22.59104],[-47.3675,-22.58961],[-47.36751,-22.58839],[-47.36568,-22.56542],[-47.36578,-22.56326],[-47.36605,-22.56171],[-47.36653,-22.55997],[-47.36718,-22.55843],[-47.36827,-22.55655],[-47.37642,-22.54471],[-47.37853,-22.54176],[-47.38918,-22.52622],[-47.3917,-22.5225],[-47.39251,-22.52111],[-47.39335,-22.51927],[-47.39447,-22.51597],[-47.39894,-22.50549],[-47.39919,-22.50468],[-47.3994,-22.50332],[-47.3994,-22.50298],[-47.39938,-22.50271],[-47.39938,-22.50246],[-47.39937,-22.50228],[-47.39938,-22.50096],[-47.39926,-22.50064],[-47.39894,-22.50031],[-47.39846,-22.50018],[-47.39786,-22.50033],[-47.39744,-22.50069],[-47.39728,-22.50097],[-47.39721,-22.5014],[-47.39729,-22.50182],[-47.39745,-22.50209],[-47.39777,-22.50237],[-47.39809,-22.50251],[-47.39882,-22.50252],[-47.39928,-22.50236],[-47.40064,-22.50198],[-47.4029,-22.50132],[-47.4491,-22.48759],[-47.45305,-22.48639],[-47.49962,-22.47263],[-47.50295,-22.47133],[-47.52156,-22.46342],[-47.52406,-22.46252],[-47.52555,-22.46213],[-47.52669,-22.46192],[-47.52847,-22.46172],[-47.53411,-22.4617],[-47.53557,-22.46155],[-47.53844,-22.46081],[-47.54095,-22.45999],[-47.54437,-22.45864],[-47.54655,-22.45764],[-47.54927,-22.45623],[-47.55198,-22.45459],[-47.55423,-22.45307],[-47.55667,-22.45122],[-47.55882,-22.44933],[-47.56168,-22.44654],[-47.5633,-22.44473],[-47.56505,-22.44261],[-47.56725,-22.43954],[-47.5687,-22.43719],[-47.56963,-22.4355],[-47.57834,-22.41833],[-47.5797,-22.41609],[-47.58152,-22.41366],[-47.59758,-22.39506],[-47.59941,-22.39315],[-47.6014,-22.39129],[-47.61815,-22.37591],[-47.62084,-22.37316],[-47.62281,-22.37148],[-47.633,-22.36224],[-47.6336,-22.36175],[-47.63472,-22.361],[-47.64372,-22.35589],[-47.64515,-22.35482],[-47.64616,-22.35383],[-47.65018,-22.34854],[-47.65062,-22.34789],[-47.65116,-22.34674],[-47.65152,-22.34508],[-47.65149,-22.34387],[-47.65093,-22.33895],[-47.651,-22.33787],[-47.65136,-22.33651],[-47.65186,-22.3353],[-47.65645,-22.32705],[-47.65665,-22.32591],[-47.65654,-22.32495],[-47.65628,-22.32378],[-47.65628,-22.32299],[-47.65649,-22.32204],[-47.65685,-22.32138],[-47.66213,-22.31395],[-47.66245,-22.31367],[-47.663,-22.3134],[-47.66435,-22.31302],[-47.66528,-22.31265],[-47.66626,-22.31199],[-47.66698,-22.31116],[-47.66745,-22.31028],[-47.66936,-22.30386],[-47.66978,-22.30277],[-47.67012,-22.30213],[-47.67422,-22.29602],[-47.6755,-22.29406],[-47.67568,-22.29368],[-47.67586,-22.29304],[-47.67643,-22.28954],[-47.67702,-22.28838],[-47.68268,-22.28049],[-47.68341,-22.27955],[-47.68408,-22.27895],[-47.68514,-22.27845],[-47.68743,-22.27798],[-47.68831,-22.27787],[-47.68907,-22.27795],[-47.69064,-22.27855],[-47.69176,-22.27864],[-47.69297,-22.27829],[-47.69425,-22.27756],[-47.69559,-22.27723],[-47.69595,-22.27704],[-47.69638,-22.27661],[-47.69694,-22.27554],[-47.69755,-22.27485],[-47.69806,-22.27451],[-47.69967,-22.274],[-47.70019,-22.27367],[-47.70317,-22.27045],[-47.70359,-22.26986],[-47.70379,-22.26939],[-47.70396,-22.26855],[-47.70294,-22.25576],[-47.70289,-22.25346],[-47.70332,-22.25149],[-47.70408,-22.24969],[-47.70471,-22.24862],[-47.70565,-22.24747],[-47.70678,-22.2464],[-47.70756,-22.24579],[-47.70859,-22.24513],[-47.70954,-22.24464],[-47.7619,-22.22108],[-47.76286,-22.2205],[-47.76395,-22.21964],[-47.76512,-22.21824],[-47.76584,-22.21703],[-47.76829,-22.2117],[-47.76974,-22.20838],[-47.77086,-22.20543],[-47.78797,-22.16747],[-47.79455,-22.1526],[-47.79875,-22.14345],[-47.80864,-22.12779],[-47.81284,-22.12139],[-47.83554,-22.08564],[-47.83886,-22.08078],[-47.84431,-22.07235],[-47.84454,-22.07187],[-47.86091,-22.0463],[-47.86158,-22.04501],[-47.86184,-22.04423],[-47.86198,-22.04346],[-47.86204,-22.0428],[-47.86199,-22.04202],[-47.86136,-22.03832],[-47.86005,-22.03178],[-47.85771,-22.01932],[-47.85726,-22.0168],[-47.8572,-22.01584],[-47.85724,-22.01486],[-47.8574,-22.01384],[-47.85788,-22.01232],[-47.85884,-22.01059],[-47.86,-22.00925],[-47.87891,-21.99411],[-47.88026,-21.99311],[-47.88215,-21.99214],[-47.897,-21.98743],[-47.89903,-21.98672],[-47.89942,-21.98666],[-47.94555,-21.97211],[-47.97335,-21.96344],[-47.97549,-21.9626],[-47.97729,-21.96162],[-48.00494,-21.94174],[-48.00846,-21.93913],[-48.08643,-21.88281],[-48.0875,-21.882],[-48.08837,-21.88117],[-48.09079,-21.87815],[-48.09156,-21.8775],[-48.09234,-21.87702],[-48.09323,-21.87664],[-48.09398,-21.87644],[-48.09682,-21.87596],[-48.09759,-21.87577],[-48.09847,-21.87546],[-48.09973,-21.87478],[-48.13997,-21.84577],[-48.14405,-21.84309],[-48.15117,-21.83801],[-48.20906,-21.79626],[-48.25198,-21.76103],[-48.26227,-21.75242],[-48.26408,-21.75102],[-48.27549,-21.7417],[-48.32838,-21.69822],[-48.33167,-21.69455],[-48.33681,-21.6898],[-48.33776,-21.68912],[-48.33871,-21.68859],[-48.34058,-21.68772],[-48.34191,-21.68682],[-48.34387,-21.68514],[-48.3538,-21.67703],[-48.36099,-21.67105],[-48.37624,-21.6586],[-48.38047,-21.655],[-48.38723,-21.64808],[-48.41056,-21.62371],[-48.43956,-21.59365],[-48.46268,-21.56952],[-48.46451,-21.56786],[-48.5465,-21.51147],[-48.55886,-21.50286],[-48.55996,-21.50218],[-48.59338,-21.47905],[-48.59552,-21.47764],[-48.59629,-21.47704],[-48.6068,-21.46985],[-48.60983,-21.46767],[-48.61841,-21.46181],[-48.62097,-21.45995],[-48.63387,-21.4511],[-48.68254,-21.41739],[-48.71354,-21.39578],[-48.72909,-21.38503],[-48.73131,-21.383],[-48.73398,-21.3816],[-48.73594,-21.38027],[-48.76652,-21.35897],[-48.7689,-21.35697],[-48.82146,-21.31111],[-48.82295,-21.30988],[-48.85956,-21.27781],[-48.88431,-21.25419],[-48.89984,-21.23919],[-48.93205,-21.20834],[-48.95963,-21.18175],[-48.96492,-21.17668],[-48.96646,-21.1753],[-48.98253,-21.1629],[-48.98657,-21.15987],[-48.99235,-21.15531],[-48.99317,-21.15475],[-49.00189,-21.14798],[-49.00739,-21.14384],[-49.01009,-21.14165],[-49.01827,-21.13545],[-49.02092,-21.13329],[-49.03193,-21.12479],[-49.04346,-21.116],[-49.10194,-21.07085],[-49.10526,-21.06789],[-49.1081,-21.06608],[-49.17109,-21.01739],[-49.17873,-21.01155],[-49.20805,-20.98881],[-49.24833,-20.95736],[-49.24949,-20.95627],[-49.2528,-20.9526],[-49.28453,-20.91702],[-49.30038,-20.89939],[-49.30482,-20.89432],[-49.33436,-20.86116],[-49.33796,-20.85733],[-49.36331,-20.8286],[-49.36438,-20.82752],[-49.36615,-20.82609],[-49.36827,-20.82492],[-49.37004,-20.82422],[-49.37177,-20.82376],[-49.37277,-20.82361],[-49.37422,-20.82352],[-49.39483,-20.82328],[-49.39648,-20.8234],[-49.40293,-20.82473],[-49.40422,-20.82492],[-49.4059,-20.82501],[-49.40799,-20.82485],[-49.42679,-20.82144],[-49.42802,-20.82114],[-49.43031,-20.8203],[-49.43795,-20.81696],[-49.4398,-20.81641],[-49.44512,-20.81605],[-49.46343,-20.81507],[-49.46787,-20.81474],[-49.4716,-20.8143],[-49.50326,-20.80854],[-49.5039,-20.80809],[-49.50587,-20.80769],[-49.50654,-20.80721],[-49.50665,-20.80724],[-49.50673,-20.80737],[-49.50661,-20.80754],[-49.50722,-20.80841],[-49.5074,-20.80847],[-49.50739,-20.80859],[-49.50784,-20.80931],[-49.51048,-20.81322],[-49.51052,-20.81556],[-49.50836,-20.81565],[-49.50858,-20.82137],[-49.50701,-20.82142],[-49.50709,-20.8223]]},"properties":{"route_id":"mirassol","tipo":"rota","clube":"Mirassol","estadio":"Estádio José Maria de Campos Maia","cidade":"Mirassol","estado":"SP","distancia_km":458.6,"modo_rota":"carro","match_status":"concluida","status":"Traçado fornecido para deslocamento do Brasileirão 2026.","projecao":false,"fonte_rota":"ROTA MIRASSOL.shp","metodo_rota":"Traçado viário existente convertido do shapefile do usuário.","data_partida":null,"Name":"Rotas de Parque São Jorge, São Paulo - SP até Estádio José Maria de Campos Maia - Avenida Lauro Luchese - Centro, Mirassol - SP","ajuste_origem_m":0.0}},{"type":"Feature","geometry":{"type":"Point","coordinates":[-49.50709,-20.8223]},"properties":{"route_id":"mirassol","tipo":"estadio_destino","clube":"Mirassol","estadio":"Estádio José Maria de Campos Maia","cidade":"Mirassol","estado":"SP","distancia_km":458.6,"status":"Traçado fornecido para deslocamento do Brasileirão 2026.","projecao":false,"data_partida":null}}]}