{"type":"FeatureCollection","name":"morumbis","features":[{"type":"Feature","geometry":{"type":"LineString","coordinates":[[-46.56809,-23.53096],[-46.568598,-23.5311],[-46.5683,-23.532157],[-46.568328,-23.532269],[-46.570114,-23.532722],[-46.56997,-23.533242],[-46.570069,-23.53333],[-46.571393,-23.533293],[-46.572417,-23.535887],[-46.57173,-23.535919],[-46.571455,-23.539309],[-46.570471,-23.543758],[-46.572859,-23.544224],[-46.572703,-23.544907],[-46.575337,-23.545369],[-46.577362,-23.54414],[-46.578431,-23.543889],[-46.5787,-23.543711],[-46.579163,-23.543219],[-46.579518,-23.54306],[-46.581339,-23.543141],[-46.581785,-23.543342],[-46.582232,-23.543755],[-46.582541,-23.543927],[-46.583424,-23.543901],[-46.586106,-23.544443],[-46.587157,-23.543192],[-46.587781,-23.543326],[-46.588524,-23.543304],[-46.589605,-23.543454],[-46.590223,-23.543437],[-46.592491,-23.543896],[-46.59355,-23.544352],[-46.596632,-23.544959],[-46.598198,-23.545553],[-46.61036,-23.55223],[-46.611369,-23.552654],[-46.612154,-23.552865],[-46.612955,-23.552961],[-46.613917,-23.552921],[-46.625014,-23.551706],[-46.625494,-23.551868],[-46.625777,-23.552124],[-46.626333,-23.552984],[-46.627601,-23.555368],[-46.628011,-23.555815],[-46.628465,-23.556042],[-46.628877,-23.556118],[-46.632243,-23.556383],[-46.63507,-23.556467],[-46.635944,-23.556339],[-46.636733,-23.556112],[-46.637239,-23.556031],[-46.637822,-23.555938],[-46.638145,-23.5559],[-46.63824,-23.555871],[-46.638327,-23.55568],[-46.637544,-23.554666],[-46.637334,-23.554682],[-46.637294,-23.554832],[-46.637601,-23.555849],[-46.637818,-23.556415],[-46.637919,-23.55666],[-46.638502,-23.557987],[-46.638825,-23.558831],[-46.639848,-23.56054],[-46.640194,-23.561697],[-46.640452,-23.563818],[-46.640797,-23.565208],[-46.640852,-23.565957],[-46.640811,-23.567526],[-46.641257,-23.574289],[-46.641363,-23.574817],[-46.641588,-23.575233],[-46.642032,-23.575624],[-46.644886,-23.577539],[-46.649892,-23.581197],[-46.651407,-23.582243],[-46.651729,-23.582335],[-46.652223,-23.582658],[-46.653502,-23.583705],[-46.654195,-23.584025],[-46.654989,-23.584028],[-46.6554,-23.584191],[-46.657133,-23.585439],[-46.659207,-23.587155],[-46.659727,-23.58749],[-46.660779,-23.587869],[-46.661369,-23.587954],[-46.664862,-23.587357],[-46.665318,-23.587234],[-46.665676,-23.587048],[-46.66694,-23.586178],[-46.667737,-23.585506],[-46.66815,-23.585338],[-46.668869,-23.585161],[-46.670743,-23.585227],[-46.672249,-23.585667],[-46.673617,-23.586357],[-46.674439,-23.587037],[-46.676024,-23.588754],[-46.676404,-23.589063],[-46.685738,-23.59156],[-46.691225,-23.589989],[-46.692104,-23.589476],[-46.69287,-23.588889],[-46.69435,-23.587046],[-46.694966,-23.586632],[-46.69533,-23.586452],[-46.69778,-23.586189],[-46.698234,-23.586395],[-46.698749,-23.586869],[-46.699558,-23.58818],[-46.699878,-23.588479],[-46.700039,-23.588533],[-46.700944,-23.589264],[-46.701686,-23.589643],[-46.703006,-23.59047],[-46.703203,-23.59072],[-46.703408,-23.59126],[-46.704175,-23.591874],[-46.704739,-23.592954],[-46.705778,-23.593967],[-46.706429,-23.594456],[-46.707547,-23.594996],[-46.708208,-23.595979],[-46.708586,-23.596957],[-46.70868,-23.597636],[-46.708552,-23.599125],[-46.708774,-23.599875],[-46.709539,-23.601146],[-46.70968,-23.601264],[-46.710165,-23.601495],[-46.711215,-23.601747],[-46.711795,-23.602183],[-46.712063,-23.602775],[-46.712398,-23.604089],[-46.712506,-23.604121],[-46.712634,-23.603875],[-46.713085,-23.602403],[-46.713438,-23.601899],[-46.713894,-23.601499],[-46.714569,-23.601158],[-46.715383,-23.601016],[-46.716198,-23.601044],[-46.717832,-23.60126],[-46.718257,-23.601198],[-46.718609,-23.600982],[-46.718978,-23.599861]]},"properties":{"route_id":"morumbis","tipo":"rota","clube":"São Paulo","estadio":"MorumBIS","cidade":"São Paulo","estado":"SP","distancia_km":22.4,"modo_rota":"carro","match_status":"projecao","status":"Projeção: adversário é previsto pelo chaveamento; data e estádio sujeitos a confirmação.","projecao":true,"fonte_rota":"OpenStreetMap via OSRM public driving router","metodo_rota":"Rota rodoviária por carro; sem perfil específico para ônibus ou tráfego em tempo real.","data_partida":null,"Name":"Parque São Jorge → MorumBIS, São Paulo - SP","ajuste_origem_m":1.0,"duracao_estimativa_min":33}},{"type":"Feature","geometry":{"type":"Point","coordinates":[-46.718978,-23.599861]},"properties":{"route_id":"morumbis","tipo":"estadio_destino","clube":"São Paulo","estadio":"MorumBIS","cidade":"São Paulo","estado":"SP","distancia_km":22.4,"status":"Projeção: adversário é previsto pelo chaveamento; data e estádio sujeitos a confirmação.","projecao":true,"data_partida":null}}],"metadata":{"fixture_source":"https://site.api.espn.com/apis/site/v2/sports/soccer/bra.1/teams/874/schedule?season=2026&region=br&lang=pt","fixture_status":"Projeção; a agenda consultada não contém os jogos futuros restantes.","route_service":"https://project-osrm.org/","openstreetmap_copyright":"© OpenStreetMap contributors","coordinates_accuracy":"Estádio habitual do mandante; sujeito a confirmação oficial."}}