{"type":"FeatureCollection","name":"sao-januario","features":[{"type":"Feature","geometry":{"type":"LineString","coordinates":[[-46.56809,-23.53096],[-46.567594,-23.530842],[-46.568244,-23.528589],[-46.566161,-23.528078],[-46.566382,-23.527433],[-46.564713,-23.527121],[-46.56125,-23.524362],[-46.560751,-23.524187],[-46.559611,-23.52409],[-46.55896,-23.523956],[-46.55779,-23.523475],[-46.556612,-23.522661],[-46.555709,-23.521536],[-46.555189,-23.520408],[-46.555027,-23.519684],[-46.555138,-23.518422],[-46.555703,-23.516338],[-46.555923,-23.515175],[-46.555977,-23.513728],[-46.555917,-23.513013],[-46.555694,-23.511986],[-46.555391,-23.511075],[-46.555075,-23.510425],[-46.554663,-23.509834],[-46.553686,-23.508852],[-46.55292,-23.508343],[-46.551632,-23.507792],[-46.550358,-23.507531],[-46.546802,-23.50709],[-46.545903,-23.506853],[-46.544938,-23.506499],[-46.544108,-23.506071],[-46.543221,-23.505475],[-46.542393,-23.504784],[-46.53604,-23.498245],[-46.535059,-23.497437],[-46.534221,-23.496996],[-46.533284,-23.496702],[-46.53231,-23.496532],[-46.524167,-23.496409],[-46.523512,-23.49632],[-46.522434,-23.49602],[-46.513636,-23.492832],[-46.512837,-23.492493],[-46.511367,-23.491651],[-46.509942,-23.490531],[-46.508808,-23.489355],[-46.505748,-23.484971],[-46.49884,-23.475352],[-46.498183,-23.474686],[-46.497679,-23.474315],[-46.496999,-23.473908],[-46.495969,-23.473507],[-46.494933,-23.473297],[-46.493607,-23.473294],[-46.488688,-23.474119],[-46.486993,-23.474286],[-46.48569,-23.47425],[-46.480956,-23.473858],[-46.480229,-23.473869],[-46.479096,-23.474041],[-46.47755,-23.474585],[-46.476581,-23.475135],[-46.470891,-23.479367],[-46.469763,-23.480048],[-46.468684,-23.480557],[-46.467293,-23.481139],[-46.465279,-23.481747],[-46.463006,-23.482135],[-46.461913,-23.482224],[-46.460211,-23.482244],[-46.458722,-23.482114],[-46.457132,-23.481868],[-46.445015,-23.479567],[-46.442898,-23.479029],[-46.441575,-23.47852],[-46.440069,-23.477754],[-46.439222,-23.477215],[-46.438435,-23.47665],[-46.437266,-23.475634],[-46.436251,-23.474544],[-46.433536,-23.470935],[-46.43235,-23.469836],[-46.430903,-23.468983],[-46.430002,-23.468642],[-46.428638,-23.468337],[-46.427284,-23.46828],[-46.420637,-23.468365],[-46.419146,-23.468279],[-46.416075,-23.467956],[-46.414543,-23.467967],[-46.401678,-23.470175],[-46.399913,-23.470285],[-46.39805,-23.470029],[-46.387714,-23.466822],[-46.385411,-23.466231],[-46.382026,-23.465624],[-46.379652,-23.46541],[-46.377754,-23.465357],[-46.375472,-23.465396],[-46.372725,-23.46567],[-46.368942,-23.466345],[-46.36364,-23.467618],[-46.361328,-23.4679],[-46.358522,-23.467922],[-46.356248,-23.467676],[-46.354936,-23.46744],[-46.352594,-23.46678],[-46.351128,-23.466184],[-46.34907,-23.465136],[-46.347865,-23.464368],[-46.34685,-23.463633],[-46.330903,-23.45014],[-46.33001,-23.449509],[-46.328465,-23.448596],[-46.326769,-23.447806],[-46.32563,-23.447405],[-46.32432,-23.447047],[-46.319253,-23.445958],[-46.304507,-23.442843],[-46.303102,-23.442613],[-46.301453,-23.442474],[-46.299812,-23.442447],[-46.298388,-23.442528],[-46.293638,-23.443004],[-46.292869,-23.443014],[-46.291415,-23.442859],[-46.290216,-23.442538],[-46.287118,-23.441156],[-46.286185,-23.440824],[-46.284944,-23.440492],[-46.283312,-23.440244],[-46.28116,-23.440265],[-46.279614,-23.440512],[-46.278063,-23.440965],[-46.272303,-23.442956],[-46.271462,-23.443193],[-46.270399,-23.443371],[-46.269207,-23.443387],[-46.268053,-23.443263],[-46.261805,-23.441984],[-46.246448,-23.438675],[-46.244007,-23.438135],[-46.242886,-23.437817],[-46.241511,-23.437195],[-46.233457,-23.432442],[-46.232369,-23.431888],[-46.208883,-23.422551],[-46.207512,-23.421868],[-46.206428,-23.421195],[-46.203,-23.418357],[-46.201616,-23.417421],[-46.200331,-23.416825],[-46.19962,-23.416576],[-46.194787,-23.415163],[-46.193123,-23.414502],[-46.191036,-23.413458],[-46.188685,-23.411993],[-46.186751,-23.410366],[-46.18544,-23.409006],[-46.183332,-23.406297],[-46.179806,-23.401265],[-46.178229,-23.399223],[-46.176117,-23.397002],[-46.174479,-23.395597],[-46.17309,-23.394525],[-46.171145,-23.393158],[-46.168004,-23.39138],[-46.158134,-23.386451],[-46.156754,-23.38562],[-46.152991,-23.383891],[-46.149449,-23.382113],[-46.14828,-23.381439],[-46.145782,-23.379425],[-46.141233,-23.375209],[-46.135408,-23.369953],[-46.132946,-23.367822],[-46.132395,-23.36718],[-46.131452,-23.365839],[-46.130821,-23.365173],[-46.129958,-23.364609],[-46.127834,-23.36375],[-46.127334,-23.363477],[-46.126661,-23.362915],[-46.125029,-23.361068],[-46.123628,-23.360037],[-46.122605,-23.359576],[-46.12129,-23.359102],[-46.11607,-23.357414],[-46.114594,-23.357043],[-46.113597,-23.356958],[-46.112974,-23.356995],[-46.112145,-23.357135],[-46.111332,-23.357375],[-46.108359,-23.358778],[-46.107278,-23.359104],[-46.106317,-23.359252],[-46.098633,-23.359905],[-46.096529,-23.359775],[-46.093727,-23.359078],[-46.092302,-23.358822],[-46.091526,-23.35877],[-46.09001,-23.358859],[-46.08069,-23.360157],[-46.078856,-23.360155],[-46.069572,-23.358716],[-46.066814,-23.358227],[-46.064916,-23.357834],[-46.06271,-23.357201],[-46.056521,-23.35461],[-46.053086,-23.353077],[-46.050995,-23.351863],[-46.041241,-23.344811],[-46.039469,-23.343937],[-46.03851,-23.343627],[-46.037427,-23.343423],[-46.036006,-23.343373],[-46.034573,-23.34356],[-46.027746,-23.345228],[-46.025305,-23.345592],[-46.023876,-23.345636],[-46.022365,-23.345559],[-46.015526,-23.344428],[-46.013839,-23.344337],[-46.012108,-23.344525],[-46.009116,-23.345411],[-46.007336,-23.345685],[-46.006401,-23.345697],[-46.003074,-23.345468],[-46.000726,-23.345414],[-45.999198,-23.345792],[-45.99771,-23.346384],[-45.996303,-23.346757],[-45.994312,-23.34699],[-45.993236,-23.346995],[-45.992556,-23.346871],[-45.991659,-23.346571],[-45.990658,-23.346078],[-45.988609,-23.344893],[-45.987477,-23.344487],[-45.986775,-23.344341],[-45.973934,-23.343511],[-45.971638,-23.343184],[-45.968506,-23.34239],[-45.966928,-23.342158],[-45.966056,-23.34214],[-45.964855,-23.342234],[-45.961471,-23.342827],[-45.959579,-23.34302],[-45.958518,-23.343023],[-45.957236,-23.342904],[-45.95595,-23.342651],[-45.955169,-23.342401],[-45.949526,-23.338914],[-45.948187,-23.338357],[-45.946833,-23.338019],[-45.945969,-23.337915],[-45.945111,-23.337875],[-45.943045,-23.337941],[-45.941671,-23.337846],[-45.940083,-23.337549],[-45.939007,-23.33718],[-45.9383,-23.336885],[-45.937141,-23.336233],[-45.935052,-23.334692],[-45.934145,-23.334124],[-45.932091,-23.333106],[-45.930288,-23.332404],[-45.922792,-23.329825],[-45.920015,-23.328793],[-45.918725,-23.327983],[-45.917396,-23.326851],[-45.910708,-23.319022],[-45.909503,-23.317939],[-45.908846,-23.317533],[-45.907656,-23.317063],[-45.904847,-23.316469],[-45.903829,-23.316217],[-45.903018,-23.315931],[-45.901611,-23.315194],[-45.900347,-23.314217],[-45.899062,-23.312856],[-45.892319,-23.303314],[-45.891804,-23.302656],[-45.891063,-23.301982],[-45.889968,-23.301315],[-45.888783,-23.300949],[-45.887726,-23.300781],[-45.881358,-23.300501],[-45.879773,-23.300073],[-45.878602,-23.299501],[-45.877694,-23.298853],[-45.876685,-23.297955],[-45.87138,-23.292775],[-45.866128,-23.287802],[-45.864874,-23.286777],[-45.860462,-23.283505],[-45.858313,-23.281727],[-45.855531,-23.279577],[-45.85446,-23.278863],[-45.853177,-23.278317],[-45.852038,-23.278065],[-45.850954,-23.277979],[-45.846288,-23.278036],[-45.845148,-23.277939],[-45.842853,-23.277562],[-45.840656,-23.276946],[-45.839098,-23.276355],[-45.83755,-23.275605],[-45.829177,-23.27041],[-45.827283,-23.269486],[-45.810767,-23.264109],[-45.808851,-23.263284],[-45.807385,-23.262485],[-45.806132,-23.261669],[-45.802623,-23.258496],[-45.795872,-23.252091],[-45.793746,-23.249803],[-45.792495,-23.248175],[-45.785396,-23.237544],[-45.784365,-23.236286],[-45.782901,-23.2349],[-45.766119,-23.222948],[-45.76383,-23.221628],[-45.74795,-23.213675],[-45.746158,-23.212498],[-45.745202,-23.211717],[-45.743974,-23.210501],[-45.742764,-23.209031],[-45.742242,-23.208251],[-45.74158,-23.207153],[-45.741047,-23.20607],[-45.740136,-23.203447],[-45.737963,-23.196578],[-45.736898,-23.194425],[-45.734461,-23.190738],[-45.729306,-23.183463],[-45.728145,-23.181964],[-45.726537,-23.180356],[-45.725343,-23.179449],[-45.724065,-23.178705],[-45.71266,-23.172802],[-45.711467,-23.172062],[-45.710104,-23.171083],[-45.709072,-23.170237],[-45.707189,-23.168413],[-45.705536,-23.166405],[-45.700316,-23.158868],[-45.698884,-23.157022],[-45.696103,-23.154235],[-45.694985,-23.153308],[-45.693076,-23.151903],[-45.690121,-23.150116],[-45.68877,-23.149457],[-45.686764,-23.14865],[-45.670794,-23.143044],[-45.669333,-23.142442],[-45.667657,-23.14164],[-45.665841,-23.140544],[-45.663279,-23.13861],[-45.661439,-23.136854],[-45.660141,-23.135374],[-45.659402,-23.134415],[-45.658217,-23.132462],[-45.657424,-23.130884],[-45.656833,-23.129483],[-45.653408,-23.119031],[-45.653084,-23.118226],[-45.652504,-23.117108],[-45.651371,-23.115454],[-45.649919,-23.113943],[-45.64866,-23.112906],[-45.647493,-23.112103],[-45.635293,-23.104703],[-45.634006,-23.104051],[-45.631606,-23.103095],[-45.630157,-23.1023],[-45.629158,-23.101575],[-45.627436,-23.10008],[-45.626765,-23.099591],[-45.620498,-23.09582],[-45.619232,-23.095148],[-45.617995,-23.094615],[-45.614232,-23.093429],[-45.613676,-23.093089],[-45.613231,-23.092524],[-45.613043,-23.091832],[-45.613124,-23.091174],[-45.61366,-23.089894],[-45.614875,-23.087499],[-45.615095,-23.086725],[-45.615143,-23.08631],[-45.615076,-23.083463],[-45.615108,-23.08306],[-45.615331,-23.082229],[-45.615991,-23.081052],[-45.617152,-23.07966],[-45.617514,-23.0791],[-45.61789,-23.078143],[-45.618043,-23.076877],[-45.617879,-23.074044],[-45.617919,-23.073045],[-45.618209,-23.072021],[-45.618949,-23.070044],[-45.619615,-23.068535],[-45.620081,-23.067174],[-45.620308,-23.066051],[-45.620274,-23.065015],[-45.61965,-23.062005],[-45.619334,-23.061388],[-45.618946,-23.060929],[-45.618549,-23.060286],[-45.618181,-23.058997],[-45.617838,-23.058511],[-45.61733,-23.058074],[-45.61373,-23.056126],[-45.60501,-23.051834],[-45.599706,-23.049531],[-45.596216,-23.048263],[-45.593126,-23.047277],[-45.586064,-23.045401],[-45.577888,-23.043383],[-45.563913,-23.039747],[-45.561495,-23.03905],[-45.559683,-23.038296],[-45.558258,-23.037602],[-45.556017,-23.036299],[-45.554303,-23.035172],[-45.548803,-23.031313],[-45.545113,-23.028562],[-45.543904,-23.027791],[-45.541449,-23.026049],[-45.519997,-23.010645],[-45.517897,-23.009272],[-45.515416,-23.007894],[-45.468714,-22.984531],[-45.459264,-22.979689],[-45.366167,-22.932933],[-45.362435,-22.931088],[-45.360687,-22.930304],[-45.358438,-22.929057],[-45.315632,-22.907486],[-45.30984,-22.904472],[-45.308001,-22.903339],[-45.283223,-22.886261],[-45.281879,-22.885239],[-45.27344,-22.878329],[-45.271749,-22.87719],[-45.270163,-22.876437],[-45.26875,-22.876013],[-45.256146,-22.874196],[-45.250384,-22.872769],[-45.247603,-22.87201],[-45.246851,-22.87172],[-45.245853,-22.871175],[-45.245151,-22.870643],[-45.244432,-22.869924],[-45.242336,-22.867102],[-45.24166,-22.866541],[-45.239247,-22.86501],[-45.238406,-22.864368],[-45.230244,-22.85539],[-45.229312,-22.854217],[-45.227987,-22.8521],[-45.227142,-22.850432],[-45.227013,-22.849411],[-45.227196,-22.847531],[-45.226958,-22.846633],[-45.226749,-22.84625],[-45.224621,-22.843337],[-45.224316,-22.842587],[-45.223455,-22.83928],[-45.222722,-22.838038],[-45.222191,-22.837437],[-45.21383,-22.830824],[-45.213281,-22.830509],[-45.205959,-22.8272],[-45.204826,-22.826601],[-45.204431,-22.826293],[-45.203801,-22.825567],[-45.202587,-22.823369],[-45.201942,-22.822513],[-45.201513,-22.822186],[-45.201052,-22.821958],[-45.199701,-22.821431],[-45.198705,-22.821311],[-45.198151,-22.821371],[-45.196804,-22.821827],[-45.193908,-22.822991],[-45.19306,-22.823214],[-45.192042,-22.823192],[-45.191325,-22.822964],[-45.187941,-22.82074],[-45.187322,-22.820402],[-45.186507,-22.820074],[-45.184201,-22.819404],[-45.183651,-22.819187],[-45.18281,-22.818687],[-45.182036,-22.817881],[-45.171872,-22.804634],[-45.165992,-22.795088],[-45.165008,-22.793981],[-45.164199,-22.793292],[-45.107782,-22.75273],[-45.096272,-22.744504],[-45.093877,-22.742877],[-45.093013,-22.742174],[-45.090739,-22.740552],[-45.08637,-22.737515],[-45.077459,-22.731051],[-45.054721,-22.714816],[-44.997787,-22.67423],[-44.996775,-22.673374],[-44.99641,-22.672945],[-44.995581,-22.671682],[-44.994924,-22.670987],[-44.994599,-22.670775],[-44.993839,-22.670463],[-44.99143,-22.670117],[-44.990484,-22.669807],[-44.989125,-22.66878],[-44.986179,-22.666274],[-44.981381,-22.662741],[-44.980329,-22.662061],[-44.979324,-22.661745],[-44.970184,-22.659615],[-44.965322,-22.658398],[-44.963732,-22.65776],[-44.962522,-22.65701],[-44.960804,-22.655636],[-44.959201,-22.654223],[-44.958488,-22.653177],[-44.958137,-22.652413],[-44.95783,-22.651403],[-44.957365,-22.650396],[-44.95693,-22.649722],[-44.956259,-22.649014],[-44.955797,-22.648606],[-44.954753,-22.647958],[-44.952655,-22.647076],[-44.95192,-22.646684],[-44.947249,-22.64213],[-44.946104,-22.641297],[-44.944969,-22.640749],[-44.944189,-22.640539],[-44.939536,-22.639964],[-44.938811,-22.639706],[-44.938057,-22.639175],[-44.9376,-22.638689],[-44.936213,-22.636661],[-44.935217,-22.635675],[-44.934321,-22.635084],[-44.929778,-22.632849],[-44.927905,-22.631839],[-44.92721,-22.631391],[-44.924723,-22.629242],[-44.92395,-22.628711],[-44.921327,-22.62742],[-44.915207,-22.624675],[-44.914145,-22.624472],[-44.911324,-22.624286],[-44.910814,-22.624145],[-44.910334,-22.62388],[-44.909779,-22.623268],[-44.909081,-22.620976],[-44.908679,-22.620221],[-44.907705,-22.619431],[-44.904057,-22.617091],[-44.899465,-22.613657],[-44.899251,-22.613427],[-44.898881,-22.612726],[-44.896837,-22.607989],[-44.896402,-22.607234],[-44.895293,-22.606068],[-44.889321,-22.600811],[-44.88862,-22.600037],[-44.888289,-22.599501],[-44.887983,-22.5988],[-44.886415,-22.593944],[-44.88631,-22.593353],[-44.886332,-22.591528],[-44.886217,-22.591012],[-44.885986,-22.590506],[-44.885686,-22.590081],[-44.884539,-22.588817],[-44.881634,-22.585855],[-44.88089,-22.585403],[-44.878851,-22.584846],[-44.878458,-22.584598],[-44.878092,-22.584204],[-44.877864,-22.583823],[-44.877717,-22.583274],[-44.877456,-22.579857],[-44.877194,-22.579178],[-44.876596,-22.578285],[-44.875775,-22.577603],[-44.874624,-22.577053],[-44.868055,-22.5754],[-44.867296,-22.575135],[-44.866387,-22.574591],[-44.865514,-22.573701],[-44.865171,-22.573104],[-44.864909,-22.572368],[-44.864837,-22.571837],[-44.864834,-22.570543],[-44.864966,-22.568901],[-44.865688,-22.566041],[-44.865655,-22.565015],[-44.865387,-22.564228],[-44.864915,-22.563436],[-44.86435,-22.562855],[-44.863618,-22.562364],[-44.854031,-22.557151],[-44.853091,-22.556822],[-44.852404,-22.556739],[-44.851432,-22.55682],[-44.84959,-22.557392],[-44.846069,-22.558041],[-44.842616,-22.559242],[-44.841902,-22.559372],[-44.841164,-22.559386],[-44.840359,-22.55925],[-44.837473,-22.558211],[-44.8369,-22.558063],[-44.836096,-22.557967],[-44.835377,-22.55801],[-44.834577,-22.558196],[-44.834069,-22.55841],[-44.833475,-22.558739],[-44.832232,-22.559709],[-44.831398,-22.560134],[-44.830454,-22.560366],[-44.829787,-22.560383],[-44.829155,-22.56029],[-44.821124,-22.557425],[-44.820217,-22.556809],[-44.817221,-22.554452],[-44.816381,-22.553909],[-44.805194,-22.547622],[-44.804328,-22.546991],[-44.803766,-22.546391],[-44.803327,-22.545748],[-44.802544,-22.544219],[-44.801677,-22.543195],[-44.800509,-22.542392],[-44.799526,-22.541967],[-44.798679,-22.54176],[-44.797858,-22.541667],[-44.79742,-22.541639],[-44.796458,-22.541765],[-44.7888,-22.544329],[-44.788004,-22.544503],[-44.787259,-22.544568],[-44.785795,-22.544422],[-44.783622,-22.543875],[-44.782291,-22.543326],[-44.781568,-22.54285],[-44.78096,-22.542336],[-44.77932,-22.540576],[-44.778269,-22.539618],[-44.776862,-22.538681],[-44.775313,-22.537839],[-44.774121,-22.537291],[-44.772906,-22.536863],[-44.771786,-22.536569],[-44.769635,-22.536211],[-44.767968,-22.536157],[-44.764263,-22.53626],[-44.763227,-22.536072],[-44.762417,-22.535638],[-44.760306,-22.53406],[-44.759309,-22.533611],[-44.751107,-22.530872],[-44.74947,-22.530475],[-44.745391,-22.529803],[-44.744486,-22.529567],[-44.735369,-22.525208],[-44.733693,-22.52464],[-44.732674,-22.524462],[-44.72575,-22.52376],[-44.724127,-22.523767],[-44.721781,-22.52403],[-44.720822,-22.523966],[-44.719953,-22.523772],[-44.71849,-22.523148],[-44.715229,-22.521333],[-44.714034,-22.520746],[-44.712911,-22.52033],[-44.710147,-22.519637],[-44.708951,-22.519133],[-44.698919,-22.513466],[-44.697749,-22.512895],[-44.695418,-22.512034],[-44.687706,-22.509767],[-44.680615,-22.507013],[-44.663537,-22.499573],[-44.662935,-22.499209],[-44.662512,-22.498824],[-44.660764,-22.496654],[-44.659703,-22.495539],[-44.658816,-22.49501],[-44.657232,-22.494312],[-44.655863,-22.492844],[-44.655276,-22.492462],[-44.654733,-22.492291],[-44.65184,-22.492359],[-44.651039,-22.492478],[-44.650728,-22.4926],[-44.649798,-22.493128],[-44.646554,-22.49547],[-44.638191,-22.499524],[-44.636019,-22.500445],[-44.627542,-22.503608],[-44.62623,-22.504075],[-44.62554,-22.504247],[-44.624166,-22.504417],[-44.595617,-22.504825],[-44.593765,-22.504546],[-44.592646,-22.5041],[-44.591811,-22.503586],[-44.590562,-22.502638],[-44.58943,-22.5019],[-44.588087,-22.501588],[-44.583819,-22.501223],[-44.582375,-22.501048],[-44.581769,-22.500856],[-44.581108,-22.500503],[-44.578951,-22.4987],[-44.578043,-22.498171],[-44.569462,-22.494971],[-44.563909,-22.492741],[-44.560829,-22.490401],[-44.560064,-22.489986],[-44.559005,-22.489737],[-44.55413,-22.489428],[-44.553139,-22.489133],[-44.552238,-22.488632],[-44.548046,-22.48595],[-44.545748,-22.484569],[-44.544653,-22.484038],[-44.535432,-22.480929],[-44.532421,-22.479883],[-44.531579,-22.479506],[-44.529759,-22.478417],[-44.521002,-22.472227],[-44.52009,-22.471736],[-44.512678,-22.468477],[-44.51137,-22.468124],[-44.510555,-22.468004],[-44.495226,-22.466565],[-44.494129,-22.466386],[-44.482939,-22.463395],[-44.473738,-22.460662],[-44.47309,-22.460528],[-44.471786,-22.460398],[-44.468228,-22.460395],[-44.458982,-22.45972],[-44.447598,-22.461428],[-44.446651,-22.461512],[-44.445669,-22.461497],[-44.444009,-22.461201],[-44.440572,-22.45998],[-44.438868,-22.459588],[-44.393633,-22.455637],[-44.375023,-22.454087],[-44.340845,-22.451075],[-44.332361,-22.450269],[-44.321783,-22.449381],[-44.319109,-22.449357],[-44.313078,-22.449623],[-44.311963,-22.449791],[-44.310837,-22.4501],[-44.309947,-22.450463],[-44.303056,-22.454012],[-44.302124,-22.454341],[-44.301414,-22.454386],[-44.300989,-22.454337],[-44.298746,-22.453738],[-44.297828,-22.453566],[-44.297044,-22.453544],[-44.295932,-22.453737],[-44.295,-22.454131],[-44.294171,-22.454721],[-44.291822,-22.457171],[-44.291232,-22.458226],[-44.29032,-22.460811],[-44.289716,-22.461621],[-44.288349,-22.462816],[-44.287281,-22.463631],[-44.284555,-22.465312],[-44.284031,-22.465708],[-44.27882,-22.470782],[-44.27659,-22.472859],[-44.275828,-22.47324],[-44.275203,-22.473423],[-44.266116,-22.475627],[-44.265386,-22.475959],[-44.263111,-22.477644],[-44.262766,-22.477994],[-44.262425,-22.478581],[-44.261519,-22.48094],[-44.261156,-22.48152],[-44.26076,-22.481966],[-44.260078,-22.48252],[-44.25727,-22.484257],[-44.255207,-22.486267],[-44.254516,-22.486756],[-44.253821,-22.487029],[-44.253078,-22.487131],[-44.249106,-22.486729],[-44.248505,-22.486722],[-44.247579,-22.486911],[-44.246783,-22.487332],[-44.246333,-22.487704],[-44.245809,-22.488378],[-44.243689,-22.491591],[-44.242666,-22.492883],[-44.241809,-22.493667],[-44.237317,-22.49699],[-44.236294,-22.497618],[-44.234945,-22.498161],[-44.233323,-22.498484],[-44.232309,-22.498806],[-44.231793,-22.499031],[-44.230754,-22.499667],[-44.229117,-22.501105],[-44.225643,-22.504549],[-44.223931,-22.505828],[-44.222094,-22.506888],[-44.221589,-22.507266],[-44.220205,-22.508871],[-44.218233,-22.51001],[-44.217861,-22.510375],[-44.217022,-22.511773],[-44.216443,-22.512346],[-44.215935,-22.512642],[-44.215382,-22.512832],[-44.210902,-22.513695],[-44.210145,-22.514004],[-44.209674,-22.514349],[-44.209221,-22.514888],[-44.208345,-22.516469],[-44.208074,-22.516809],[-44.207665,-22.517171],[-44.206438,-22.517864],[-44.205713,-22.518598],[-44.204503,-22.520915],[-44.204152,-22.521317],[-44.201514,-22.523293],[-44.196981,-22.527543],[-44.196547,-22.528094],[-44.195522,-22.52998],[-44.195301,-22.530602],[-44.195241,-22.531056],[-44.195368,-22.531918],[-44.196114,-22.533624],[-44.196224,-22.534027],[-44.196206,-22.534729],[-44.196049,-22.535344],[-44.195799,-22.535838],[-44.193114,-22.539581],[-44.190118,-22.543566],[-44.189452,-22.54431],[-44.188603,-22.544795],[-44.188003,-22.544984],[-44.185378,-22.545524],[-44.184837,-22.545769],[-44.184309,-22.546185],[-44.18393,-22.546663],[-44.183706,-22.547162],[-44.182687,-22.550998],[-44.182338,-22.551589],[-44.181652,-22.552211],[-44.181093,-22.552488],[-44.180537,-22.552645],[-44.179901,-22.552695],[-44.178343,-22.552658],[-44.177314,-22.552865],[-44.174681,-22.553988],[-44.173892,-22.554534],[-44.173502,-22.555033],[-44.173223,-22.555677],[-44.172965,-22.557421],[-44.172846,-22.558946],[-44.172489,-22.560286],[-44.171835,-22.56155],[-44.170819,-22.562567],[-44.170396,-22.56281],[-44.170017,-22.562917],[-44.169168,-22.562925],[-44.164433,-22.561337],[-44.163527,-22.561232],[-44.162712,-22.561424],[-44.161609,-22.561911],[-44.159623,-22.562636],[-44.158967,-22.562735],[-44.158448,-22.562712],[-44.157827,-22.562596],[-44.157296,-22.562386],[-44.155566,-22.561137],[-44.155079,-22.560893],[-44.151821,-22.560425],[-44.150667,-22.560334],[-44.149881,-22.560418],[-44.149163,-22.560661],[-44.147648,-22.561621],[-44.146798,-22.56201],[-44.145992,-22.562111],[-44.145069,-22.562062],[-44.143654,-22.561764],[-44.141641,-22.560945],[-44.141084,-22.560806],[-44.140424,-22.5608],[-44.138841,-22.561036],[-44.13784,-22.560863],[-44.13701,-22.560437],[-44.131145,-22.55637],[-44.130585,-22.556147],[-44.129941,-22.556039],[-44.129281,-22.556069],[-44.128574,-22.556257],[-44.12812,-22.556489],[-44.123447,-22.559566],[-44.122686,-22.560171],[-44.122326,-22.560626],[-44.122042,-22.561277],[-44.121943,-22.561813],[-44.122346,-22.564244],[-44.122361,-22.5651],[-44.122258,-22.565666],[-44.121676,-22.567584],[-44.121371,-22.568305],[-44.121041,-22.568741],[-44.120691,-22.569043],[-44.120164,-22.56935],[-44.119796,-22.569463],[-44.117513,-22.569746],[-44.117125,-22.569853],[-44.116325,-22.570238],[-44.115625,-22.570909],[-44.115389,-22.571347],[-44.115185,-22.572266],[-44.115432,-22.573822],[-44.115442,-22.574812],[-44.115367,-22.575308],[-44.115131,-22.575981],[-44.114842,-22.576486],[-44.114482,-22.576964],[-44.110544,-22.580943],[-44.110189,-22.581631],[-44.109873,-22.583459],[-44.1095,-22.584238],[-44.109011,-22.584767],[-44.107871,-22.58556],[-44.107255,-22.586101],[-44.106896,-22.58664],[-44.106028,-22.588487],[-44.105719,-22.588902],[-44.105027,-22.589504],[-44.104327,-22.58984],[-44.103399,-22.590024],[-44.102592,-22.589987],[-44.090014,-22.587483],[-44.089185,-22.587388],[-44.088412,-22.587421],[-44.085597,-22.58782],[-44.085099,-22.587983],[-44.077277,-22.592097],[-44.076041,-22.592638],[-44.074751,-22.592802],[-44.070368,-22.592904],[-44.069335,-22.592733],[-44.068215,-22.592328],[-44.061509,-22.588446],[-44.055719,-22.585898],[-44.051203,-22.584836],[-44.038957,-22.582321],[-44.037959,-22.582212],[-44.029995,-22.581975],[-44.024351,-22.580892],[-44.023071,-22.580947],[-44.022022,-22.581196],[-44.021469,-22.581435],[-44.020543,-22.582068],[-44.01742,-22.585411],[-44.016553,-22.586036],[-44.0161,-22.586221],[-44.015081,-22.586335],[-44.011382,-22.586079],[-44.010223,-22.585917],[-44.008615,-22.585523],[-43.998942,-22.582991],[-43.98874,-22.579379],[-43.987682,-22.578892],[-43.985344,-22.577511],[-43.984615,-22.577342],[-43.983633,-22.577389],[-43.983216,-22.577502],[-43.982798,-22.577714],[-43.978851,-22.580564],[-43.977934,-22.581089],[-43.973528,-22.582593],[-43.97223,-22.58275],[-43.962134,-22.583293],[-43.961115,-22.583556],[-43.960122,-22.584263],[-43.958342,-22.58593],[-43.958007,-22.586591],[-43.955691,-22.593462],[-43.955137,-22.594873],[-43.954429,-22.596336],[-43.953938,-22.596957],[-43.95179,-22.599027],[-43.951133,-22.599396],[-43.950563,-22.599577],[-43.948243,-22.599803],[-43.946452,-22.599751],[-43.942164,-22.599362],[-43.941071,-22.599441],[-43.940379,-22.599724],[-43.937886,-22.601212],[-43.935919,-22.602733],[-43.935655,-22.603103],[-43.935512,-22.603456],[-43.935297,-22.605598],[-43.935183,-22.606089],[-43.934892,-22.606724],[-43.934239,-22.607478],[-43.932862,-22.608439],[-43.93227,-22.608936],[-43.931855,-22.609493],[-43.931642,-22.610031],[-43.93157,-22.610967],[-43.931564,-22.613177],[-43.932003,-22.614679],[-43.932087,-22.615244],[-43.931995,-22.615851],[-43.931716,-22.616433],[-43.931156,-22.616946],[-43.930695,-22.617168],[-43.929416,-22.617579],[-43.928588,-22.61808],[-43.927328,-22.619305],[-43.921442,-22.623808],[-43.920522,-22.624178],[-43.920043,-22.624276],[-43.917118,-22.624584],[-43.916223,-22.624991],[-43.911551,-22.629127],[-43.910008,-22.630403],[-43.90518,-22.633221],[-43.902592,-22.635137],[-43.901132,-22.636988],[-43.899676,-22.637967],[-43.899298,-22.638329],[-43.898979,-22.638696],[-43.898737,-22.639178],[-43.89847,-22.640499],[-43.898098,-22.641503],[-43.892961,-22.651059],[-43.891953,-22.653065],[-43.890121,-22.65758],[-43.889124,-22.658976],[-43.88765,-22.660781],[-43.886037,-22.66323],[-43.885679,-22.663576],[-43.885047,-22.663991],[-43.882041,-22.665118],[-43.880844,-22.665357],[-43.879168,-22.665313],[-43.874929,-22.664865],[-43.873205,-22.664813],[-43.872033,-22.664923],[-43.870215,-22.665405],[-43.868045,-22.666437],[-43.867217,-22.666668],[-43.866647,-22.666661],[-43.866237,-22.666557],[-43.865046,-22.665925],[-43.864465,-22.665734],[-43.86411,-22.665684],[-43.863621,-22.665729],[-43.863077,-22.66593],[-43.86173,-22.666799],[-43.861308,-22.666984],[-43.859829,-22.66704],[-43.859153,-22.667227],[-43.8584,-22.667744],[-43.856604,-22.669192],[-43.856151,-22.669415],[-43.855574,-22.669532],[-43.854887,-22.669513],[-43.853659,-22.669269],[-43.852523,-22.668804],[-43.851341,-22.667717],[-43.849606,-22.66588],[-43.849303,-22.665649],[-43.849017,-22.665538],[-43.848394,-22.66557],[-43.84699,-22.666333],[-43.846533,-22.666392],[-43.845398,-22.666277],[-43.845051,-22.666321],[-43.84228,-22.667151],[-43.841751,-22.667082],[-43.841415,-22.666884],[-43.841138,-22.666523],[-43.840845,-22.665832],[-43.840477,-22.665492],[-43.840214,-22.665457],[-43.838984,-22.666044],[-43.838751,-22.666264],[-43.838824,-22.667913],[-43.838384,-22.668528],[-43.838568,-22.669378],[-43.838348,-22.669771],[-43.838065,-22.669901],[-43.837802,-22.669895],[-43.83605,-22.669097],[-43.835793,-22.669092],[-43.835554,-22.66922],[-43.835484,-22.669388],[-43.835507,-22.669632],[-43.836091,-22.670853],[-43.836116,-22.671322],[-43.835905,-22.671627],[-43.834976,-22.672329],[-43.834864,-22.672581],[-43.834872,-22.673183],[-43.834701,-22.673433],[-43.834428,-22.673546],[-43.834018,-22.67346],[-43.832695,-22.672573],[-43.832149,-22.672138],[-43.831321,-22.67112],[-43.830419,-22.670659],[-43.830083,-22.670183],[-43.829294,-22.669438],[-43.829099,-22.668822],[-43.82895,-22.668652],[-43.828631,-22.668557],[-43.826901,-22.668341],[-43.826687,-22.668481],[-43.826621,-22.668664],[-43.826739,-22.669436],[-43.826903,-22.66959],[-43.827449,-22.669729],[-43.827851,-22.669962],[-43.828149,-22.670584],[-43.828583,-22.671101],[-43.828848,-22.671682],[-43.828836,-22.672592],[-43.82905,-22.672791],[-43.829509,-22.672991],[-43.829877,-22.673375],[-43.830149,-22.6738],[-43.830225,-22.674718],[-43.830416,-22.674856],[-43.831022,-22.675081],[-43.831434,-22.675945],[-43.831821,-22.676041],[-43.832933,-22.675797],[-43.833342,-22.675878],[-43.833627,-22.67604],[-43.834256,-22.677061],[-43.834432,-22.677769],[-43.834701,-22.678003],[-43.835158,-22.678073],[-43.835398,-22.67819],[-43.835519,-22.678387],[-43.835713,-22.679111],[-43.835871,-22.679325],[-43.836576,-22.679434],[-43.837278,-22.679647],[-43.837878,-22.679582],[-43.838732,-22.679636],[-43.839408,-22.679515],[-43.83974,-22.679532],[-43.839905,-22.679656],[-43.840005,-22.679889],[-43.839983,-22.680173],[-43.839896,-22.680311],[-43.839594,-22.680423],[-43.83927,-22.680364],[-43.838797,-22.679867],[-43.838477,-22.679785],[-43.837956,-22.679924],[-43.83708,-22.680328],[-43.836263,-22.680275],[-43.835492,-22.680367],[-43.8352,-22.680126],[-43.83502,-22.679196],[-43.83443,-22.678608],[-43.834065,-22.678521],[-43.833205,-22.678665],[-43.832431,-22.678601],[-43.832157,-22.678471],[-43.830913,-22.677428],[-43.830697,-22.677379],[-43.830202,-22.677439],[-43.829612,-22.677666],[-43.829268,-22.678219],[-43.829254,-22.678477],[-43.829459,-22.679275],[-43.829032,-22.680024],[-43.828932,-22.68076],[-43.82878,-22.681145],[-43.828227,-22.681673],[-43.82764,-22.682449],[-43.826745,-22.683069],[-43.82643,-22.683154],[-43.825783,-22.683074],[-43.825138,-22.683267],[-43.824866,-22.683175],[-43.824689,-22.682977],[-43.824558,-22.682313],[-43.823707,-22.681038],[-43.823422,-22.679945],[-43.822002,-22.678261],[-43.821609,-22.67801],[-43.821302,-22.677918],[-43.819701,-22.6779],[-43.81802,-22.676953],[-43.817758,-22.676866],[-43.817435,-22.676858],[-43.816604,-22.677072],[-43.816061,-22.677351],[-43.815667,-22.677794],[-43.814299,-22.679661],[-43.813481,-22.681003],[-43.813418,-22.681272],[-43.813395,-22.683066],[-43.813758,-22.684579],[-43.813768,-22.68499],[-43.813662,-22.685294],[-43.813482,-22.685537],[-43.813148,-22.685786],[-43.811382,-22.686736],[-43.803794,-22.689422],[-43.803038,-22.689604],[-43.801512,-22.689715],[-43.795983,-22.688908],[-43.794696,-22.688876],[-43.792198,-22.689509],[-43.788576,-22.691188],[-43.786516,-22.691576],[-43.785229,-22.691972],[-43.77983,-22.694514],[-43.779212,-22.694593],[-43.778448,-22.694522],[-43.773367,-22.693001],[-43.772646,-22.692954],[-43.771873,-22.69312],[-43.771144,-22.693492],[-43.770663,-22.693857],[-43.766081,-22.697848],[-43.765196,-22.698711],[-43.764174,-22.69938],[-43.763084,-22.699851],[-43.759368,-22.701007],[-43.758183,-22.70107],[-43.752619,-22.70013],[-43.75201,-22.700117],[-43.751286,-22.700231],[-43.750348,-22.700711],[-43.748421,-22.702227],[-43.747823,-22.702557],[-43.740679,-22.705173],[-43.739625,-22.705702],[-43.738298,-22.70698],[-43.73742,-22.707982],[-43.736995,-22.708657],[-43.735123,-22.712185],[-43.734785,-22.712675],[-43.734034,-22.713412],[-43.733311,-22.71381],[-43.732655,-22.714044],[-43.728726,-22.714681],[-43.683706,-22.721014],[-43.665515,-22.724116],[-43.62748,-22.729735],[-43.625802,-22.730067],[-43.620827,-22.731608],[-43.619616,-22.7318],[-43.618204,-22.731783],[-43.617404,-22.731646],[-43.616539,-22.731381],[-43.613271,-22.730123],[-43.612449,-22.729934],[-43.611622,-22.729861],[-43.610629,-22.729903],[-43.604826,-22.731173],[-43.603576,-22.731381],[-43.601963,-22.731548],[-43.60017,-22.731599],[-43.598206,-22.731551],[-43.595929,-22.73121],[-43.593931,-22.730749],[-43.588964,-22.729419],[-43.588007,-22.729209],[-43.586998,-22.729099],[-43.577098,-22.729358],[-43.572211,-22.730034],[-43.571257,-22.730104],[-43.564609,-22.729887],[-43.562868,-22.729977],[-43.561368,-22.730338],[-43.559996,-22.730949],[-43.558636,-22.731877],[-43.555714,-22.734212],[-43.554643,-22.734842],[-43.553412,-22.73532],[-43.551591,-22.735685],[-43.542907,-22.7361],[-43.541534,-22.73632],[-43.51332,-22.743797],[-43.511548,-22.744204],[-43.510508,-22.744337],[-43.509004,-22.74433],[-43.508344,-22.744256],[-43.506491,-22.743807],[-43.493196,-22.738185],[-43.491438,-22.737725],[-43.490108,-22.737604],[-43.459682,-22.74],[-43.458669,-22.740112],[-43.456776,-22.740467],[-43.455803,-22.740738],[-43.454418,-22.741251],[-43.452444,-22.742205],[-43.44963,-22.744052],[-43.4298,-22.757812],[-43.427768,-22.759153],[-43.425004,-22.760708],[-43.415765,-22.765162],[-43.414133,-22.766023],[-43.412498,-22.766994],[-43.409875,-22.768738],[-43.39733,-22.777565],[-43.394048,-22.779681],[-43.391642,-22.780865],[-43.38935,-22.781762],[-43.387687,-22.78229],[-43.383459,-22.783379],[-43.382629,-22.783719],[-43.35602,-22.798935],[-43.322625,-22.817365],[-43.321287,-22.818309],[-43.320839,-22.818747],[-43.320505,-22.819369],[-43.319945,-22.82121],[-43.319571,-22.82168],[-43.319269,-22.821872],[-43.318878,-22.822007],[-43.318592,-22.822019],[-43.317906,-22.821968],[-43.317504,-22.821864],[-43.31696,-22.821595],[-43.31584,-22.820651],[-43.314587,-22.82022],[-43.313218,-22.820076],[-43.31231,-22.820065],[-43.310969,-22.819825],[-43.309329,-22.818995],[-43.306665,-22.817273],[-43.30541,-22.816749],[-43.303902,-22.816338],[-43.295782,-22.814497],[-43.294815,-22.814455],[-43.293887,-22.814599],[-43.289794,-22.815689],[-43.288364,-22.816331],[-43.2713,-22.829644],[-43.270034,-22.830562],[-43.26892,-22.831232],[-43.256465,-22.837921],[-43.255008,-22.838874],[-43.253961,-22.839866],[-43.248402,-22.845958],[-43.248012,-22.846498],[-43.247687,-22.847134],[-43.24745,-22.847827],[-43.247314,-22.848585],[-43.247327,-22.84953],[-43.247706,-22.851758],[-43.247844,-22.853772],[-43.248068,-22.864145],[-43.247929,-22.865666],[-43.247494,-22.868288],[-43.247282,-22.86917],[-43.246865,-22.870247],[-43.246251,-22.871308],[-43.241693,-22.877193],[-43.238616,-22.881598],[-43.236498,-22.883958],[-43.234056,-22.886508],[-43.233288,-22.886978],[-43.232832,-22.887134],[-43.231712,-22.887289],[-43.23115,-22.887245],[-43.230071,-22.886843],[-43.228163,-22.885378],[-43.22781,-22.885211],[-43.227592,-22.885215],[-43.227351,-22.885356],[-43.22652,-22.88636],[-43.223182,-22.890588],[-43.224798,-22.890969],[-43.226521,-22.890884],[-43.227029,-22.890756],[-43.227226,-22.890537],[-43.227424,-22.890629],[-43.227411,-22.890898],[-43.227602,-22.89135]]},"properties":{"route_id":"sao-januario","tipo":"rota","clube":"Vasco da Gama","estadio":"São Januário","cidade":"Rio de Janeiro","estado":"RJ","distancia_km":426.5,"modo_rota":"carro","match_status":"projecao","status":"Projeção: adversário é previsto pelo chaveamento; data e estádio sujeitos a confirmação.","projecao":true,"fonte_rota":"OpenStreetMap via OSRM public driving router","metodo_rota":"Rota rodoviária por carro; sem perfil específico para ônibus ou tráfego em tempo real.","data_partida":null,"Name":"Parque São Jorge → São Januário, Rio de Janeiro - RJ","ajuste_origem_m":1.0,"duracao_estimativa_min":321}},{"type":"Feature","geometry":{"type":"Point","coordinates":[-43.227602,-22.89135]},"properties":{"route_id":"sao-januario","tipo":"estadio_destino","clube":"Vasco da Gama","estadio":"São Januário","cidade":"Rio de Janeiro","estado":"RJ","distancia_km":426.5,"status":"Projeção: adversário é previsto pelo chaveamento; data e estádio sujeitos a confirmação.","projecao":true,"data_partida":null}}],"metadata":{"fixture_source":"https://site.api.espn.com/apis/site/v2/sports/soccer/bra.1/teams/874/schedule?season=2026&region=br&lang=pt","fixture_status":"Projeção; a agenda consultada não contém os jogos futuros restantes.","route_service":"https://project-osrm.org/","openstreetmap_copyright":"© OpenStreetMap contributors","coordinates_accuracy":"Estádio habitual do mandante; sujeito a confirmação oficial."}}