{"type":"FeatureCollection","name":"Fiel Pelo Mundo","features":[{"type":"Feature","properties":{"nome":"Fiel Boston","continente":"América do Norte","icone":"assets/icones/torcidas/fiel_boston.png","instagram":"https://www.instagram.com/fielboston/"},"geometry":{"type":"Point","coordinates":[-71.0722851,42.3425985]}},{"type":"Feature","properties":{"nome":"Fiel California (San Diego)","continente":"América do Norte","icone":"assets/icones/torcidas/fiel_california.png","instagram":"https://www.instagram.com/fielcalifornia/"},"geometry":{"type":"Point","coordinates":[-117.1610838,32.715738]}},{"type":"Feature","properties":{"nome":"Fiel Florida","continente":"América do Norte","icone":"assets/icones/torcidas/fiel_florida.png","instagram":"https://www.instagram.com/fielflorida/"},"geometry":{"type":"Point","coordinates":[-81.4723912,28.4568798]}},{"type":"Feature","properties":{"nome":"Fiel Texas","continente":"América do Norte","icone":"assets/icones/torcidas/fiel_texas.png","instagram":"https://www.instagram.com/fieltexas/"},"geometry":{"type":"Point","coordinates":[-96.933725,33.1624623]}},{"type":"Feature","properties":{"nome":"Fiel Kush - Toronto","continente":"América do Norte","icone":"assets/icones/torcidas/fiel_kush.png","instagram":"https://www.instagram.com/fiel.kush/"},"geometry":{"type":"Point","coordinates":[-79.4478961,43.6770454]}},{"type":"Feature","properties":{"nome":"Fiel Toronto","continente":"América do Norte","icone":"assets/icones/torcidas/fiel_toronto.png","instagram":"https://www.instagram.com/fiel_toronto/"},"geometry":{"type":"Point","coordinates":[-79.4488968,43.6769241]}},{"type":"Feature","properties":{"nome":"Fiel Vancouver","continente":"América do Norte","icone":"assets/icones/torcidas/fiel_vancouver.png","instagram":"https://www.instagram.com/fiel_vancouver/"},"geometry":{"type":"Point","coordinates":[-123.1008743,49.2474187]}},{"type":"Feature","properties":{"nome":"Fiel Kush - Vancouver","continente":"América do Norte","icone":"assets/icones/torcidas/fiel_kush_pequeno_2.png"},"geometry":{"type":"Point","coordinates":[-123.1918198,49.2546953]}},{"type":"Feature","properties":{"nome":"Gavioes da Fiel USA - PDE MIAMI","continente":"América do Norte","instagram":"https://www.instagram.com/gavioes_usa/"},"geometry":{"type":"Point","coordinates":[-80.1891616,25.7620953]}},{"type":"Feature","properties":{"nome":"Fiel Mar del Plata","continente":"América do Sul","icone":"assets/icones/torcidas/fiel_mar_del_plata.png"},"geometry":{"type":"Point","coordinates":[-57.5314775,-38.0129401]}},{"type":"Feature","properties":{"nome":"Gaviões Subsede Japão","continente":"Ásia","icone":"assets/icones/torcidas/gavioes_subsede_japao.png","instagram":"https://www.instagram.com/gavioesjapao/"},"geometry":{"type":"Point","coordinates":[137.7273513,34.7110438]}},{"type":"Feature","properties":{"nome":"Fiel Algarve","continente":"Europa","icone":"assets/icones/torcidas/fiel_algarve.png","instagram":"https://www.instagram.com/fielalgarve/"},"geometry":{"type":"Point","coordinates":[-8.1198957,37.0762875]}},{"type":"Feature","properties":{"nome":"Fiel Baixa Saxônia","continente":"Europa","icone":"assets/icones/torcidas/fiel_baixa_saxonia.png","instagram":"https://www.instagram.com/fielbaixasaxonia/"},"geometry":{"type":"Point","coordinates":[10.5245656,52.2677907]}},{"type":"Feature","properties":{"nome":"Fiel Alemanha","continente":"Europa","icone":"assets/icones/torcidas/fiel_alemanha.png","instagram":"https://www.instagram.com/fielalemanha/"},"geometry":{"type":"Point","coordinates":[10.451526,51.165691]}},{"type":"Feature","properties":{"nome":"Fiel Berlim","continente":"Europa","icone":"assets/icones/torcidas/fiel_berlim.png","instagram":"https://www.instagram.com/fielberlim/"},"geometry":{"type":"Point","coordinates":[13.4332443,52.4807181]}},{"type":"Feature","properties":{"nome":"Fiel Barcelona","continente":"Europa","icone":"assets/icones/torcidas/fiel_barcelona.png"},"geometry":{"type":"Point","coordinates":[2.1465295,41.372742]}},{"type":"Feature","properties":{"nome":"Fiel Braga","continente":"Europa","icone":"assets/icones/torcidas/fiel_braga.png","instagram":"https://www.instagram.com/fiel.braga/"},"geometry":{"type":"Point","coordinates":[-8.426507,41.5454486]}},{"type":"Feature","properties":{"nome":"Fiel Coimbra","continente":"Europa","icone":"assets/icones/torcidas/fiel_coimbra.png","instagram":"https://www.instagram.com/fiel.coimbra.portugal/"},"geometry":{"type":"Point","coordinates":[-8.4131895,40.2038661]}},{"type":"Feature","properties":{"nome":"Fiel Cork","continente":"Europa","icone":"assets/icones/torcidas/fiel_cork.png","instagram":"https://www.instagram.com/fielcork/"},"geometry":{"type":"Point","coordinates":[-8.481341,51.8926342]}},{"type":"Feature","properties":{"nome":"Fiel Drogheda","continente":"Europa","icone":"assets/icones/torcidas/fiel_drogheda.png"},"geometry":{"type":"Point","coordinates":[-6.3547174,53.7154398]}},{"type":"Feature","properties":{"nome":"Fiel Dublin","continente":"Europa","icone":"assets/icones/torcidas/fiel_dublin.png","instagram":"https://www.instagram.com/fieldublin/"},"geometry":{"type":"Point","coordinates":[-6.2677766,53.3456785]}},{"type":"Feature","properties":{"nome":"Fiel Malta","continente":"Europa","icone":"assets/icones/torcidas/fiel_malta.png","instagram":"https://www.instagram.com/fielmalta/"},"geometry":{"type":"Point","coordinates":[14.4893593,35.9176919]}},{"type":"Feature","properties":{"nome":"Fiel Madrid","continente":"Europa","icone":"assets/icones/torcidas/fiel_madrid.png","instagram":"https://www.instagram.com/fielmadrid/"},"geometry":{"type":"Point","coordinates":[-3.6852825,40.4140495]}},{"type":"Feature","properties":{"nome":"Fiel Lisboa","continente":"Europa","icone":"assets/icones/torcidas/fiel_lisboa.png","instagram":"https://www.instagram.com/fiellisboa/"},"geometry":{"type":"Point","coordinates":[-9.1328266,38.7134094]}},{"type":"Feature","properties":{"nome":"Fiel Londres","continente":"Europa","icone":"assets/icones/torcidas/fiel_londres.png","instagram":"https://www.instagram.com/fiel.londres/"},"geometry":{"type":"Point","coordinates":[-0.1326502,51.5034781]}},{"type":"Feature","properties":{"nome":"Fiel Munchen","continente":"Europa","icone":"assets/icones/torcidas/fiel_munchen.png","instagram":"https://www.instagram.com/fiel.munchen/"},"geometry":{"type":"Point","coordinates":[11.5550598,48.1362918]}},{"type":"Feature","properties":{"nome":"Fiel Paris","continente":"Europa","icone":"assets/icones/torcidas/fiel_paris.png","instagram":"https://www.instagram.com/fiel.paris/"},"geometry":{"type":"Point","coordinates":[2.3819783,48.8900461]}},{"type":"Feature","properties":{"nome":"Fiel Porto","continente":"Europa","icone":"assets/icones/torcidas/fiel_porto.png","instagram":"https://www.instagram.com/fiel.porto.portugal/"},"geometry":{"type":"Point","coordinates":[-8.5823564,41.1446322]}},{"type":"Feature","properties":{"nome":"Fiel Valência","continente":"Europa","icone":"assets/icones/torcidas/fiel_valencia.png","instagram":"https://www.instagram.com/fielvalencia/"},"geometry":{"type":"Point","coordinates":[-0.3756348,39.4738338]}},{"type":"Feature","properties":{"nome":"Fiel Brisbane","continente":"Oceania","icone":"assets/icones/torcidas/fiel_brisbane.png","instagram":"https://www.instagram.com/fielbrisbane/"},"geometry":{"type":"Point","coordinates":[153.0164625,-27.4668832]}},{"type":"Feature","properties":{"nome":"Fiel Melbourne","continente":"Oceania","icone":"assets/icones/torcidas/fiel_melbourne.png","instagram":"https://www.instagram.com/fielmelbourne/"},"geometry":{"type":"Point","coordinates":[144.9630576,-37.8136276]}},{"type":"Feature","properties":{"nome":"Fiel Kush - Sydney","continente":"Oceania","icone":"assets/icones/torcidas/fiel_kush.png","instagram":"https://www.instagram.com/fiel.kush/"},"geometry":{"type":"Point","coordinates":[151.1988959,-33.8699889]}},{"type":"Feature","properties":{"nome":"Fiel Sydney","continente":"Oceania","icone":"assets/icones/torcidas/fiel_sydney.png","instagram":"https://www.instagram.com/fiel_sydney/"},"geometry":{"type":"Point","coordinates":[151.1976792,-33.8697984]}},{"type":"Feature","properties":{"nome":"Fiel Perth","continente":"Oceania","icone":"assets/icones/torcidas/fiel_perth.png","instagram":"https://www.instagram.com/fielperth/"},"geometry":{"type":"Point","coordinates":[115.896111,-31.9616088]}},{"type":"Feature","properties":{"nome":"Fiel Gold Coast","continente":"Oceania","icone":"assets/icones/torcidas/fiel_gold_coast.png","instagram":"https://www.instagram.com/gold_coast_corinthians/"},"geometry":{"type":"Point","coordinates":[153.417932,-28.0124041]}}]}
