{
"type": "FeatureCollection",
"name": "as_brabas_estadios",
"crs": { "type": "name", "properties": { "name": "urn:ogc:def:crs:OGC:1.3:CRS84" } },
"features": [
{ "type": "Feature", "properties": { "ESTÁDIO": "1º DE MAIO (PRIMEIRÃO)", "CIDADE": "SÃO BERNARDO DO CAMPO", "ESTADO": "SÃO PAULO", "PAÍS": "BRASIL", "CAPACIDADE": "15759", "TOTAL_JOGOS": 2, "VITÓRIAS": 2, "EMPATES": 0, "DERROTAS": 0, "APROVEITAMENTO_PCT": 100.0, "GOLS_MARCADOS": 2, "GOLS_SOFRIDOS": 0, "LATITUDE": -23.699558583592914, "LONGITUDE": -46.554931460085633 }, "geometry": { "type": "Point", "coordinates": [ -46.554931460085633, -23.699558583592914 ] } },
{ "type": "Feature", "properties": { "ESTÁDIO": "ADELMAR DA COSTA CARVALHO (ILHA DO RETIRO)", "CIDADE": "RECIFE ", "ESTADO": "PERNAMBUCO", "PAÍS": "BRASIL", "CAPACIDADE": "32500", "TOTAL_JOGOS": 2, "VITÓRIAS": 1, "EMPATES": 1, "DERROTAS": 0, "APROVEITAMENTO_PCT": 66.7, "GOLS_MARCADOS": 1, "GOLS_SOFRIDOS": 0, "LATITUDE": -8.0631018242894132, "LONGITUDE": -34.903760584090449 }, "geometry": { "type": "Point", "coordinates": [ -34.903760584090449, -8.063101824289413 ] } },
{ "type": "Feature", "properties": { "ESTÁDIO": "ADEMIR CUNHA", "CIDADE": "PAULISTA ", "ESTADO": "PERNAMBUCO", "PAÍS": "BRASIL", "CAPACIDADE": "12000", "TOTAL_JOGOS": 1, "VITÓRIAS": 1, "EMPATES": 0, "DERROTAS": 0, "APROVEITAMENTO_PCT": 100.0, "GOLS_MARCADOS": 7, "GOLS_SOFRIDOS": 0, "LATITUDE": -7.9452429061648928, "LONGITUDE": -34.888020321449119 }, "geometry": { "type": "Point", "coordinates": [ -34.888020321449119, -7.945242906164893 ] } },
{ "type": "Feature", "properties": { "ESTÁDIO": "AIRTON FERREIRA DA SILVA (CT HÉLIO DOURADO)", "CIDADE": "ELDORADO DO SUL ", "ESTADO": "RIO GRANDE DO SUL", "PAÍS": "BRASIL", "CAPACIDADE": "2000", "TOTAL_JOGOS": 2, "VITÓRIAS": 2, "EMPATES": 0, "DERROTAS": 0, "APROVEITAMENTO_PCT": 100.0, "GOLS_MARCADOS": 8, "GOLS_SOFRIDOS": 0, "LATITUDE": -30.019920501199675, "LONGITUDE": -51.307765361932162 }, "geometry": { "type": "Point", "coordinates": [ -51.307765361932162, -30.019920501199675 ] } },
{ "type": "Feature", "properties": { "ESTÁDIO": "ALFREDO SCHÜRIG (PARQUE SÃO JORGE / FAZENDINHA)", "CIDADE": "SÃO PAULO ", "ESTADO": "SÃO PAULO", "PAÍS": "BRASIL", "CAPACIDADE": "9800", "TOTAL_JOGOS": 122, "VITÓRIAS": 99, "EMPATES": 12, "DERROTAS": 11, "APROVEITAMENTO_PCT": 84.4, "GOLS_MARCADOS": 399, "GOLS_SOFRIDOS": 95, "LATITUDE": -23.526659630812546, "LONGITUDE": -46.569480895169598 }, "geometry": { "type": "Point", "coordinates": [ -46.569480895169598, -23.526659630812546 ] } },
{ "type": "Feature", "properties": { "ESTÁDIO": "ALTEROSAS (SESC VENDA NOVA)", "CIDADE": "BELO HORIZONTE", "ESTADO": "MINAS GERAIS", "PAÍS": "BRASIL", "CAPACIDADE": "2000", "TOTAL_JOGOS": 1, "VITÓRIAS": 1, "EMPATES": 0, "DERROTAS": 0, "APROVEITAMENTO_PCT": 100.0, "GOLS_MARCADOS": 3, "GOLS_SOFRIDOS": 1, "LATITUDE": -19.79361236860667, "LONGITUDE": -43.97873850426172 }, "geometry": { "type": "Point", "coordinates": [ -43.97873850426172, -19.79361236860667 ] } },
{ "type": "Feature", "properties": { "ESTÁDIO": "ANTÔNIO SOARES DE OLIVEIRA", "CIDADE": "GUARULHOS ", "ESTADO": "SÃO PAULO", "PAÍS": "BRASIL", "CAPACIDADE": "6235", "TOTAL_JOGOS": 5, "VITÓRIAS": 4, "EMPATES": 1, "DERROTAS": 0, "APROVEITAMENTO_PCT": 86.7, "GOLS_MARCADOS": 18, "GOLS_SOFRIDOS": 3, "LATITUDE": -23.47036920270418, "LONGITUDE": -46.551778361932165 }, "geometry": { "type": "Point", "coordinates": [ -46.551778361932165, -23.47036920270418 ] } },
{ "type": "Feature", "properties": { "ESTÁDIO": "ANTÔNIO VIEIRA RAMOS (VIEIRÃO)", "CIDADE": "GRAVATAÍ", "ESTADO": "RIO GRANDE DO SUL", "PAÍS": "BRASIL", "CAPACIDADE": "8000", "TOTAL_JOGOS": 1, "VITÓRIAS": 0, "EMPATES": 1, "DERROTAS": 0, "APROVEITAMENTO_PCT": 33.3, "GOLS_MARCADOS": 2, "GOLS_SOFRIDOS": 2, "LATITUDE": -29.934730553219048, "LONGITUDE": -50.996962888657364 }, "geometry": { "type": "Point", "coordinates": [ -50.996962888657364, -29.934730553219048 ] } },
{ "type": "Feature", "properties": { "ESTÁDIO": "ANÍSIO HADDAD (RIO PRETÃO)", "CIDADE": "SÃO JOSÉ DO RIO PRETO ", "ESTADO": "SÃO PAULO", "PAÍS": "BRASIL", "CAPACIDADE": "14014", "TOTAL_JOGOS": 3, "VITÓRIAS": 1, "EMPATES": 0, "DERROTAS": 2, "APROVEITAMENTO_PCT": 33.3, "GOLS_MARCADOS": 4, "GOLS_SOFRIDOS": 5, "LATITUDE": -20.834486949703546, "LONGITUDE": -49.400762361932159 }, "geometry": { "type": "Point", "coordinates": [ -49.400762361932159, -20.834486949703546 ] } },
{ "type": "Feature", "properties": { "ESTÁDIO": "ARENA BRB MANÉ GARRINCHA (ESTÁDIO NACIONAL DE BRASÍLIA)", "CIDADE": "BRASÍLIA", "ESTADO": "DISTRITO FEDERAL", "PAÍS": "BRASIL", "CAPACIDADE": "72788", "TOTAL_JOGOS": 1, "VITÓRIAS": 1, "EMPATES": 0, "DERROTAS": 0, "APROVEITAMENTO_PCT": 100.0, "GOLS_MARCADOS": 2, "GOLS_SOFRIDOS": 0, "LATITUDE": -15.783414667854856, "LONGITUDE": -47.900118878659491 }, "geometry": { "type": "Point", "coordinates": [ -47.900118878659491, -15.783414667854856 ] } },
{ "type": "Feature", "properties": { "ESTÁDIO": "ARENA DA AMAZÔNIA - VIVALDO LIMA", "CIDADE": "MANAUS ", "ESTADO": "AMAZONAS", "PAÍS": "BRASIL", "CAPACIDADE": "44300", "TOTAL_JOGOS": 4, "VITÓRIAS": 1, "EMPATES": 2, "DERROTAS": 1, "APROVEITAMENTO_PCT": 41.7, "GOLS_MARCADOS": 5, "GOLS_SOFRIDOS": 4, "LATITUDE": -3.0830207174485653, "LONGITUDE": -60.027613492125674 }, "geometry": { "type": "Point", "coordinates": [ -60.027613492125674, -3.083020717448565 ] } },
{ "type": "Feature", "properties": { "ESTÁDIO": "ARENA DO GRÊMIO", "CIDADE": "PORTO ALEGRE ", "ESTADO": "RIO GRANDE DO SUL", "PAÍS": "BRASIL", "CAPACIDADE": "55662", "TOTAL_JOGOS": 2, "VITÓRIAS": 2, "EMPATES": 0, "DERROTAS": 0, "APROVEITAMENTO_PCT": 100.0, "GOLS_MARCADOS": 6, "GOLS_SOFRIDOS": 0, "LATITUDE": -29.973786084932922, "LONGITUDE": -51.194217389527033 }, "geometry": { "type": "Point", "coordinates": [ -51.194217389527033, -29.973786084932922 ] } },
{ "type": "Feature", "properties": { "ESTÁDIO": "ARENA MRV", "CIDADE": "BELO HORIZONTE", "ESTADO": "MINAS GERAIS", "PAÍS": "BRASIL", "CAPACIDADE": "44892", "TOTAL_JOGOS": 1, "VITÓRIAS": 1, "EMPATES": 0, "DERROTAS": 0, "APROVEITAMENTO_PCT": 100.0, "GOLS_MARCADOS": 1, "GOLS_SOFRIDOS": 0, "LATITUDE": -19.929905218586342, "LONGITUDE": -44.01384728925445 }, "geometry": { "type": "Point", "coordinates": [ -44.01384728925445, -19.929905218586342 ] } },
{ "type": "Feature", "properties": { "ESTÁDIO": "ARSENIO ERICO", "CIDADE": "ASSUNÇÃO", "ESTADO": "DEPARTAMENTO CENTRAL", "PAÍS": "PARAGUAI", "CAPACIDADE": "7500", "TOTAL_JOGOS": 7, "VITÓRIAS": 5, "EMPATES": 2, "DERROTAS": 0, "APROVEITAMENTO_PCT": 81.0, "GOLS_MARCADOS": 22, "GOLS_SOFRIDOS": 2, "LATITUDE": -25.298264179462183, "LONGITUDE": -57.641082774528385 }, "geometry": { "type": "Point", "coordinates": [ -57.641082774528385, -25.298264179462183 ] } },
{ "type": "Feature", "properties": { "ESTÁDIO": "BARÃO DA SERRA NEGRA", "CIDADE": "PIRACICABA ", "ESTADO": "SÃO PAULO", "PAÍS": "BRASIL", "CAPACIDADE": "18000", "TOTAL_JOGOS": 1, "VITÓRIAS": 0, "EMPATES": 1, "DERROTAS": 0, "APROVEITAMENTO_PCT": 33.3, "GOLS_MARCADOS": 0, "GOLS_SOFRIDOS": 0, "LATITUDE": -22.729396701895876, "LONGITUDE": -47.636643578179694 }, "geometry": { "type": "Point", "coordinates": [ -47.636643578179694, -22.729396701895876 ] } },
{ "type": "Feature", "properties": { "ESTÁDIO": "BENEDITO TEIXEIRA (TEIXEIRÃO)", "CIDADE": "SÃO JOSÉ DO RIO PRETO ", "ESTADO": "SÃO PAULO", "PAÍS": "BRASIL", "CAPACIDADE": "32168", "TOTAL_JOGOS": 1, "VITÓRIAS": 1, "EMPATES": 0, "DERROTAS": 0, "APROVEITAMENTO_PCT": 100.0, "GOLS_MARCADOS": 3, "GOLS_SOFRIDOS": 0, "LATITUDE": -20.796638593251124, "LONGITUDE": -49.358320688049581 }, "geometry": { "type": "Point", "coordinates": [ -49.358320688049581, -20.796638593251124 ] } },
{ "type": "Feature", "properties": { "ESTÁDIO": "BENITO AGNELLO CASTELLANO (BENITÃO)", "CIDADE": "RIO CLARO", "ESTADO": "SÃO PAULO", "PAÍS": "BRASIL", "CAPACIDADE": "8136", "TOTAL_JOGOS": 1, "VITÓRIAS": 1, "EMPATES": 0, "DERROTAS": 0, "APROVEITAMENTO_PCT": 100.0, "GOLS_MARCADOS": 6, "GOLS_SOFRIDOS": 0, "LATITUDE": -22.417927844664639, "LONGITUDE": -47.556306642875498 }, "geometry": { "type": "Point", "coordinates": [ -47.556306642875498, -22.417927844664639 ] } },
{ "type": "Feature", "properties": { "ESTÁDIO": "BENTO DE ABREU SAMPAIO VIDAL (ABREUZÃO)", "CIDADE": "MARÍLIA", "ESTADO": "SÃO PAULO", "PAÍS": "BRASIL", "CAPACIDADE": "15010", "TOTAL_JOGOS": 1, "VITÓRIAS": 1, "EMPATES": 0, "DERROTAS": 0, "APROVEITAMENTO_PCT": 100.0, "GOLS_MARCADOS": 5, "GOLS_SOFRIDOS": 0, "LATITUDE": -22.219356144243438, "LONGITUDE": -49.940957970952724 }, "geometry": { "type": "Point", "coordinates": [ -49.940957970952724, -22.219356144243438 ] } },
{ "type": "Feature", "properties": { "ESTÁDIO": "BRINCO DE OURO DA PRINCESA", "CIDADE": "CAMPINAS", "ESTADO": "SÃO PAULO", "PAÍS": "BRASIL", "CAPACIDADE": "20580", "TOTAL_JOGOS": 1, "VITÓRIAS": 0, "EMPATES": 0, "DERROTAS": 1, "APROVEITAMENTO_PCT": 0.0, "GOLS_MARCADOS": 1, "GOLS_SOFRIDOS": 2, "LATITUDE": -22.91041180492228, "LONGITUDE": -47.042982920502688 }, "geometry": { "type": "Point", "coordinates": [ -47.042982920502688, -22.91041180492228 ] } },
{ "type": "Feature", "properties": { "ESTÁDIO": "BRUNO JOSÉ DANIEL (BRUNÃO)", "CIDADE": "SANTO ANDRÉ", "ESTADO": "SÃO PAULO", "PAÍS": "BRASIL", "CAPACIDADE": "11440", "TOTAL_JOGOS": 2, "VITÓRIAS": 2, "EMPATES": 0, "DERROTAS": 0, "APROVEITAMENTO_PCT": 100.0, "GOLS_MARCADOS": 9, "GOLS_SOFRIDOS": 1, "LATITUDE": -23.669570064310722, "LONGITUDE": -46.509300705133256 }, "geometry": { "type": "Point", "coordinates": [ -46.509300705133256, -23.669570064310722 ] } },
{ "type": "Feature", "properties": { "ESTÁDIO": "CAMPO DO CANTO DO RIO", "CIDADE": "SOROCABA ", "ESTADO": "SÃO PAULO", "PAÍS": "BRASIL", "CAPACIDADE": "DESCONHECIDA", "TOTAL_JOGOS": 1, "VITÓRIAS": 0, "EMPATES": 1, "DERROTAS": 0, "APROVEITAMENTO_PCT": 33.3, "GOLS_MARCADOS": 2, "GOLS_SOFRIDOS": 2, "LATITUDE": -23.515794188300706, "LONGITUDE": -47.438537463694061 }, "geometry": { "type": "Point", "coordinates": [ -47.438537463694061, -23.515794188300706 ] } },
{ "type": "Feature", "properties": { "ESTÁDIO": "CARLOS ALBERTO COSTA NEVES", "CIDADE": "CAÇADOR ", "ESTADO": "SANTA CATARINA", "PAÍS": "BRASIL", "CAPACIDADE": "6500", "TOTAL_JOGOS": 5, "VITÓRIAS": 2, "EMPATES": 2, "DERROTAS": 1, "APROVEITAMENTO_PCT": 53.3, "GOLS_MARCADOS": 4, "GOLS_SOFRIDOS": 3, "LATITUDE": -26.771027999853985, "LONGITUDE": -51.007584674327376 }, "geometry": { "type": "Point", "coordinates": [ -51.007584674327376, -26.771027999853985 ] } },
{ "type": "Feature", "properties": { "ESTÁDIO": "CARLOS FERRACINI", "CIDADE": "CAIEIRAS", "ESTADO": "SÃO PAULO", "PAÍS": "BRASIL", "CAPACIDADE": "6195", "TOTAL_JOGOS": 1, "VITÓRIAS": 1, "EMPATES": 0, "DERROTAS": 0, "APROVEITAMENTO_PCT": 100.0, "GOLS_MARCADOS": 2, "GOLS_SOFRIDOS": 0, "LATITUDE": -23.365223502581316, "LONGITUDE": -46.743111810684397 }, "geometry": { "type": "Point", "coordinates": [ -46.743111810684397, -23.365223502581316 ] } },
{ "type": "Feature", "properties": { "ESTÁDIO": "CASTOR CIFUENTES (PENIDÃO)", "CIDADE": "NOVA LIMA", "ESTADO": "MINAS GERAIS", "PAÍS": "BRASIL", "CAPACIDADE": "5160", "TOTAL_JOGOS": 2, "VITÓRIAS": 0, "EMPATES": 1, "DERROTAS": 1, "APROVEITAMENTO_PCT": 16.7, "GOLS_MARCADOS": 3, "GOLS_SOFRIDOS": 8, "LATITUDE": -19.988071977780734, "LONGITUDE": -43.843886378275307 }, "geometry": { "type": "Point", "coordinates": [ -43.843886378275307, -19.988071977780734 ] } },
{ "type": "Feature", "properties": { "ESTÁDIO": "CENTRO DE ALTO RENDIMIENTO DE FÚTBOL FEMININO - CARFEM", "CIDADE": "YPANÉ", "ESTADO": "DEPARTAMENTO CENTRAL", "PAÍS": "PARAGUAI", "CAPACIDADE": "1000", "TOTAL_JOGOS": 1, "VITÓRIAS": 1, "EMPATES": 0, "DERROTAS": 0, "APROVEITAMENTO_PCT": 100.0, "GOLS_MARCADOS": 2, "GOLS_SOFRIDOS": 0, "LATITUDE": -25.471019513167029, "LONGITUDE": -57.499561043699181 }, "geometry": { "type": "Point", "coordinates": [ -57.499561043699181, -25.471019513167029 ] } },
{ "type": "Feature", "properties": { "ESTÁDIO": "CENTRO DE ALTO RENDIMIENTO INDEPENDIENTE DEL VALLE", "CIDADE": "QUITO", "ESTADO": "PICHINCHA", "PAÍS": "EQUADOR", "CAPACIDADE": "DESCONHECIDA", "TOTAL_JOGOS": 1, "VITÓRIAS": 1, "EMPATES": 0, "DERROTAS": 0, "APROVEITAMENTO_PCT": 100.0, "GOLS_MARCADOS": 1, "GOLS_SOFRIDOS": 0, "LATITUDE": -0.34539043604867198, "LONGITUDE": -78.468047931941669 }, "geometry": { "type": "Point", "coordinates": [ -78.468047931941669, -0.345390436048672 ] } },
{ "type": "Feature", "properties": { "ESTÁDIO": "CENTRO DE EDUCAÇÃO FÍSICA ALMIRANTE ADALBERTO NUNES - CEFAN", "CIDADE": "RIO DE JANEIRO ", "ESTADO": "RIO DE JANEIRO", "PAÍS": "BRASIL", "CAPACIDADE": "1000", "TOTAL_JOGOS": 1, "VITÓRIAS": 0, "EMPATES": 1, "DERROTAS": 0, "APROVEITAMENTO_PCT": 33.3, "GOLS_MARCADOS": 1, "GOLS_SOFRIDOS": 1, "LATITUDE": -22.832520685914712, "LONGITUDE": -43.263541278176071 }, "geometry": { "type": "Point", "coordinates": [ -43.263541278176071, -22.832520685914712 ] } },
{ "type": "Feature", "properties": { "ESTÁDIO": "CENTRO DE FORMAÇÃO DE ATLETAS LAUDO NATEL (CT DE COTIA)", "CIDADE": "COTIA ", "ESTADO": "SÃO PAULO", "PAÍS": "BRASIL", "CAPACIDADE": "1500", "TOTAL_JOGOS": 6, "VITÓRIAS": 3, "EMPATES": 1, "DERROTAS": 2, "APROVEITAMENTO_PCT": 55.6, "GOLS_MARCADOS": 9, "GOLS_SOFRIDOS": 5, "LATITUDE": -23.621368389045369, "LONGITUDE": -46.913702630845982 }, "geometry": { "type": "Point", "coordinates": [ -46.913702630845982, -23.621368389045369 ] } },
{ "type": "Feature", "properties": { "ESTÁDIO": "CENTRO DE INTEGRAÇÃO COMUNITÁRIO WALTER RIBEIRO", "CIDADE": "SOROCABA ", "ESTADO": "SÃO PAULO", "PAÍS": "BRASIL", "CAPACIDADE": "13772", "TOTAL_JOGOS": 2, "VITÓRIAS": 2, "EMPATES": 0, "DERROTAS": 0, "APROVEITAMENTO_PCT": 100.0, "GOLS_MARCADOS": 10, "GOLS_SOFRIDOS": 1, "LATITUDE": -23.490105968118197, "LONGITUDE": -47.448043771733438 }, "geometry": { "type": "Point", "coordinates": [ -47.448043771733438, -23.490105968118197 ] } },
{ "type": "Feature", "properties": { "ESTÁDIO": "CENTRO DE TREINAMENTO DA PORTUGUESA", "CIDADE": "SÃO PAULO ", "ESTADO": "SÃO PAULO", "PAÍS": "BRASIL", "CAPACIDADE": "1000", "TOTAL_JOGOS": 1, "VITÓRIAS": 1, "EMPATES": 0, "DERROTAS": 0, "APROVEITAMENTO_PCT": 100.0, "GOLS_MARCADOS": 3, "GOLS_SOFRIDOS": 1, "LATITUDE": -23.493357315760246, "LONGITUDE": -46.514445979997753 }, "geometry": { "type": "Point", "coordinates": [ -46.514445979997753, -23.493357315760246 ] } },
{ "type": "Feature", "properties": { "ESTÁDIO": "CENTRO DE TREINAMENTO DARTANHÃ", "CIDADE": "GUARAREMA", "ESTADO": "SÃO PAULO", "PAÍS": "BRASIL", "CAPACIDADE": "DESCONHECIDA", "TOTAL_JOGOS": 2, "VITÓRIAS": 1, "EMPATES": 1, "DERROTAS": 0, "APROVEITAMENTO_PCT": 66.7, "GOLS_MARCADOS": 3, "GOLS_SOFRIDOS": 2, "LATITUDE": -23.414227998270004, "LONGITUDE": -46.022475633978289 }, "geometry": { "type": "Point", "coordinates": [ -46.022475633978289, -23.414227998270004 ] } },
{ "type": "Feature", "properties": { "ESTÁDIO": "CENTRO DE TREINAMENTO DAS CATEGORIAS DE BASE DO CORINTHIANS", "CIDADE": "SÃO PAULO ", "ESTADO": "SÃO PAULO", "PAÍS": "BRASIL", "CAPACIDADE": "CONFERIR", "TOTAL_JOGOS": 2, "VITÓRIAS": 2, "EMPATES": 0, "DERROTAS": 0, "APROVEITAMENTO_PCT": 100.0, "GOLS_MARCADOS": 2, "GOLS_SOFRIDOS": 0, "LATITUDE": -23.493701238558412, "LONGITUDE": -46.511488142992633 }, "geometry": { "type": "Point", "coordinates": [ -46.511488142992633, -23.493701238558412 ] } },
{ "type": "Feature", "properties": { "ESTÁDIO": "CENTRO DE TREINAMENTO DOUTOR JOAQUIM GRAVA", "CIDADE": "SÃO PAULO ", "ESTADO": "SÃO PAULO", "PAÍS": "BRASIL", "CAPACIDADE": "0.0", "TOTAL_JOGOS": 17, "VITÓRIAS": 8, "EMPATES": 3, "DERROTAS": 5, "APROVEITAMENTO_PCT": 52.9, "GOLS_MARCADOS": 36, "GOLS_SOFRIDOS": 21, "LATITUDE": -23.489299036314396, "LONGITUDE": -46.507488109617533 }, "geometry": { "type": "Point", "coordinates": [ -46.507488109617533, -23.489299036314396 ] } },
{ "type": "Feature", "properties": { "ESTÁDIO": "CENTRO DE TREINAMENTO REI PELÉ", "CIDADE": "SANTOS ", "ESTADO": "SÃO PAULO", "PAÍS": "BRASIL", "CAPACIDADE": "0.0", "TOTAL_JOGOS": 2, "VITÓRIAS": 0, "EMPATES": 2, "DERROTAS": 0, "APROVEITAMENTO_PCT": 33.3, "GOLS_MARCADOS": 3, "GOLS_SOFRIDOS": 3, "LATITUDE": -23.94239697853142, "LONGITUDE": -46.33861992415676 }, "geometry": { "type": "Point", "coordinates": [ -46.33861992415676, -23.94239697853142 ] } },
{ "type": "Feature", "properties": { "ESTÁDIO": "CENTRO ESPORTIVO DOUTOR ROMÃO DE SOUZA", "CIDADE": "JUNDIAÍ ", "ESTADO": "SÃO PAULO", "PAÍS": "BRASIL", "CAPACIDADE": "100", "TOTAL_JOGOS": 1, "VITÓRIAS": 1, "EMPATES": 0, "DERROTAS": 0, "APROVEITAMENTO_PCT": 100.0, "GOLS_MARCADOS": 7, "GOLS_SOFRIDOS": 2, "LATITUDE": -23.183980030526858, "LONGITUDE": -46.855166245775131 }, "geometry": { "type": "Point", "coordinates": [ -46.855166245775131, -23.183980030526858 ] } },
{ "type": "Feature", "properties": { "ESTÁDIO": "CENTRO ESPORTIVO E RECREATIVO JOSÉ HUMBERTO DIAS (CAMPO CANUDOS)", "CIDADE": "VINHEDO ", "ESTADO": "SÃO PAULO", "PAÍS": "BRASIL", "CAPACIDADE": "DESCONHECIDO", "TOTAL_JOGOS": 1, "VITÓRIAS": 0, "EMPATES": 1, "DERROTAS": 0, "APROVEITAMENTO_PCT": 33.3, "GOLS_MARCADOS": 0, "GOLS_SOFRIDOS": 0, "LATITUDE": -23.024735987454054, "LONGITUDE": -46.977863273579977 }, "geometry": { "type": "Point", "coordinates": [ -46.977863273579977, -23.024735987454054 ] } },
{ "type": "Feature", "properties": { "ESTÁDIO": "CENTRO ESPORTIVO RYUSO OGAWA (VILA GUARANI)", "CIDADE": "SÃO PAULO ", "ESTADO": "SÃO PAULO", "PAÍS": "BRASIL", "CAPACIDADE": "1500", "TOTAL_JOGOS": 1, "VITÓRIAS": 1, "EMPATES": 0, "DERROTAS": 0, "APROVEITAMENTO_PCT": 100.0, "GOLS_MARCADOS": 4, "GOLS_SOFRIDOS": 0, "LATITUDE": -23.641092318256526, "LONGITUDE": -46.639059344885268 }, "geometry": { "type": "Point", "coordinates": [ -46.639059344885268, -23.641092318256526 ] } },
{ "type": "Feature", "properties": { "ESTÁDIO": "CIRO MACHADO DO ESPÍRITO SANTO (DEFELÊ)", "CIDADE": "BRASÍLIA", "ESTADO": "DISTRITO FEDERAL", "PAÍS": "BRASIL", "CAPACIDADE": "6875", "TOTAL_JOGOS": 1, "VITÓRIAS": 0, "EMPATES": 1, "DERROTAS": 0, "APROVEITAMENTO_PCT": 33.3, "GOLS_MARCADOS": 0, "GOLS_SOFRIDOS": 0, "LATITUDE": -15.790862358451054, "LONGITUDE": -47.85364308666135 }, "geometry": { "type": "Point", "coordinates": [ -47.85364308666135, -15.790862358451054 ] } },
{ "type": "Feature", "properties": { "ESTÁDIO": "CLUB ATLÉTICO ACADEMIA DEPORTIVA", "CIDADE": "ROSÁRIO", "ESTADO": "SANTA FE", "PAÍS": "ARGENTINA", "CAPACIDADE": "DESCONHECIDA", "TOTAL_JOGOS": 4, "VITÓRIAS": 4, "EMPATES": 0, "DERROTAS": 0, "APROVEITAMENTO_PCT": 100.0, "GOLS_MARCADOS": 35, "GOLS_SOFRIDOS": 0, "LATITUDE": -32.850463678761685, "LONGITUDE": -60.714608783296171 }, "geometry": { "type": "Point", "coordinates": [ -60.714608783296171, -32.850463678761685 ] } },
{ "type": "Feature", "properties": { "ESTÁDIO": "CLUBE DA COMUNIDADE MARIA FELIZARDA", "CIDADE": "SÃO PAULO ", "ESTADO": "SÃO PAULO", "PAÍS": "BRASIL", "CAPACIDADE": "0.0", "TOTAL_JOGOS": 1, "VITÓRIAS": 1, "EMPATES": 0, "DERROTAS": 0, "APROVEITAMENTO_PCT": 100.0, "GOLS_MARCADOS": 6, "GOLS_SOFRIDOS": 2, "LATITUDE": -23.671594321186312, "LONGITUDE": -46.69436927173345 }, "geometry": { "type": "Point", "coordinates": [ -46.69436927173345, -23.671594321186312 ] } },
{ "type": "Feature", "properties": { "ESTÁDIO": "CLUBE ESPORTIVO RECREATIVO ARTHUR GARBELOTTO (FUNDAÇÃO)", "CIDADE": "SÃO CAETANO DO SUL", "ESTADO": "SÃO PAULO", "PAÍS": "BRASIL", "CAPACIDADE": "1000", "TOTAL_JOGOS": 2, "VITÓRIAS": 2, "EMPATES": 0, "DERROTAS": 0, "APROVEITAMENTO_PCT": 100.0, "GOLS_MARCADOS": 13, "GOLS_SOFRIDOS": 0, "LATITUDE": -23.604037641997845, "LONGITUDE": -46.570968886102008 }, "geometry": { "type": "Point", "coordinates": [ -46.570968886102008, -23.604037641997845 ] } },
{ "type": "Feature", "properties": { "ESTÁDIO": "COMENDADOR AGOSTINHO PRADA (PRADÃO)", "CIDADE": "LIMEIRA ", "ESTADO": "SÃO PAULO", "PAÍS": "BRASIL", "CAPACIDADE": "9483", "TOTAL_JOGOS": 1, "VITÓRIAS": 1, "EMPATES": 0, "DERROTAS": 0, "APROVEITAMENTO_PCT": 100.0, "GOLS_MARCADOS": 13, "GOLS_SOFRIDOS": 0, "LATITUDE": -22.574173643057147, "LONGITUDE": -47.41149330943577 }, "geometry": { "type": "Point", "coordinates": [ -47.41149330943577, -22.574173643057147 ] } },
{ "type": "Feature", "properties": { "ESTÁDIO": "COMENDADOR ROBERTO UGOLINI", "CIDADE": "SÃO PAULO ", "ESTADO": "SÃO PAULO", "PAÍS": "BRASIL", "CAPACIDADE": "≅ 500", "TOTAL_JOGOS": 2, "VITÓRIAS": 2, "EMPATES": 0, "DERROTAS": 0, "APROVEITAMENTO_PCT": 100.0, "GOLS_MARCADOS": 4, "GOLS_SOFRIDOS": 0, "LATITUDE": -23.572754480935235, "LONGITUDE": -46.585758962708056 }, "geometry": { "type": "Point", "coordinates": [ -46.585758962708056, -23.572754480935235 ] } },
{ "type": "Feature", "properties": { "ESTÁDIO": "COMPLEXO ESPORTIVO CULTURAL OCTÁVIO MANGABEIRA (CASA DE APOSTAS ARENA FONTE NOVA)", "CIDADE": "SALVADOR", "ESTADO": "BAHIA", "PAÍS": "BRASIL", "CAPACIDADE": "48661", "TOTAL_JOGOS": 2, "VITÓRIAS": 1, "EMPATES": 1, "DERROTAS": 0, "APROVEITAMENTO_PCT": 66.7, "GOLS_MARCADOS": 2, "GOLS_SOFRIDOS": 1, "LATITUDE": -12.978698305026947, "LONGITUDE": -38.504148592328669 }, "geometry": { "type": "Point", "coordinates": [ -38.504148592328669, -12.978698305026947 ] } },
{ "type": "Feature", "properties": { "ESTÁDIO": "COMPLEXO ESPORTIVO VILA PORTO", "CIDADE": "BARUERI ", "ESTADO": "SÃO PAULO", "PAÍS": "BRASIL", "CAPACIDADE": "0.0", "TOTAL_JOGOS": 1, "VITÓRIAS": 1, "EMPATES": 0, "DERROTAS": 0, "APROVEITAMENTO_PCT": 100.0, "GOLS_MARCADOS": 3, "GOLS_SOFRIDOS": 0, "LATITUDE": -23.49828194687862, "LONGITUDE": -46.871853305087527 }, "geometry": { "type": "Point", "coordinates": [ -46.871853305087527, -23.49828194687862 ] } },
{ "type": "Feature", "properties": { "ESTÁDIO": "CONDE RODOLFO CRESPI (RUA JAVARI)", "CIDADE": "SÃO PAULO ", "ESTADO": "SÃO PAULO", "PAÍS": "BRASIL", "CAPACIDADE": "3800", "TOTAL_JOGOS": 7, "VITÓRIAS": 6, "EMPATES": 1, "DERROTAS": 0, "APROVEITAMENTO_PCT": 90.5, "GOLS_MARCADOS": 26, "GOLS_SOFRIDOS": 4, "LATITUDE": -23.552485627232432, "LONGITUDE": -46.601420574225386 }, "geometry": { "type": "Point", "coordinates": [ -46.601420574225386, -23.552485627232432 ] } },
{ "type": "Feature", "properties": { "ESTÁDIO": "CPKC STADIUM", "CIDADE": "KANSAS CITY", "ESTADO": "MISSOURI", "PAÍS": "EUA", "CAPACIDADE": "11500", "TOTAL_JOGOS": 4, "VITÓRIAS": 2, "EMPATES": 0, "DERROTAS": 2, "APROVEITAMENTO_PCT": 50.0, "GOLS_MARCADOS": 11, "GOLS_SOFRIDOS": 4, "LATITUDE": 39.119704451761542, "LONGITUDE": -94.565949175864532 }, "geometry": { "type": "Point", "coordinates": [ -94.565949175864532, 39.119704451761542 ] } },
{ "type": "Feature", "properties": { "ESTÁDIO": "CÍCERO DE SOUZA MARQUES", "CIDADE": "BRAGANÇA PAULISTA", "ESTADO": "SÃO PAULO", "PAÍS": "BRASIL", "CAPACIDADE": "12000", "TOTAL_JOGOS": 1, "VITÓRIAS": 1, "EMPATES": 0, "DERROTAS": 0, "APROVEITAMENTO_PCT": 100.0, "GOLS_MARCADOS": 3, "GOLS_SOFRIDOS": 2, "LATITUDE": -22.950756311294995, "LONGITUDE": -46.530956611408946 }, "geometry": { "type": "Point", "coordinates": [ -46.530956611408946, -22.950756311294995 ] } },
{ "type": "Feature", "properties": { "ESTÁDIO": "CÍCERO POMPEU DE TOLEDO - MORUMBIS", "CIDADE": "SÃO PAULO ", "ESTADO": "SÃO PAULO", "PAÍS": "BRASIL", "CAPACIDADE": "66795", "TOTAL_JOGOS": 5, "VITÓRIAS": 2, "EMPATES": 2, "DERROTAS": 1, "APROVEITAMENTO_PCT": 53.3, "GOLS_MARCADOS": 4, "GOLS_SOFRIDOS": 2, "LATITUDE": -23.600668615234898, "LONGITUDE": -46.719567331250424 }, "geometry": { "type": "Point", "coordinates": [ -46.719567331250424, -23.600668615234898 ] } },
{ "type": "Feature", "properties": { "ESTÁDIO": "DARCY POZZA (MONTANHA DOS VINHEDOS)", "CIDADE": "BENTO GONÇALVES", "ESTADO": "RIO GRANDE DO SUL", "PAÍS": "BRASIL", "CAPACIDADE": "12859", "TOTAL_JOGOS": 1, "VITÓRIAS": 1, "EMPATES": 0, "DERROTAS": 0, "APROVEITAMENTO_PCT": 100.0, "GOLS_MARCADOS": 1, "GOLS_SOFRIDOS": 0, "LATITUDE": -29.153624171426525, "LONGITUDE": -51.536297374211969 }, "geometry": { "type": "Point", "coordinates": [ -51.536297374211969, -29.153624171426525 ] } },
{ "type": "Feature", "properties": { "ESTÁDIO": "DEFENSORES DEL CHACO", "CIDADE": "ASSUNÇÃO", "ESTADO": "DEPARTAMENTO CENTRAL", "PAÍS": "PARAGUAI", "CAPACIDADE": "42345", "TOTAL_JOGOS": 1, "VITÓRIAS": 1, "EMPATES": 0, "DERROTAS": 0, "APROVEITAMENTO_PCT": 100.0, "GOLS_MARCADOS": 2, "GOLS_SOFRIDOS": 0, "LATITUDE": -25.291906369779717, "LONGITUDE": -57.656815576234642 }, "geometry": { "type": "Point", "coordinates": [ -57.656815576234642, -25.291906369779717 ] } },
{ "type": "Feature", "properties": { "ESTÁDIO": "DJALMA BAÍA (MONSTRINHO)", "CIDADE": "OURINHOS", "ESTADO": "SÃO PAULO", "PAÍS": "BRASIL", "CAPACIDADE": "1800", "TOTAL_JOGOS": 1, "VITÓRIAS": 0, "EMPATES": 0, "DERROTAS": 1, "APROVEITAMENTO_PCT": 0.0, "GOLS_MARCADOS": 1, "GOLS_SOFRIDOS": 2, "LATITUDE": -22.988937080606494, "LONGITUDE": -49.863966096432378 }, "geometry": { "type": "Point", "coordinates": [ -49.863966096432378, -22.988937080606494 ] } },
{ "type": "Feature", "properties": { "ESTÁDIO": "DOUTOR ACRÍSIO PAES CRUZ", "CIDADE": "BOTUCATU ", "ESTADO": "SÃO PAULO", "PAÍS": "BRASIL", "CAPACIDADE": "5000", "TOTAL_JOGOS": 5, "VITÓRIAS": 1, "EMPATES": 2, "DERROTAS": 2, "APROVEITAMENTO_PCT": 33.3, "GOLS_MARCADOS": 7, "GOLS_SOFRIDOS": 9, "LATITUDE": -22.876422785498754, "LONGITUDE": -48.447502081867377 }, "geometry": { "type": "Point", "coordinates": [ -48.447502081867377, -22.876422785498754 ] } },
{ "type": "Feature", "properties": { "ESTÁDIO": "DOUTOR ADERBAL RAMOS DA SILVA (RESSACADA)", "CIDADE": "FLORIANÓPOLIS ", "ESTADO": "SANTA CATARINA", "PAÍS": "BRASIL", "CAPACIDADE": "17826", "TOTAL_JOGOS": 2, "VITÓRIAS": 1, "EMPATES": 1, "DERROTAS": 0, "APROVEITAMENTO_PCT": 66.7, "GOLS_MARCADOS": 4, "GOLS_SOFRIDOS": 1, "LATITUDE": -27.666282090468339, "LONGITUDE": -48.531319206108236 }, "geometry": { "type": "Point", "coordinates": [ -48.531319206108236, -27.666282090468339 ] } },
{ "type": "Feature", "properties": { "ESTÁDIO": "DOUTOR ANTÔNIO PINHEIRO JÚNIOR", "CIDADE": "PINDAMONHANGABA", "ESTADO": "SÃO PAULO", "PAÍS": "BRASIL", "CAPACIDADE": "3000", "TOTAL_JOGOS": 1, "VITÓRIAS": 1, "EMPATES": 0, "DERROTAS": 0, "APROVEITAMENTO_PCT": 100.0, "GOLS_MARCADOS": 5, "GOLS_SOFRIDOS": 1, "LATITUDE": -22.92173666600527, "LONGITUDE": -45.465904504141214 }, "geometry": { "type": "Point", "coordinates": [ -45.465904504141214, -22.92173666600527 ] } },
{ "type": "Feature", "properties": { "ESTÁDIO": "DOUTOR JAYME PINHEIRO DE ULHÔA CINTRA (JAYME CINTRA)", "CIDADE": "JUNDIAÍ", "ESTADO": "SÃO PAULO", "PAÍS": "BRASIL", "CAPACIDADE": "13905", "TOTAL_JOGOS": 4, "VITÓRIAS": 3, "EMPATES": 1, "DERROTAS": 0, "APROVEITAMENTO_PCT": 83.3, "GOLS_MARCADOS": 6, "GOLS_SOFRIDOS": 2, "LATITUDE": -23.187952588395312, "LONGITUDE": -46.859666700568667 }, "geometry": { "type": "Point", "coordinates": [ -46.859666700568667, -23.187952588395312 ] } },
{ "type": "Feature", "properties": { "ESTÁDIO": "DOUTOR JOSÉ LANCHA FILHO (LANCHÃO)", "CIDADE": "FRANCA ", "ESTADO": "SÃO PAULO", "PAÍS": "BRASIL", "CAPACIDADE": "14686", "TOTAL_JOGOS": 2, "VITÓRIAS": 2, "EMPATES": 0, "DERROTAS": 0, "APROVEITAMENTO_PCT": 100.0, "GOLS_MARCADOS": 5, "GOLS_SOFRIDOS": 0, "LATITUDE": -20.535239959127608, "LONGITUDE": -47.385821748284535 }, "geometry": { "type": "Point", "coordinates": [ -47.385821748284535, -20.535239959127608 ] } },
{ "type": "Feature", "properties": { "ESTÁDIO": "EMIRATES STADIUM (ARSENAL STADIUM)", "CIDADE": "LONDRES", "ESTADO": "HOLLOWAY", "PAÍS": "INGLATERRA", "CAPACIDADE": "60704", "TOTAL_JOGOS": 1, "VITÓRIAS": 0, "EMPATES": 0, "DERROTAS": 1, "APROVEITAMENTO_PCT": 0.0, "GOLS_MARCADOS": 2, "GOLS_SOFRIDOS": 3, "LATITUDE": 51.555162121144335, "LONGITUDE": -0.10804575171505924 }, "geometry": { "type": "Point", "coordinates": [ -0.108045751715059, 51.555162121144335 ] } },
{ "type": "Feature", "properties": { "ESTÁDIO": "ESTADIO BANCO GUAYAQUIL (ESTADIO IDV)", "CIDADE": "QUITO", "ESTADO": "PICHINCHA", "PAÍS": "EQUADOR", "CAPACIDADE": "12000", "TOTAL_JOGOS": 1, "VITÓRIAS": 0, "EMPATES": 1, "DERROTAS": 0, "APROVEITAMENTO_PCT": 33.3, "GOLS_MARCADOS": 0, "GOLS_SOFRIDOS": 0, "LATITUDE": -0.34917987956985463, "LONGITUDE": -78.470307401566345 }, "geometry": { "type": "Point", "coordinates": [ -78.470307401566345, -0.349179879569855 ] } },
{ "type": "Feature", "properties": { "ESTÁDIO": "EUCLIDES DE ALMEIDA", "CIDADE": "COTIA ", "ESTADO": "SÃO PAULO", "PAÍS": "BRASIL", "CAPACIDADE": "10000", "TOTAL_JOGOS": 1, "VITÓRIAS": 1, "EMPATES": 0, "DERROTAS": 0, "APROVEITAMENTO_PCT": 100.0, "GOLS_MARCADOS": 5, "GOLS_SOFRIDOS": 0, "LATITUDE": -23.600933849995343, "LONGITUDE": -46.928684344745591 }, "geometry": { "type": "Point", "coordinates": [ -46.928684344745591, -23.600933849995343 ] } },
{ "type": "Feature", "properties": { "ESTÁDIO": "EUGÊNIO FRANCISCHINI", "CIDADE": "VALINHOS ", "ESTADO": "SÃO PAULO", "PAÍS": "BRASIL", "CAPACIDADE": "2000", "TOTAL_JOGOS": 1, "VITÓRIAS": 1, "EMPATES": 0, "DERROTAS": 0, "APROVEITAMENTO_PCT": 100.0, "GOLS_MARCADOS": 3, "GOLS_SOFRIDOS": 2, "LATITUDE": -22.980539696937189, "LONGITUDE": -46.986273088589655 }, "geometry": { "type": "Point", "coordinates": [ -46.986273088589655, -22.980539696937189 ] } },
{ "type": "Feature", "properties": { "ESTÁDIO": "EWERSON SIMÕES BARBOSA", "CIDADE": "CHÃ GRANDE ", "ESTADO": "PERNAMBUCO", "PAÍS": "BRASIL", "CAPACIDADE": "3400", "TOTAL_JOGOS": 1, "VITÓRIAS": 1, "EMPATES": 0, "DERROTAS": 0, "APROVEITAMENTO_PCT": 100.0, "GOLS_MARCADOS": 3, "GOLS_SOFRIDOS": 0, "LATITUDE": -8.2353157359546252, "LONGITUDE": -35.45464054289824 }, "geometry": { "type": "Point", "coordinates": [ -35.45464054289824, -8.235315735954625 ] } },
{ "type": "Feature", "properties": { "ESTÁDIO": "FLORENCIO SOLA", "CIDADE": "LOMAS DE ZAMORA", "ESTADO": "BUENOS AIRES", "PAÍS": "ARGENTINA", "CAPACIDADE": "35000", "TOTAL_JOGOS": 4, "VITÓRIAS": 1, "EMPATES": 3, "DERROTAS": 0, "APROVEITAMENTO_PCT": 50.0, "GOLS_MARCADOS": 3, "GOLS_SOFRIDOS": 2, "LATITUDE": -34.750531335056031, "LONGITUDE": -58.387661248437816 }, "geometry": { "type": "Point", "coordinates": [ -58.387661248437816, -34.750531335056031 ] } },
{ "type": "Feature", "properties": { "ESTÁDIO": "FRANCISCO NOVELLETTO NETO (PASSO D'AREIA)", "CIDADE": "PORTO ALEGRE", "ESTADO": "RIO GRANDE DO SUL", "PAÍS": "BRASIL", "CAPACIDADE": "10600", "TOTAL_JOGOS": 2, "VITÓRIAS": 2, "EMPATES": 0, "DERROTAS": 0, "APROVEITAMENTO_PCT": 100.0, "GOLS_MARCADOS": 7, "GOLS_SOFRIDOS": 0, "LATITUDE": -30.006290184356924, "LONGITUDE": -51.173179690767363 }, "geometry": { "type": "Point", "coordinates": [ -51.173179690767363, -30.006290184356924 ] } },
{ "type": "Feature", "properties": { "ESTÁDIO": "FRANCISCO RIBEIRO NOGUEIRA (NOGUEIRÃO)", "CIDADE": "MOGI DAS CRUZES ", "ESTADO": "SÃO PAULO", "PAÍS": "BRASIL", "CAPACIDADE": "14384", "TOTAL_JOGOS": 5, "VITÓRIAS": 3, "EMPATES": 0, "DERROTAS": 2, "APROVEITAMENTO_PCT": 60.0, "GOLS_MARCADOS": 19, "GOLS_SOFRIDOS": 6, "LATITUDE": -23.517361700125463, "LONGITUDE": -46.205638531250408 }, "geometry": { "type": "Point", "coordinates": [ -46.205638531250408, -23.517361700125463 ] } },
{ "type": "Feature", "properties": { "ESTÁDIO": "FRANCISCO VASQUES", "CIDADE": "BELÉM ", "ESTADO": "PARÁ", "PAÍS": "BRASIL", "CAPACIDADE": "6000", "TOTAL_JOGOS": 1, "VITÓRIAS": 1, "EMPATES": 0, "DERROTAS": 0, "APROVEITAMENTO_PCT": 100.0, "GOLS_MARCADOS": 2, "GOLS_SOFRIDOS": 0, "LATITUDE": -1.4183755686041342, "LONGITUDE": -48.444865285227806 }, "geometry": { "type": "Point", "coordinates": [ -48.444865285227806, -1.418375568604134 ] } },
{ "type": "Feature", "properties": { "ESTÁDIO": "GENERAL ADRIÁN JARA (CONMEBOL)", "CIDADE": "LUQUE", "ESTADO": "DEPARTAMENTO CENTRAL", "PAÍS": "PARAGUAI", "CAPACIDADE": "4000", "TOTAL_JOGOS": 1, "VITÓRIAS": 1, "EMPATES": 0, "DERROTAS": 0, "APROVEITAMENTO_PCT": 100.0, "GOLS_MARCADOS": 1, "GOLS_SOFRIDOS": 0, "LATITUDE": -25.263001464955789, "LONGITUDE": -57.518140014063022 }, "geometry": { "type": "Point", "coordinates": [ -57.518140014063022, -25.263001464955789 ] } },
{ "type": "Feature", "properties": { "ESTÁDIO": "GENTIL VALÉRIO (VALERIÃO)", "CIDADE": "ARIQUEMES", "ESTADO": "RONDÔNIA", "PAÍS": "BRASIL", "CAPACIDADE": "5000", "TOTAL_JOGOS": 1, "VITÓRIAS": 1, "EMPATES": 0, "DERROTAS": 0, "APROVEITAMENTO_PCT": 100.0, "GOLS_MARCADOS": 6, "GOLS_SOFRIDOS": 0, "LATITUDE": -9.9051824307238707, "LONGITUDE": -63.032681390767372 }, "geometry": { "type": "Point", "coordinates": [ -63.032681390767372, -9.905182430723871 ] } },
{ "type": "Feature", "properties": { "ESTÁDIO": "GIULITE COUTINHO (ARENA DO AMERICA / VERMELHÃO)", "CIDADE": "RIO DE JANEIRO ", "ESTADO": "RIO DE JANEIRO", "PAÍS": "BRASIL", "CAPACIDADE": "12150", "TOTAL_JOGOS": 1, "VITÓRIAS": 1, "EMPATES": 0, "DERROTAS": 0, "APROVEITAMENTO_PCT": 100.0, "GOLS_MARCADOS": 3, "GOLS_SOFRIDOS": 1, "LATITUDE": -22.795256355772853, "LONGITUDE": -43.419062196875615 }, "geometry": { "type": "Point", "coordinates": [ -43.419062196875615, -22.795256355772853 ] } },
{ "type": "Feature", "properties": { "ESTÁDIO": "GONZALO POZO RIPALDA (CHILLOGALLO)", "CIDADE": "QUITO", "ESTADO": "PICHINCHA", "PAÍS": "EQUADOR", "CAPACIDADE": "18799", "TOTAL_JOGOS": 3, "VITÓRIAS": 2, "EMPATES": 0, "DERROTAS": 1, "APROVEITAMENTO_PCT": 66.7, "GOLS_MARCADOS": 10, "GOLS_SOFRIDOS": 2, "LATITUDE": -0.27863817534163016, "LONGITUDE": -78.545734075426495 }, "geometry": { "type": "Point", "coordinates": [ -78.545734075426495, -0.27863817534163 ] } },
{ "type": "Feature", "properties": { "ESTÁDIO": "GOVERNADOR ROBERTO SANTOS (PITUAÇU)", "CIDADE": "SALVADOR", "ESTADO": "BAHIA", "PAÍS": "BRASIL", "CAPACIDADE": "32157", "TOTAL_JOGOS": 1, "VITÓRIAS": 1, "EMPATES": 0, "DERROTAS": 0, "APROVEITAMENTO_PCT": 100.0, "GOLS_MARCADOS": 5, "GOLS_SOFRIDOS": 1, "LATITUDE": -12.945935124966327, "LONGITUDE": -38.417250187074316 }, "geometry": { "type": "Point", "coordinates": [ -38.417250187074316, -12.945935124966327 ] } },
{ "type": "Feature", "properties": { "ESTÁDIO": "GRAN PARQUE CENTRAL", "CIDADE": "MONTEVIDÉU", "ESTADO": "DEPARTAMENTO MONTEVIDÉU", "PAÍS": "URUGUAI", "CAPACIDADE": "37000", "TOTAL_JOGOS": 1, "VITÓRIAS": 1, "EMPATES": 0, "DERROTAS": 0, "APROVEITAMENTO_PCT": 100.0, "GOLS_MARCADOS": 2, "GOLS_SOFRIDOS": 0, "LATITUDE": -34.884261789014836, "LONGITUDE": -56.158249987074328 }, "geometry": { "type": "Point", "coordinates": [ -56.158249987074328, -34.884261789014836 ] } },
{ "type": "Feature", "properties": { "ESTÁDIO": "GTECH COMMUNITY STADIUM", "CIDADE": "LONDRES", "ESTADO": "BRENTFORD", "PAÍS": "INGLATERRA", "CAPACIDADE": "17250", "TOTAL_JOGOS": 1, "VITÓRIAS": 1, "EMPATES": 0, "DERROTAS": 0, "APROVEITAMENTO_PCT": 100.0, "GOLS_MARCADOS": 1, "GOLS_SOFRIDOS": 0, "LATITUDE": 51.490918003443369, "LONGITUDE": -0.28880181349239775 }, "geometry": { "type": "Point", "coordinates": [ -0.288801813492398, 51.490918003443369 ] } },
{ "type": "Feature", "properties": { "ESTÁDIO": "GÍGLIO PORTUGAL PICHININ (BAETÃO)", "CIDADE": "SÃO BERNARDO DO CAMPO ", "ESTADO": "SÃO PAULO", "PAÍS": "BRASIL", "CAPACIDADE": "6315", "TOTAL_JOGOS": 5, "VITÓRIAS": 3, "EMPATES": 1, "DERROTAS": 1, "APROVEITAMENTO_PCT": 66.7, "GOLS_MARCADOS": 12, "GOLS_SOFRIDOS": 4, "LATITUDE": -23.698838141812001, "LONGITUDE": -46.542356029403884 }, "geometry": { "type": "Point", "coordinates": [ -46.542356029403884, -23.698838141812001 ] } },
{ "type": "Feature", "properties": { "ESTÁDIO": "HERMÍNIO ESPOSITO", "CIDADE": "EMBU DAS ARTES ", "ESTADO": "SÃO PAULO", "PAÍS": "BRASIL", "CAPACIDADE": "5048", "TOTAL_JOGOS": 1, "VITÓRIAS": 1, "EMPATES": 0, "DERROTAS": 0, "APROVEITAMENTO_PCT": 100.0, "GOLS_MARCADOS": 5, "GOLS_SOFRIDOS": 2, "LATITUDE": -23.653190356138168, "LONGITUDE": -46.856368817756056 }, "geometry": { "type": "Point", "coordinates": [ -46.856368817756056, -23.653190356138168 ] } },
{ "type": "Feature", "properties": { "ESTÁDIO": "JOAQUIM DE MORAIS FILHO (JOAQUINZÃO)", "CIDADE": "TAUBATÉ ", "ESTADO": "SÃO PAULO", "PAÍS": "BRASIL", "CAPACIDADE": "9600", "TOTAL_JOGOS": 17, "VITÓRIAS": 14, "EMPATES": 2, "DERROTAS": 1, "APROVEITAMENTO_PCT": 86.3, "GOLS_MARCADOS": 58, "GOLS_SOFRIDOS": 10, "LATITUDE": -23.027800963309272, "LONGITUDE": -45.56983161590955 }, "geometry": { "type": "Point", "coordinates": [ -45.56983161590955, -23.027800963309272 ] } },
{ "type": "Feature", "properties": { "ESTÁDIO": "JOAQUIM HENRIQUE NOGUEIRA (ARENA DO JACARÉ)", "CIDADE": "SETE LAGOAS", "ESTADO": "MINAS GERAIS", "PAÍS": "BRASIL", "CAPACIDADE": "19998", "TOTAL_JOGOS": 2, "VITÓRIAS": 1, "EMPATES": 0, "DERROTAS": 1, "APROVEITAMENTO_PCT": 50.0, "GOLS_MARCADOS": 3, "GOLS_SOFRIDOS": 3, "LATITUDE": -19.478257002276273, "LONGITUDE": -44.223801910510474 }, "geometry": { "type": "Point", "coordinates": [ -44.223801910510474, -19.478257002276273 ] } },
{ "type": "Feature", "properties": { "ESTÁDIO": "JORNALISTA EDGAR PROENÇA (OLÍMPICO DO PARÁ / MANGHEIRÃO)", "CIDADE": "BELÉM ", "ESTADO": "PARÁ", "PAÍS": "BRASIL", "CAPACIDADE": "53645", "TOTAL_JOGOS": 1, "VITÓRIAS": 1, "EMPATES": 0, "DERROTAS": 0, "APROVEITAMENTO_PCT": 100.0, "GOLS_MARCADOS": 6, "GOLS_SOFRIDOS": 1, "LATITUDE": -1.3809789256329514, "LONGITUDE": -48.44300959133605 }, "geometry": { "type": "Point", "coordinates": [ -48.44300959133605, -1.380978925632951 ] } },
{ "type": "Feature", "properties": { "ESTÁDIO": "JOSÉ AMALFITANI iEL FORTÍN DE LINIERS)", "CIDADE": "BUENOS AIRES", "ESTADO": "BUENOS AIRES", "PAÍS": "ARGENTINA", "CAPACIDADE": "49540", "TOTAL_JOGOS": 2, "VITÓRIAS": 2, "EMPATES": 0, "DERROTAS": 0, "APROVEITAMENTO_PCT": 100.0, "GOLS_MARCADOS": 11, "GOLS_SOFRIDOS": 0, "LATITUDE": -34.635154380242916, "LONGITUDE": -58.519916623864319 }, "geometry": { "type": "Point", "coordinates": [ -58.519916623864319, -34.635154380242916 ] } },
{ "type": "Feature", "properties": { "ESTÁDIO": "JOSÉ BASTOS PADILHA (GÁVEA)", "CIDADE": "RIO DE JANEIRO ", "ESTADO": "RIO DE JANEIRO", "PAÍS": "BRASIL", "CAPACIDADE": "6000", "TOTAL_JOGOS": 4, "VITÓRIAS": 2, "EMPATES": 0, "DERROTAS": 2, "APROVEITAMENTO_PCT": 50.0, "GOLS_MARCADOS": 8, "GOLS_SOFRIDOS": 6, "LATITUDE": -22.978323663490634, "LONGITUDE": -43.221570067471745 }, "geometry": { "type": "Point", "coordinates": [ -43.221570067471745, -22.978323663490634 ] } },
{ "type": "Feature", "properties": { "ESTÁDIO": "JOSÉ BATISTA PEREIRA FERNANDES (DISTRITAL DO INAMAR)", "CIDADE": "DIADEMA", "ESTADO": "SÃO PAULO", "PAÍS": "BRASIL", "CAPACIDADE": "8075", "TOTAL_JOGOS": 1, "VITÓRIAS": 1, "EMPATES": 0, "DERROTAS": 0, "APROVEITAMENTO_PCT": 100.0, "GOLS_MARCADOS": 1, "GOLS_SOFRIDOS": 0, "LATITUDE": -23.722659911285689, "LONGITUDE": -46.612701553000392 }, "geometry": { "type": "Point", "coordinates": [ -46.612701553000392, -23.722659911285689 ] } },
{ "type": "Feature", "properties": { "ESTÁDIO": "JOSÉ MARIA DE CAMPOS MAIA (MAIÃO)", "CIDADE": "MIRASSOL ", "ESTADO": "SÃO PAULO", "PAÍS": "BRASIL", "CAPACIDADE": "15000", "TOTAL_JOGOS": 1, "VITÓRIAS": 0, "EMPATES": 0, "DERROTAS": 1, "APROVEITAMENTO_PCT": 0.0, "GOLS_MARCADOS": 0, "GOLS_SOFRIDOS": 2, "LATITUDE": -20.822221120536899, "LONGITUDE": -49.50558410852345 }, "geometry": { "type": "Point", "coordinates": [ -49.50558410852345, -20.822221120536899 ] } },
{ "type": "Feature", "properties": { "ESTÁDIO": "JOSÉ PINHEIRO BORDA (BEIRA-RIO)", "CIDADE": "PORTO ALEGRE", "ESTADO": "RIO GRANDE DO SUL", "PAÍS": "BRASIL", "CAPACIDADE": "50842", "TOTAL_JOGOS": 2, "VITÓRIAS": 1, "EMPATES": 1, "DERROTAS": 0, "APROVEITAMENTO_PCT": 66.7, "GOLS_MARCADOS": 5, "GOLS_SOFRIDOS": 3, "LATITUDE": -30.06537789528555, "LONGITUDE": -51.235430831250419 }, "geometry": { "type": "Point", "coordinates": [ -51.235430831250419, -30.06537789528555 ] } },
{ "type": "Feature", "properties": { "ESTÁDIO": "JOSÉ TORTORELLO", "CIDADE": "SÃO CAETANO DO SUL", "ESTADO": "SÃO PAULO", "PAÍS": "BRASIL", "CAPACIDADE": "DESCONHECIDO", "TOTAL_JOGOS": 1, "VITÓRIAS": 0, "EMPATES": 0, "DERROTAS": 1, "APROVEITAMENTO_PCT": 0.0, "GOLS_MARCADOS": 0, "GOLS_SOFRIDOS": 1, "LATITUDE": -23.643044118096331, "LONGITUDE": -46.569981432263461 }, "geometry": { "type": "Point", "coordinates": [ -46.569981432263461, -23.643044118096331 ] } },
{ "type": "Feature", "properties": { "ESTÁDIO": "JOÃO CORRÊA DA SILVEIRA (MONUMENTAL DO CRISTO REI)", "CIDADE": "SÃO LEOPOLDO", "ESTADO": "RIO GRANDE DO SUL", "PAÍS": "BRASIL", "CAPACIDADE": "10000", "TOTAL_JOGOS": 1, "VITÓRIAS": 0, "EMPATES": 0, "DERROTAS": 1, "APROVEITAMENTO_PCT": 0.0, "GOLS_MARCADOS": 0, "GOLS_SOFRIDOS": 2, "LATITUDE": -29.782214791486421, "LONGITUDE": -51.155012231250431 }, "geometry": { "type": "Point", "coordinates": [ -51.155012231250431, -29.782214791486421 ] } },
{ "type": "Feature", "properties": { "ESTÁDIO": "JOÃO LAMEGO NETTO (IPATINGÃO)", "CIDADE": "IPATINGA ", "ESTADO": "MINAS GERAIS", "PAÍS": "BRASIL", "CAPACIDADE": "22500", "TOTAL_JOGOS": 1, "VITÓRIAS": 1, "EMPATES": 0, "DERROTAS": 0, "APROVEITAMENTO_PCT": 100.0, "GOLS_MARCADOS": 5, "GOLS_SOFRIDOS": 1, "LATITUDE": -19.471272168163804, "LONGITUDE": -42.5411241582391 }, "geometry": { "type": "Point", "coordinates": [ -42.5411241582391, -19.471272168163804 ] } },
{ "type": "Feature", "properties": { "ESTÁDIO": "JOÃO MENDES ATHAYDE", "CIDADE": "SÃO JOSÉ DO RIO PRETO ", "ESTADO": "SÃO PAULO", "PAÍS": "BRASIL", "CAPACIDADE": "4000", "TOTAL_JOGOS": 3, "VITÓRIAS": 3, "EMPATES": 0, "DERROTAS": 0, "APROVEITAMENTO_PCT": 100.0, "GOLS_MARCADOS": 11, "GOLS_SOFRIDOS": 1, "LATITUDE": -20.814393599785742, "LONGITUDE": -49.419027756392587 }, "geometry": { "type": "Point", "coordinates": [ -49.419027756392587, -20.814393599785742 ] } },
{ "type": "Feature", "properties": { "ESTÁDIO": "JUNQUEIRA AYRES", "CIDADE": "SÃO FRANCISCO DO CONDE ", "ESTADO": "BAHIA", "PAÍS": "BRASIL", "CAPACIDADE": "3000", "TOTAL_JOGOS": 2, "VITÓRIAS": 1, "EMPATES": 1, "DERROTAS": 0, "APROVEITAMENTO_PCT": 66.7, "GOLS_MARCADOS": 4, "GOLS_SOFRIDOS": 0, "LATITUDE": -12.623608328259063, "LONGITUDE": -38.684901560085635 }, "geometry": { "type": "Point", "coordinates": [ -38.684901560085635, -12.623608328259063 ] } },
{ "type": "Feature", "properties": { "ESTÁDIO": "KLEBER ANDRADE", "CIDADE": "CARIACICA", "ESTADO": "ESPÍRITO SANTO", "PAÍS": "BRASIL", "CAPACIDADE": "21000", "TOTAL_JOGOS": 1, "VITÓRIAS": 1, "EMPATES": 0, "DERROTAS": 0, "APROVEITAMENTO_PCT": 100.0, "GOLS_MARCADOS": 2, "GOLS_SOFRIDOS": 1, "LATITUDE": -20.332542717054267, "LONGITUDE": -40.384585114063029 }, "geometry": { "type": "Point", "coordinates": [ -40.384585114063029, -20.332542717054267 ] } },
{ "type": "Feature", "properties": { "ESTÁDIO": "LA ARBOLEDA", "CIDADE": "ASSUNÇÃO", "ESTADO": "DEPARTAMENTO CENTRAL", "PAÍS": "PARAGUAI", "CAPACIDADE": "8000", "TOTAL_JOGOS": 3, "VITÓRIAS": 3, "EMPATES": 0, "DERROTAS": 0, "APROVEITAMENTO_PCT": 100.0, "GOLS_MARCADOS": 10, "GOLS_SOFRIDOS": 2, "LATITUDE": -25.257324985267747, "LONGITUDE": -57.574516698722142 }, "geometry": { "type": "Point", "coordinates": [ -57.574516698722142, -25.257324985267747 ] } },
{ "type": "Feature", "properties": { "ESTÁDIO": "LEONARDO BARBIERI", "CIDADE": "ÁGUAS DE LINDOIA ", "ESTADO": "SÃO PAULO", "PAÍS": "BRASIL", "CAPACIDADE": "7200", "TOTAL_JOGOS": 2, "VITÓRIAS": 1, "EMPATES": 0, "DERROTAS": 1, "APROVEITAMENTO_PCT": 50.0, "GOLS_MARCADOS": 2, "GOLS_SOFRIDOS": 2, "LATITUDE": -22.478608595106202, "LONGITUDE": -46.635961569886923 }, "geometry": { "type": "Point", "coordinates": [ -46.635961569886923, -22.478608595106202 ] } },
{ "type": "Feature", "properties": { "ESTÁDIO": "LOURIVAL BAPTISTA (ARENA BATISTÃO)", "CIDADE": "ARACAJU", "ESTADO": "SERGIPE", "PAÍS": "BRASIL", "CAPACIDADE": "15586", "TOTAL_JOGOS": 1, "VITÓRIAS": 1, "EMPATES": 0, "DERROTAS": 0, "APROVEITAMENTO_PCT": 100.0, "GOLS_MARCADOS": 2, "GOLS_SOFRIDOS": 1, "LATITUDE": -10.927212775239989, "LONGITUDE": -37.048405969886929 }, "geometry": { "type": "Point", "coordinates": [ -37.048405969886929, -10.927212775239989 ] } },
{ "type": "Feature", "properties": { "ESTÁDIO": "LUIS ALFONSO GIAGNI", "CIDADE": "VILLA ELISA", "ESTADO": "DEPARTAMENTO CENTRAL", "PAÍS": "PARAGUAI", "CAPACIDADE": "11000", "TOTAL_JOGOS": 1, "VITÓRIAS": 1, "EMPATES": 0, "DERROTAS": 0, "APROVEITAMENTO_PCT": 100.0, "GOLS_MARCADOS": 3, "GOLS_SOFRIDOS": 0, "LATITUDE": -25.367200222108679, "LONGITUDE": -57.584279302415212 }, "geometry": { "type": "Point", "coordinates": [ -57.584279302415212, -25.367200222108679 ] } },
{ "type": "Feature", "properties": { "ESTÁDIO": "LUSO-BRASILEIRO (ESTÁDIO DOS VENTOS UIVANTES)", "CIDADE": "RIO DE JANEIRO ", "ESTADO": "RIO DE JANEIRO", "PAÍS": "BRASIL", "CAPACIDADE": "5044", "TOTAL_JOGOS": 2, "VITÓRIAS": 2, "EMPATES": 0, "DERROTAS": 0, "APROVEITAMENTO_PCT": 100.0, "GOLS_MARCADOS": 4, "GOLS_SOFRIDOS": 2, "LATITUDE": -22.801433427456193, "LONGITUDE": -43.207472348437818 }, "geometry": { "type": "Point", "coordinates": [ -43.207472348437818, -22.801433427456193 ] } },
{ "type": "Feature", "properties": { "ESTÁDIO": "MANOEL FRANCISCO FERREIRA", "CIDADE": "BÁLSAMO ", "ESTADO": "SÃO PAULO", "PAÍS": "BRASIL", "CAPACIDADE": "1000", "TOTAL_JOGOS": 2, "VITÓRIAS": 2, "EMPATES": 0, "DERROTAS": 0, "APROVEITAMENTO_PCT": 100.0, "GOLS_MARCADOS": 8, "GOLS_SOFRIDOS": 2, "LATITUDE": -20.732369937748992, "LONGITUDE": -49.5820706754265 }, "geometry": { "type": "Point", "coordinates": [ -49.5820706754265, -20.732369937748992 ] } },
{ "type": "Feature", "properties": { "ESTÁDIO": "MARCOS EDUARDO CAMARGO TRUVILHO (SERRA DA COLINA)", "CIDADE": "IBIÚNA ", "ESTADO": "SÃO PAULO", "PAÍS": "BRASIL", "CAPACIDADE": "3720", "TOTAL_JOGOS": 2, "VITÓRIAS": 1, "EMPATES": 0, "DERROTAS": 1, "APROVEITAMENTO_PCT": 50.0, "GOLS_MARCADOS": 6, "GOLS_SOFRIDOS": 5, "LATITUDE": -23.650985481738065, "LONGITUDE": -47.192943931250412 }, "geometry": { "type": "Point", "coordinates": [ -47.192943931250412, -23.650985481738065 ] } },
{ "type": "Feature", "properties": { "ESTÁDIO": "MARIA DE LOURDES ABADIA (ABADIÃO)", "CIDADE": "CEILÂNDIA ", "ESTADO": "DISTRITO FEDERAL", "PAÍS": "BRASIL", "CAPACIDADE": "5000", "TOTAL_JOGOS": 2, "VITÓRIAS": 2, "EMPATES": 0, "DERROTAS": 0, "APROVEITAMENTO_PCT": 100.0, "GOLS_MARCADOS": 7, "GOLS_SOFRIDOS": 0, "LATITUDE": -15.827361329856274, "LONGITUDE": -48.109266271733446 }, "geometry": { "type": "Point", "coordinates": [ -48.109266271733446, -15.827361329856274 ] } },
{ "type": "Feature", "properties": { "ESTÁDIO": "MARTINS PEREIRA", "CIDADE": "SÃO JOSÉ DOS CAMPOS ", "ESTADO": "SÃO PAULO", "PAÍS": "BRASIL", "CAPACIDADE": "16500", "TOTAL_JOGOS": 17, "VITÓRIAS": 13, "EMPATES": 4, "DERROTAS": 0, "APROVEITAMENTO_PCT": 84.3, "GOLS_MARCADOS": 55, "GOLS_SOFRIDOS": 14, "LATITUDE": -23.1884912615151, "LONGITUDE": -45.869827477202776 }, "geometry": { "type": "Point", "coordinates": [ -45.869827477202776, -23.1884912615151 ] } },
{ "type": "Feature", "properties": { "ESTÁDIO": "METROPOLITANO DE TECHO", "CIDADE": "BOGOTÁ", "ESTADO": "DISTRITO CAPITAL", "PAÍS": "COLÔMBIA", "CAPACIDADE": "10000", "TOTAL_JOGOS": 2, "VITÓRIAS": 2, "EMPATES": 0, "DERROTAS": 0, "APROVEITAMENTO_PCT": 100.0, "GOLS_MARCADOS": 7, "GOLS_SOFRIDOS": 0, "LATITUDE": 4.6237169071617794, "LONGITUDE": -74.136347199431327 }, "geometry": { "type": "Point", "coordinates": [ -74.136347199431327, 4.623716907161779 ] } },
{ "type": "Feature", "properties": { "ESTÁDIO": "MOISÉS LUCARELLI (MAJESTOSO)", "CIDADE": "CAMPINAS ", "ESTADO": "SÃO PAULO", "PAÍS": "BRASIL", "CAPACIDADE": "15728", "TOTAL_JOGOS": 3, "VITÓRIAS": 3, "EMPATES": 0, "DERROTAS": 0, "APROVEITAMENTO_PCT": 100.0, "GOLS_MARCADOS": 9, "GOLS_SOFRIDOS": 0, "LATITUDE": -22.912600582555537, "LONGITUDE": -47.05115367918981 }, "geometry": { "type": "Point", "coordinates": [ -47.05115367918981, -22.912600582555537 ] } },
{ "type": "Feature", "properties": { "ESTÁDIO": "NABI ABI CHEDID (NABIZÃO / ARENA RED BULL)", "CIDADE": "BRAGANÇA PAULISTA", "ESTADO": "SÃO PAULO", "PAÍS": "BRASIL", "CAPACIDADE": "12332", "TOTAL_JOGOS": 3, "VITÓRIAS": 2, "EMPATES": 1, "DERROTAS": 0, "APROVEITAMENTO_PCT": 77.8, "GOLS_MARCADOS": 5, "GOLS_SOFRIDOS": 2, "LATITUDE": -22.965202469589247, "LONGITUDE": -46.536742839205189 }, "geometry": { "type": "Point", "coordinates": [ -46.536742839205189, -22.965202469589247 ] } },
{ "type": "Feature", "properties": { "ESTÁDIO": "NELO BRACALENTE (CAMPO DO AQUÁRIO)", "CIDADE": "VINHEDO ", "ESTADO": "SÃO PAULO", "PAÍS": "BRASIL", "CAPACIDADE": "4200", "TOTAL_JOGOS": 3, "VITÓRIAS": 3, "EMPATES": 0, "DERROTAS": 0, "APROVEITAMENTO_PCT": 100.0, "GOLS_MARCADOS": 7, "GOLS_SOFRIDOS": 1, "LATITUDE": -23.026066256410274, "LONGITUDE": -46.987202025851325 }, "geometry": { "type": "Point", "coordinates": [ -46.987202025851325, -23.026066256410274 ] } },
{ "type": "Feature", "properties": { "ESTÁDIO": "NEO QUÍMICA ARENA (ARENA CORINTHIANS)", "CIDADE": "SÃO PAULO ", "ESTADO": "SÃO PAULO", "PAÍS": "BRASIL", "CAPACIDADE": "48905", "TOTAL_JOGOS": 33, "VITÓRIAS": 29, "EMPATES": 4, "DERROTAS": 0, "APROVEITAMENTO_PCT": 91.9, "GOLS_MARCADOS": 81, "GOLS_SOFRIDOS": 18, "LATITUDE": -23.545141276878514, "LONGITUDE": -46.473682029403896 }, "geometry": { "type": "Point", "coordinates": [ -46.473682029403896, -23.545141276878514 ] } },
{ "type": "Feature", "properties": { "ESTÁDIO": "NICOLAU ALAYON (COMENDADOR SOUZA)", "CIDADE": "SÃO PAULO ", "ESTADO": "SÃO PAULO", "PAÍS": "BRASIL", "CAPACIDADE": "10723", "TOTAL_JOGOS": 7, "VITÓRIAS": 5, "EMPATES": 0, "DERROTAS": 2, "APROVEITAMENTO_PCT": 71.4, "GOLS_MARCADOS": 21, "GOLS_SOFRIDOS": 10, "LATITUDE": -23.518152537113252, "LONGITUDE": -46.685252863969751 }, "geometry": { "type": "Point", "coordinates": [ -46.685252863969751, -23.518152537113252 ] } },
{ "type": "Feature", "properties": { "ESTÁDIO": "NIVALDO PEREIRA", "CIDADE": "NOVA IGUAÇU ", "ESTADO": "RIO DE JANEIRO", "PAÍS": "BRASIL", "CAPACIDADE": "3600", "TOTAL_JOGOS": 1, "VITÓRIAS": 1, "EMPATES": 0, "DERROTAS": 0, "APROVEITAMENTO_PCT": 100.0, "GOLS_MARCADOS": 6, "GOLS_SOFRIDOS": 0, "LATITUDE": -22.738947869037709, "LONGITUDE": -43.523848958239107 }, "geometry": { "type": "Point", "coordinates": [ -43.523848958239107, -22.738947869037709 ] } },
{ "type": "Feature", "properties": { "ESTÁDIO": "NUBANK PARQUE (ARENA PALMEIRAS)", "CIDADE": "SÃO PAULO ", "ESTADO": "SÃO PAULO", "PAÍS": "BRASIL", "CAPACIDADE": "43713", "TOTAL_JOGOS": 7, "VITÓRIAS": 4, "EMPATES": 2, "DERROTAS": 1, "APROVEITAMENTO_PCT": 66.7, "GOLS_MARCADOS": 11, "GOLS_SOFRIDOS": 5, "LATITUDE": -23.527428879851925, "LONGITUDE": -46.678112148437812 }, "geometry": { "type": "Point", "coordinates": [ -46.678112148437812, -23.527428879851925 ] } },
{ "type": "Feature", "properties": { "ESTÁDIO": "NUEVO FRANCISCO URBANO", "CIDADE": "MORÓN", "ESTADO": "BUENOS AIRES", "PAÍS": "ARGENTINA", "CAPACIDADE": "32000", "TOTAL_JOGOS": 6, "VITÓRIAS": 5, "EMPATES": 1, "DERROTAS": 0, "APROVEITAMENTO_PCT": 88.9, "GOLS_MARCADOS": 43, "GOLS_SOFRIDOS": 1, "LATITUDE": -34.661687417932058, "LONGITUDE": -58.630843446591278 }, "geometry": { "type": "Point", "coordinates": [ -58.630843446591278, -34.661687417932058 ] } },
{ "type": "Feature", "properties": { "ESTÁDIO": "OLIVÉRIO BAZZANI FILHO (ARENA DA FONTE LUMINOSA)", "CIDADE": "ARARAQUARA ", "ESTADO": "SÃO PAULO", "PAÍS": "BRASIL", "CAPACIDADE": "20205", "TOTAL_JOGOS": 20, "VITÓRIAS": 14, "EMPATES": 5, "DERROTAS": 1, "APROVEITAMENTO_PCT": 78.3, "GOLS_MARCADOS": 40, "GOLS_SOFRIDOS": 10, "LATITUDE": -21.775035435893585, "LONGITUDE": -48.169600583381282 }, "geometry": { "type": "Point", "coordinates": [ -48.169600583381282, -21.775035435893585 ] } },
{ "type": "Feature", "properties": { "ESTÁDIO": "OLÍMPICO ATAHUALPA", "CIDADE": "QUITO", "ESTADO": "PICHINCHA", "PAÍS": "EQUADOR", "CAPACIDADE": "35258", "TOTAL_JOGOS": 6, "VITÓRIAS": 5, "EMPATES": 1, "DERROTAS": 0, "APROVEITAMENTO_PCT": 88.9, "GOLS_MARCADOS": 16, "GOLS_SOFRIDOS": 4, "LATITUDE": -0.17726933113467663, "LONGITUDE": -78.476194631250408 }, "geometry": { "type": "Point", "coordinates": [ -78.476194631250408, -0.177269331134677 ] } },
{ "type": "Feature", "properties": { "ESTÁDIO": "OLÍMPICO NILTON SANTOS (ENGENHÃO)", "CIDADE": "RIO DE JANEIRO ", "ESTADO": "RIO DE JANEIRO", "PAÍS": "BRASIL", "CAPACIDADE": "44661", "TOTAL_JOGOS": 2, "VITÓRIAS": 2, "EMPATES": 0, "DERROTAS": 0, "APROVEITAMENTO_PCT": 100.0, "GOLS_MARCADOS": 5, "GOLS_SOFRIDOS": 1, "LATITUDE": -22.893062399488951, "LONGITUDE": -43.291819273579982 }, "geometry": { "type": "Point", "coordinates": [ -43.291819273579982, -22.893062399488951 ] } },
{ "type": "Feature", "properties": { "ESTÁDIO": "OLÍMPICO PASCUAL GUERRERO (EL PASCUAL)", "CIDADE": "CALI", "ESTADO": "VALLE DEL CAUCA", "PAÍS": "COLÔMBIA", "CAPACIDADE": "42200", "TOTAL_JOGOS": 4, "VITÓRIAS": 3, "EMPATES": 1, "DERROTAS": 0, "APROVEITAMENTO_PCT": 83.3, "GOLS_MARCADOS": 11, "GOLS_SOFRIDOS": 1, "LATITUDE": 3.4301899432979908, "LONGITUDE": -76.540561531250418 }, "geometry": { "type": "Point", "coordinates": [ -76.540561531250418, 3.430189943297991 ] } },
{ "type": "Feature", "properties": { "ESTÁDIO": "ORLANDO BATISTA NOVELI (ARENA BARUERI / CREFISA)", "CIDADE": "BARUERI ", "ESTADO": "SÃO PAULO", "PAÍS": "BRASIL", "CAPACIDADE": "31452", "TOTAL_JOGOS": 35, "VITÓRIAS": 24, "EMPATES": 6, "DERROTAS": 5, "APROVEITAMENTO_PCT": 74.3, "GOLS_MARCADOS": 114, "GOLS_SOFRIDOS": 28, "LATITUDE": -23.511935566878485, "LONGITUDE": -46.899810331250407 }, "geometry": { "type": "Point", "coordinates": [ -46.899810331250407, -23.511935566878485 ] } },
{ "type": "Feature", "properties": { "ESTÁDIO": "OSVALDO DOMÍNGUEZ DIBB (ANTIGO MANUEL FERREIRA)", "CIDADE": "ASSUNÇÃO", "ESTADO": "DEPARTAMENTO CENTRAL", "PAÍS": "PARAGUAI", "CAPACIDADE": "25820", "TOTAL_JOGOS": 2, "VITÓRIAS": 2, "EMPATES": 0, "DERROTAS": 0, "APROVEITAMENTO_PCT": 100.0, "GOLS_MARCADOS": 11, "GOLS_SOFRIDOS": 1, "LATITUDE": -25.291469240808979, "LONGITUDE": -57.607807123864319 }, "geometry": { "type": "Point", "coordinates": [ -57.607807123864319, -25.291469240808979 ] } },
{ "type": "Feature", "properties": { "ESTÁDIO": "OSWALDO TEIXEIRA DUARTE (CANINDÉ)", "CIDADE": "SÃO PAULO ", "ESTADO": "SÃO PAULO", "PAÍS": "BRASIL", "CAPACIDADE": "21004", "TOTAL_JOGOS": 24, "VITÓRIAS": 20, "EMPATES": 1, "DERROTAS": 3, "APROVEITAMENTO_PCT": 84.7, "GOLS_MARCADOS": 73, "GOLS_SOFRIDOS": 18, "LATITUDE": -23.520132719349128, "LONGITUDE": -46.618264502415194 }, "geometry": { "type": "Point", "coordinates": [ -46.618264502415194, -23.520132719349128 ] } },
{ "type": "Feature", "properties": { "ESTÁDIO": "PAULO MACHADO DE CARVALHO (MERCADO LIVRE ARENA PACAEMBU)", "CIDADE": "SÃO PAULO ", "ESTADO": "SÃO PAULO", "PAÍS": "BRASIL", "CAPACIDADE": "37730", "TOTAL_JOGOS": 11, "VITÓRIAS": 9, "EMPATES": 1, "DERROTAS": 1, "APROVEITAMENTO_PCT": 84.8, "GOLS_MARCADOS": 26, "GOLS_SOFRIDOS": 12, "LATITUDE": -23.548265580968636, "LONGITUDE": -46.665377888920851 }, "geometry": { "type": "Point", "coordinates": [ -46.665377888920851, -23.548265580968636 ] } },
{ "type": "Feature", "properties": { "ESTÁDIO": "PEDRO BASSO", "CIDADE": "FOZ DO IGUAÇU", "ESTADO": "PARANÁ", "PAÍS": "BRASIL", "CAPACIDADE": "5000", "TOTAL_JOGOS": 1, "VITÓRIAS": 1, "EMPATES": 0, "DERROTAS": 0, "APROVEITAMENTO_PCT": 100.0, "GOLS_MARCADOS": 1, "GOLS_SOFRIDOS": 0, "LATITUDE": -25.536427857443265, "LONGITUDE": -54.573876783675161 }, "geometry": { "type": "Point", "coordinates": [ -54.573876783675161, -25.536427857443265 ] } },
{ "type": "Feature", "properties": { "ESTÁDIO": "PREFEITO GABRIEL MARQUES DA SILVA", "CIDADE": "SANTANA DE PARNAÍBA", "ESTADO": "SÃO PAULO", "PAÍS": "BRASIL", "CAPACIDADE": "7000", "TOTAL_JOGOS": 4, "VITÓRIAS": 1, "EMPATES": 1, "DERROTAS": 2, "APROVEITAMENTO_PCT": 33.3, "GOLS_MARCADOS": 7, "GOLS_SOFRIDOS": 8, "LATITUDE": -23.439125511761116, "LONGITUDE": -46.917716173579983 }, "geometry": { "type": "Point", "coordinates": [ -46.917716173579983, -23.439125511761116 ] } },
{ "type": "Feature", "properties": { "ESTÁDIO": "PREFEITO JOSÉ LIBERATTI (ROCHDALÃO)", "CIDADE": "OSASCO ", "ESTADO": "SÃO PAULO", "PAÍS": "BRASIL", "CAPACIDADE": "11780", "TOTAL_JOGOS": 21, "VITÓRIAS": 18, "EMPATES": 2, "DERROTAS": 1, "APROVEITAMENTO_PCT": 88.9, "GOLS_MARCADOS": 74, "GOLS_SOFRIDOS": 9, "LATITUDE": -23.51198315274678, "LONGITUDE": -46.775554302415202 }, "geometry": { "type": "Point", "coordinates": [ -46.775554302415202, -23.51198315274678 ] } },
{ "type": "Feature", "properties": { "ESTÁDIO": "PROLETÁRIO GUILHERME DA SILVEIRA FILHO (MOÇA BONITA)", "CIDADE": "BANGU", "ESTADO": "RIO DE JANEIRO", "PAÍS": "BRASIL", "CAPACIDADE": "9024", "TOTAL_JOGOS": 1, "VITÓRIAS": 0, "EMPATES": 1, "DERROTAS": 0, "APROVEITAMENTO_PCT": 33.3, "GOLS_MARCADOS": 1, "GOLS_SOFRIDOS": 1, "LATITUDE": -22.872287466966249, "LONGITUDE": -43.457608681675254 }, "geometry": { "type": "Point", "coordinates": [ -43.457608681675254, -22.872287466966249 ] } },
{ "type": "Feature", "properties": { "ESTÁDIO": "RAIMUNDO SAMPAIO (ARENA INDEPENDÊNCIA)", "CIDADE": "BELO HORIZONTE", "ESTADO": "MINAS GERAIS", "PAÍS": "BRASIL", "CAPACIDADE": "23018", "TOTAL_JOGOS": 3, "VITÓRIAS": 1, "EMPATES": 2, "DERROTAS": 0, "APROVEITAMENTO_PCT": 55.6, "GOLS_MARCADOS": 4, "GOLS_SOFRIDOS": 3, "LATITUDE": -19.90848330206083, "LONGITUDE": -43.91854807059611 }, "geometry": { "type": "Point", "coordinates": [ -43.91854807059611, -19.90848330206083 ] } },
{ "type": "Feature", "properties": { "ESTÁDIO": "RODRIGO PAZ DELGADO (CASA BLANCA)", "CIDADE": "QUITO", "ESTADO": "PICHINCHA", "PAÍS": "EQUADOR", "CAPACIDADE": "41575", "TOTAL_JOGOS": 3, "VITÓRIAS": 0, "EMPATES": 2, "DERROTAS": 1, "APROVEITAMENTO_PCT": 22.2, "GOLS_MARCADOS": 1, "GOLS_SOFRIDOS": 2, "LATITUDE": -0.10741937280164725, "LONGITUDE": -78.488589187074325 }, "geometry": { "type": "Point", "coordinates": [ -78.488589187074325, -0.107419372801647 ] } },
{ "type": "Feature", "properties": { "ESTÁDIO": "RUI COSTA RODRIGUES (CAMPO DO ESTRADA DE FERRO SOROCABANA)", "CIDADE": "SOROCABA ", "ESTADO": "SÃO PAULO", "PAÍS": "BRASIL", "CAPACIDADE": "6000", "TOTAL_JOGOS": 1, "VITÓRIAS": 1, "EMPATES": 0, "DERROTAS": 0, "APROVEITAMENTO_PCT": 100.0, "GOLS_MARCADOS": 1, "GOLS_SOFRIDOS": 0, "LATITUDE": -23.491868363150374, "LONGITUDE": -47.454327464305422 }, "geometry": { "type": "Point", "coordinates": [ -47.454327464305422, -23.491868363150374 ] } },
{ "type": "Feature", "properties": { "ESTÁDIO": "SESC PROTÁSIO ALVES (ANTIGO SESC CAMPESTRE)", "CIDADE": "PORTO ALEGRE ", "ESTADO": "RIO GRANDE DO SUL", "PAÍS": "BRASIL", "CAPACIDADE": "0.0", "TOTAL_JOGOS": 2, "VITÓRIAS": 2, "EMPATES": 0, "DERROTAS": 0, "APROVEITAMENTO_PCT": 100.0, "GOLS_MARCADOS": 8, "GOLS_SOFRIDOS": 0, "LATITUDE": -30.039326299187358, "LONGITUDE": -51.14635268892085 }, "geometry": { "type": "Point", "coordinates": [ -51.14635268892085, -30.039326299187358 ] } },
{ "type": "Feature", "properties": { "ESTÁDIO": "SOARES DE AZEVEDO (GIGANTE DA 356)", "CIDADE": "MURIAÉ", "ESTADO": "MINAS GERAIS", "PAÍS": "BRASIL", "CAPACIDADE": "13971", "TOTAL_JOGOS": 1, "VITÓRIAS": 1, "EMPATES": 0, "DERROTAS": 0, "APROVEITAMENTO_PCT": 100.0, "GOLS_MARCADOS": 2, "GOLS_SOFRIDOS": 1, "LATITUDE": -21.126403210954635, "LONGITUDE": -42.337147066193893 }, "geometry": { "type": "Point", "coordinates": [ -42.337147066193893, -21.126403210954635 ] } },
{ "type": "Feature", "properties": { "ESTÁDIO": "TANCREDO NEVES (AZULÃO)", "CIDADE": "JAGUARIÚNA", "ESTADO": "SÃO PAULO", "PAÍS": "BRASIL", "CAPACIDADE": "DESCONHECIDO", "TOTAL_JOGOS": 1, "VITÓRIAS": 1, "EMPATES": 0, "DERROTAS": 0, "APROVEITAMENTO_PCT": 100.0, "GOLS_MARCADOS": 4, "GOLS_SOFRIDOS": 1, "LATITUDE": -22.694520826041753, "LONGITUDE": -46.990320700283462 }, "geometry": { "type": "Point", "coordinates": [ -46.990320700283462, -22.694520826041753 ] } },
{ "type": "Feature", "properties": { "ESTÁDIO": "URBANO CALDEIRA (VILA BELMIRO)", "CIDADE": "SANTOS", "ESTADO": "SÃO PAULO", "PAÍS": "BRASIL", "CAPACIDADE": "20360", "TOTAL_JOGOS": 17, "VITÓRIAS": 7, "EMPATES": 2, "DERROTAS": 8, "APROVEITAMENTO_PCT": 45.1, "GOLS_MARCADOS": 27, "GOLS_SOFRIDOS": 27, "LATITUDE": -23.950833202245221, "LONGITUDE": -46.338367960085641 }, "geometry": { "type": "Point", "coordinates": [ -46.338367960085641, -23.950833202245221 ] } },
{ "type": "Feature", "properties": { "ESTÁDIO": "VALMIR CAMPELO BEZERRA (BEZERRÃO)", "CIDADE": "GAMA ", "ESTADO": "DISTRITO FEDERAL", "PAÍS": "BRASIL", "CAPACIDADE": "20310", "TOTAL_JOGOS": 3, "VITÓRIAS": 2, "EMPATES": 0, "DERROTAS": 1, "APROVEITAMENTO_PCT": 66.7, "GOLS_MARCADOS": 13, "GOLS_SOFRIDOS": 5, "LATITUDE": -16.010988388571377, "LONGITUDE": -48.061410548437806 }, "geometry": { "type": "Point", "coordinates": [ -48.061410548437806, -16.010988388571377 ] } },
{ "type": "Feature", "properties": { "ESTÁDIO": "ÍCARO DE CASTRO MELO (OLÍMPICO DO IBIRAPUERA)", "CIDADE": "SÃO PAULO ", "ESTADO": "SÃO PAULO", "PAÍS": "BRASIL", "CAPACIDADE": "13400", "TOTAL_JOGOS": 8, "VITÓRIAS": 3, "EMPATES": 1, "DERROTAS": 4, "APROVEITAMENTO_PCT": 41.7, "GOLS_MARCADOS": 17, "GOLS_SOFRIDOS": 15, "LATITUDE": -23.578112052013303, "LONGITUDE": -46.653697781534753 }, "geometry": { "type": "Point", "coordinates": [ -46.653697781534753, -23.578112052013303 ] } }
]
}
