{"type":"FeatureCollection","name":"as_brabas_estadios_mundo","features":[{"type":"Feature","properties":{"ESTÁDIO":"ARSENIO ERICO","CIDADE":"ASSUNÇÃO","ESTADO":"DEPARTAMENTO CENTRAL","PAÍS":"PARAGUAI","CAPACIDADE":"7500","PRIMEIRA_PARTIDA":"CORINTHIANS 0x0 COLO-COLO","DATA_PRIMEIRA_PARTIDA":"2017-10-21","ANO_PRIMEIRA_PARTIDA":2017,"ADVERSARIO":"COLO-COLO","PLACAR":"0x0","COMPETICAO_PRIMEIRA_PARTIDA":"Libertadores Feminina 2017","MANDO_PRIMEIRA_PARTIDA":"Sim","FONTE_PRIMEIRA_PARTIDA":"https://www.meutimao.com.br/jogo/7127/libertadores-feminina-2017/final/corinthians-0-x-0-colo-colo","TOTAL_JOGOS":7,"VITÓRIAS":5,"EMPATES":2,"DERROTAS":0,"APROVEITAMENTO_PCT":81.0,"GOLS_MARCADOS":22,"GOLS_SOFRIDOS":2,"NOMES_ALTERNATIVOS":[],"FONTES_JOGOS":["Meu Timão"],"LATITUDE":-25.298264179462183,"LONGITUDE":-57.641082774528385,"PAIS_ISO3":"PRY"},"geometry":{"type":"Point","coordinates":[-57.641082774528385,-25.298264179462183]}},{"type":"Feature","properties":{"ESTÁDIO":"CENTRO DE ALTO RENDIMIENTO DE FÚTBOL FEMININO - CARFEM","CIDADE":"YPANÉ","ESTADO":"DEPARTAMENTO CENTRAL","PAÍS":"PARAGUAI","CAPACIDADE":"1000","PRIMEIRA_PARTIDA":null,"DATA_PRIMEIRA_PARTIDA":null,"ANO_PRIMEIRA_PARTIDA":null,"ADVERSARIO":null,"PLACAR":null,"COMPETICAO_PRIMEIRA_PARTIDA":null,"MANDO_PRIMEIRA_PARTIDA":null,"FONTE_PRIMEIRA_PARTIDA":null,"TOTAL_JOGOS":0,"VITÓRIAS":0,"EMPATES":0,"DERROTAS":0,"APROVEITAMENTO_PCT":0,"GOLS_MARCADOS":0,"GOLS_SOFRIDOS":0,"NOMES_ALTERNATIVOS":[],"FONTES_JOGOS":[],"LATITUDE":-25.47101951316703,"LONGITUDE":-57.49956104369918,"PAIS_ISO3":"PRY"},"geometry":{"type":"Point","coordinates":[-57.49956104369918,-25.47101951316703]}},{"type":"Feature","properties":{"ESTÁDIO":"CENTRO DE ALTO RENDIMIENTO INDEPENDIENTE DEL VALLE","CIDADE":"QUITO","ESTADO":"PICHINCHA","PAÍS":"EQUADOR","CAPACIDADE":"DESCONHECIDA","PRIMEIRA_PARTIDA":null,"DATA_PRIMEIRA_PARTIDA":null,"ANO_PRIMEIRA_PARTIDA":null,"ADVERSARIO":null,"PLACAR":null,"COMPETICAO_PRIMEIRA_PARTIDA":null,"MANDO_PRIMEIRA_PARTIDA":null,"FONTE_PRIMEIRA_PARTIDA":null,"TOTAL_JOGOS":0,"VITÓRIAS":0,"EMPATES":0,"DERROTAS":0,"APROVEITAMENTO_PCT":0,"GOLS_MARCADOS":0,"GOLS_SOFRIDOS":0,"NOMES_ALTERNATIVOS":[],"FONTES_JOGOS":[],"LATITUDE":-0.345390436048672,"LONGITUDE":-78.46804793194167,"PAIS_ISO3":"ECU"},"geometry":{"type":"Point","coordinates":[-78.46804793194167,-0.345390436048672]}},{"type":"Feature","properties":{"ESTÁDIO":"CLUB ATLÉTICO ACADEMIA DEPORTIVA","CIDADE":"ROSÁRIO","ESTADO":"SANTA FE","PAÍS":"ARGENTINA","CAPACIDADE":"DESCONHECIDA","PRIMEIRA_PARTIDA":null,"DATA_PRIMEIRA_PARTIDA":null,"ANO_PRIMEIRA_PARTIDA":null,"ADVERSARIO":null,"PLACAR":null,"COMPETICAO_PRIMEIRA_PARTIDA":null,"MANDO_PRIMEIRA_PARTIDA":null,"FONTE_PRIMEIRA_PARTIDA":null,"TOTAL_JOGOS":0,"VITÓRIAS":0,"EMPATES":0,"DERROTAS":0,"APROVEITAMENTO_PCT":0,"GOLS_MARCADOS":0,"GOLS_SOFRIDOS":0,"NOMES_ALTERNATIVOS":[],"FONTES_JOGOS":[],"LATITUDE":-32.850463678761685,"LONGITUDE":-60.71460878329617,"PAIS_ISO3":"ARG"},"geometry":{"type":"Point","coordinates":[-60.71460878329617,-32.850463678761685]}},{"type":"Feature","properties":{"ESTÁDIO":"CPKC Stadium","CIDADE":"KANSAS CITY","ESTADO":"MISSOURI","PAÍS":"EUA","CAPACIDADE":"11500","PRIMEIRA_PARTIDA":null,"DATA_PRIMEIRA_PARTIDA":null,"ANO_PRIMEIRA_PARTIDA":null,"ADVERSARIO":null,"PLACAR":null,"COMPETICAO_PRIMEIRA_PARTIDA":null,"MANDO_PRIMEIRA_PARTIDA":null,"FONTE_PRIMEIRA_PARTIDA":null,"TOTAL_JOGOS":0,"VITÓRIAS":0,"EMPATES":0,"DERROTAS":0,"APROVEITAMENTO_PCT":0,"GOLS_MARCADOS":0,"GOLS_SOFRIDOS":0,"NOMES_ALTERNATIVOS":[],"FONTES_JOGOS":[],"LATITUDE":39.1193789,"LONGITUDE":-94.5665908,"PRECISAO_COORDENADAS":"Estádio identificado","FONTE_COORDENADAS":"OpenStreetMap Nominatim","URL_FONTE_COORDENADAS":"https://www.openstreetmap.org/way/1351897821","ATRIBUICAO_COORDENADAS":"© OpenStreetMap contributors, ODbL 1.0","PAIS_ISO3":"USA"},"geometry":{"type":"Point","coordinates":[-94.5665908,39.1193789]}},{"type":"Feature","properties":{"ESTÁDIO":"DEFENSORES DEL CHACO","CIDADE":"ASSUNÇÃO","ESTADO":"DEPARTAMENTO CENTRAL","PAÍS":"PARAGUAI","CAPACIDADE":"42345","PRIMEIRA_PARTIDA":"CORINTHIANS 2x0 INDEPENDIENTE SANTA FE","DATA_PRIMEIRA_PARTIDA":"2024-10-19","ANO_PRIMEIRA_PARTIDA":2024,"ADVERSARIO":"INDEPENDIENTE SANTA FE","PLACAR":"2x0","COMPETICAO_PRIMEIRA_PARTIDA":"Libertadores Feminina 2024","MANDO_PRIMEIRA_PARTIDA":"Sim","FONTE_PRIMEIRA_PARTIDA":"https://www.meutimao.com.br/jogo/8355/libertadores-feminina-2024/final/corinthians-2-x-0-independiente_santa_fe","TOTAL_JOGOS":1,"VITÓRIAS":1,"EMPATES":0,"DERROTAS":0,"APROVEITAMENTO_PCT":100.0,"GOLS_MARCADOS":2,"GOLS_SOFRIDOS":0,"NOMES_ALTERNATIVOS":[],"FONTES_JOGOS":["Meu Timão"],"LATITUDE":-25.291906369779717,"LONGITUDE":-57.65681557623464,"PAIS_ISO3":"PRY"},"geometry":{"type":"Point","coordinates":[-57.65681557623464,-25.291906369779717]}},{"type":"Feature","properties":{"ESTÁDIO":"Deportivo Morón","CIDADE":"Buenos Aires","ESTADO":"Autonomous City of Buenos Aires","PAÍS":"Argentina","CAPACIDADE":"32000","PRIMEIRA_PARTIDA":"CORINTHIANS 16x0 EL NACIONAL","DATA_PRIMEIRA_PARTIDA":"2021-03-05","ANO_PRIMEIRA_PARTIDA":2021,"ADVERSARIO":"EL NACIONAL","PLACAR":"16x0","COMPETICAO_PRIMEIRA_PARTIDA":"Libertadores Feminina 2020","MANDO_PRIMEIRA_PARTIDA":"Sim","FONTE_PRIMEIRA_PARTIDA":"https://www.meutimao.com.br/jogo/5003/libertadores-feminina-2020/corinthians-16-x-0-el_nacional","TOTAL_JOGOS":6,"VITÓRIAS":5,"EMPATES":1,"DERROTAS":0,"APROVEITAMENTO_PCT":88.9,"GOLS_MARCADOS":43,"GOLS_SOFRIDOS":1,"NOMES_ALTERNATIVOS":[],"FONTES_JOGOS":["Meu Timão"],"LATITUDE":-34.6095579,"LONGITUDE":-58.3887904,"PRECISAO_COORDENADAS":"Município (estádio exato não identificado)","FONTE_COORDENADAS":"OpenStreetMap Nominatim (localidade aproximada)","URL_FONTE_COORDENADAS":"https://www.openstreetmap.org/relation/1224652","ATRIBUICAO_COORDENADAS":"© OpenStreetMap contributors, ODbL 1.0","CAPACIDADE_FONTE":"Meu Timão","URL_FONTE_CAPACIDADE":"https://www.meutimao.com.br/estadio/deportivo_moron?genero=feminino","PAIS_ISO3":"ARG"},"geometry":{"type":"Point","coordinates":[-58.3887904,-34.6095579]}},{"type":"Feature","properties":{"ESTÁDIO":"EMIRATES STADIUM (ARSENAL STADIUM)","CIDADE":"LONDRES","ESTADO":"HOLLOWAY","PAÍS":"INGLATERRA","CAPACIDADE":"60704","PRIMEIRA_PARTIDA":"CORINTHIANS 2x3 ARSENAL","DATA_PRIMEIRA_PARTIDA":"2026-02-01","ANO_PRIMEIRA_PARTIDA":2026,"ADVERSARIO":"ARSENAL","PLACAR":"2x3","COMPETICAO_PRIMEIRA_PARTIDA":"Copa das Campeãs 2026","MANDO_PRIMEIRA_PARTIDA":"Sim","FONTE_PRIMEIRA_PARTIDA":"https://www.meutimao.com.br/jogo/8919/copa-das-campeas-2026/final/corinthians-2-x-3-arsenal","TOTAL_JOGOS":1,"VITÓRIAS":0,"EMPATES":0,"DERROTAS":1,"APROVEITAMENTO_PCT":0.0,"GOLS_MARCADOS":2,"GOLS_SOFRIDOS":3,"NOMES_ALTERNATIVOS":[],"FONTES_JOGOS":["Meu Timão"],"LATITUDE":51.555162121144335,"LONGITUDE":-0.108045751715059,"PAIS_ISO3":"GBR"},"geometry":{"type":"Point","coordinates":[-0.108045751715059,51.555162121144335]}},{"type":"Feature","properties":{"ESTÁDIO":"ESTADIO BANCO GUAYAQUIL (ESTADIO IDV)","CIDADE":"QUITO","ESTADO":"PICHINCHA","PAÍS":"EQUADOR","CAPACIDADE":"12000","PRIMEIRA_PARTIDA":null,"DATA_PRIMEIRA_PARTIDA":null,"ANO_PRIMEIRA_PARTIDA":null,"ADVERSARIO":null,"PLACAR":null,"COMPETICAO_PRIMEIRA_PARTIDA":null,"MANDO_PRIMEIRA_PARTIDA":null,"FONTE_PRIMEIRA_PARTIDA":null,"TOTAL_JOGOS":0,"VITÓRIAS":0,"EMPATES":0,"DERROTAS":0,"APROVEITAMENTO_PCT":0,"GOLS_MARCADOS":0,"GOLS_SOFRIDOS":0,"NOMES_ALTERNATIVOS":[],"FONTES_JOGOS":[],"LATITUDE":-0.349179879569855,"LONGITUDE":-78.47030740156634,"PAIS_ISO3":"ECU"},"geometry":{"type":"Point","coordinates":[-78.47030740156634,-0.349179879569855]}},{"type":"Feature","properties":{"ESTÁDIO":"Estadio Gonzalo Pozo Ripalda","CIDADE":"Quito","ESTADO":"Pichincha","PAÍS":"Equador","CAPACIDADE":null,"PRIMEIRA_PARTIDA":null,"DATA_PRIMEIRA_PARTIDA":null,"ANO_PRIMEIRA_PARTIDA":null,"ADVERSARIO":null,"PLACAR":null,"COMPETICAO_PRIMEIRA_PARTIDA":null,"MANDO_PRIMEIRA_PARTIDA":null,"FONTE_PRIMEIRA_PARTIDA":null,"TOTAL_JOGOS":0,"VITÓRIAS":0,"EMPATES":0,"DERROTAS":0,"APROVEITAMENTO_PCT":0,"GOLS_MARCADOS":0,"GOLS_SOFRIDOS":0,"NOMES_ALTERNATIVOS":[],"FONTES_JOGOS":[],"LATITUDE":-0.2788989,"LONGITUDE":-78.5461745,"PRECISAO_COORDENADAS":"Estádio identificado","FONTE_COORDENADAS":"OpenStreetMap Nominatim","URL_FONTE_COORDENADAS":"https://www.openstreetmap.org/way/26216680","ATRIBUICAO_COORDENADAS":"© OpenStreetMap contributors, ODbL 1.0","PAIS_ISO3":"ECU"},"geometry":{"type":"Point","coordinates":[-78.5461745,-0.2788989]}},{"type":"Feature","properties":{"ESTÁDIO":"Estadio Olímpico Atahualpa","CIDADE":"Quito","ESTADO":"Pichincha","PAÍS":"Equador","CAPACIDADE":"35258","PRIMEIRA_PARTIDA":"CLUB ÑAÑAS 1x3 CORINTHIANS","DATA_PRIMEIRA_PARTIDA":"2019-10-14","ANO_PRIMEIRA_PARTIDA":2019,"ADVERSARIO":"CLUB ÑAÑAS","PLACAR":"1x3","COMPETICAO_PRIMEIRA_PARTIDA":"Libertadores Feminina 2019","MANDO_PRIMEIRA_PARTIDA":"Não","FONTE_PRIMEIRA_PARTIDA":"https://www.meutimao.com.br/jogo/1366/libertadores-feminina-2019/club_nanas-1-x-3-corinthians","TOTAL_JOGOS":6,"VITÓRIAS":5,"EMPATES":1,"DERROTAS":0,"APROVEITAMENTO_PCT":88.9,"GOLS_MARCADOS":16,"GOLS_SOFRIDOS":4,"NOMES_ALTERNATIVOS":["OLÍMPICO ATAHUALPA"],"FONTES_JOGOS":["Meu Timão"],"LATITUDE":-0.1775141,"LONGITUDE":-78.4766126,"PRECISAO_COORDENADAS":"Estádio identificado","FONTE_COORDENADAS":"OpenStreetMap Nominatim","URL_FONTE_COORDENADAS":"https://www.openstreetmap.org/way/24611185","ATRIBUICAO_COORDENADAS":"© OpenStreetMap contributors, ODbL 1.0","CAPACIDADE_STADIUMDB":"39816","FONTE_CAPACIDADE_STADIUMDB":"StadiumDB.com","URL_CAPACIDADE_STADIUMDB":"https://stadiumdb.com/stadiums/ecu/estadio_olimpico_atahualpa","PAIS_ISO3":"ECU"},"geometry":{"type":"Point","coordinates":[-78.4766126,-0.1775141]}},{"type":"Feature","properties":{"ESTÁDIO":"Estádio Carfem","CIDADE":"Ypané","ESTADO":"Departamento Central","PAÍS":"Paraguai","CAPACIDADE":"1000","PRIMEIRA_PARTIDA":"CORINTHIANS 2x0 OLIMPIA","DATA_PRIMEIRA_PARTIDA":"2024-10-12","ANO_PRIMEIRA_PARTIDA":2024,"ADVERSARIO":"OLIMPIA","PLACAR":"2x0","COMPETICAO_PRIMEIRA_PARTIDA":"Libertadores Feminina 2024","MANDO_PRIMEIRA_PARTIDA":"Sim","FONTE_PRIMEIRA_PARTIDA":"https://www.meutimao.com.br/jogo/8353/libertadores-feminina-2024/quartas_de_final/corinthians-2-x-0-olimpia","TOTAL_JOGOS":1,"VITÓRIAS":1,"EMPATES":0,"DERROTAS":0,"APROVEITAMENTO_PCT":100.0,"GOLS_MARCADOS":2,"GOLS_SOFRIDOS":0,"NOMES_ALTERNATIVOS":[],"FONTES_JOGOS":["Meu Timão"],"LATITUDE":-25.4573519,"LONGITUDE":-57.5092575,"PRECISAO_COORDENADAS":"Município (estádio exato não identificado)","FONTE_COORDENADAS":"OpenStreetMap Nominatim (localidade aproximada)","URL_FONTE_COORDENADAS":"https://www.openstreetmap.org/relation/6601486","ATRIBUICAO_COORDENADAS":"© OpenStreetMap contributors, ODbL 1.0","CAPACIDADE_FONTE":"Meu Timão","URL_FONTE_CAPACIDADE":"https://www.meutimao.com.br/estadio/estadio_carfem?genero=feminino","PAIS_ISO3":"PRY"},"geometry":{"type":"Point","coordinates":[-57.5092575,-25.4573519]}},{"type":"Feature","properties":{"ESTÁDIO":"Estádio de Techo","CIDADE":"Bogotá","ESTADO":"Bogota, Capital District","PAÍS":"Colômbia","CAPACIDADE":"10000","PRIMEIRA_PARTIDA":"CORINTHIANS 1x0 COLO-COLO","DATA_PRIMEIRA_PARTIDA":"2023-10-06","ANO_PRIMEIRA_PARTIDA":2023,"ADVERSARIO":"COLO-COLO","PLACAR":"1x0","COMPETICAO_PRIMEIRA_PARTIDA":"Libertadores Feminina 2023","MANDO_PRIMEIRA_PARTIDA":"Sim","FONTE_PRIMEIRA_PARTIDA":"https://www.meutimao.com.br/jogo/7907/libertadores-feminina-2023/corinthians-1-x-0-colo-colo","TOTAL_JOGOS":2,"VITÓRIAS":2,"EMPATES":0,"DERROTAS":0,"APROVEITAMENTO_PCT":100.0,"GOLS_MARCADOS":7,"GOLS_SOFRIDOS":0,"NOMES_ALTERNATIVOS":[],"FONTES_JOGOS":["Meu Timão"],"LATITUDE":4.6533817,"LONGITUDE":-74.0836331,"PRECISAO_COORDENADAS":"Município (estádio exato não identificado)","FONTE_COORDENADAS":"OpenStreetMap Nominatim (localidade aproximada)","URL_FONTE_COORDENADAS":"https://www.openstreetmap.org/relation/7426387","ATRIBUICAO_COORDENADAS":"© OpenStreetMap contributors, ODbL 1.0","CAPACIDADE_FONTE":"Meu Timão","URL_FONTE_CAPACIDADE":"https://www.meutimao.com.br/estadio/estadio_de_techo?genero=feminino","PAIS_ISO3":"COL"},"geometry":{"type":"Point","coordinates":[-74.0836331,4.6533817]}},{"type":"Feature","properties":{"ESTÁDIO":"FLORENCIO SOLA","CIDADE":"LOMAS DE ZAMORA","ESTADO":"BUENOS AIRES","PAÍS":"ARGENTINA","CAPACIDADE":"35000","PRIMEIRA_PARTIDA":null,"DATA_PRIMEIRA_PARTIDA":null,"ANO_PRIMEIRA_PARTIDA":null,"ADVERSARIO":null,"PLACAR":null,"COMPETICAO_PRIMEIRA_PARTIDA":null,"MANDO_PRIMEIRA_PARTIDA":null,"FONTE_PRIMEIRA_PARTIDA":null,"TOTAL_JOGOS":0,"VITÓRIAS":0,"EMPATES":0,"DERROTAS":0,"APROVEITAMENTO_PCT":0,"GOLS_MARCADOS":0,"GOLS_SOFRIDOS":0,"NOMES_ALTERNATIVOS":[],"FONTES_JOGOS":[],"LATITUDE":-34.75053133505603,"LONGITUDE":-58.387661248437816,"PAIS_ISO3":"ARG"},"geometry":{"type":"Point","coordinates":[-58.387661248437816,-34.75053133505603]}},{"type":"Feature","properties":{"ESTÁDIO":"GENERAL ADRIÁN JARA (CONMEBOL)","CIDADE":"LUQUE","ESTADO":"DEPARTAMENTO CENTRAL","PAÍS":"PARAGUAI","CAPACIDADE":"4000","PRIMEIRA_PARTIDA":"CORINTHIANS 1x0 BOCA JUNIORS","DATA_PRIMEIRA_PARTIDA":"2024-10-15","ANO_PRIMEIRA_PARTIDA":2024,"ADVERSARIO":"BOCA JUNIORS","PLACAR":"1x0","COMPETICAO_PRIMEIRA_PARTIDA":"Libertadores Feminina 2024","MANDO_PRIMEIRA_PARTIDA":"Sim","FONTE_PRIMEIRA_PARTIDA":"https://www.meutimao.com.br/jogo/8354/libertadores-feminina-2024/corinthians-1-x-0-boca_juniors","TOTAL_JOGOS":1,"VITÓRIAS":1,"EMPATES":0,"DERROTAS":0,"APROVEITAMENTO_PCT":100.0,"GOLS_MARCADOS":1,"GOLS_SOFRIDOS":0,"NOMES_ALTERNATIVOS":[],"FONTES_JOGOS":["Meu Timão"],"LATITUDE":-25.26300146495579,"LONGITUDE":-57.51814001406302,"PAIS_ISO3":"PRY"},"geometry":{"type":"Point","coordinates":[-57.51814001406302,-25.26300146495579]}},{"type":"Feature","properties":{"ESTÁDIO":"GRAN PARQUE CENTRAL","CIDADE":"MONTEVIDÉU","ESTADO":"DEPARTAMENTO MONTEVIDÉU","PAÍS":"URUGUAI","CAPACIDADE":"37000","PRIMEIRA_PARTIDA":"CORINTHIANS 2x0 INDEPENDIENTE SANTA FE","DATA_PRIMEIRA_PARTIDA":"2021-11-21","ANO_PRIMEIRA_PARTIDA":2021,"ADVERSARIO":"INDEPENDIENTE SANTA FE","PLACAR":"2x0","COMPETICAO_PRIMEIRA_PARTIDA":"Libertadores Feminina 2021","MANDO_PRIMEIRA_PARTIDA":"Sim","FONTE_PRIMEIRA_PARTIDA":"https://www.meutimao.com.br/jogo/7206/libertadores-feminina-2021/final/corinthians-2-x-0-independiente_santa_fe","TOTAL_JOGOS":1,"VITÓRIAS":1,"EMPATES":0,"DERROTAS":0,"APROVEITAMENTO_PCT":100.0,"GOLS_MARCADOS":2,"GOLS_SOFRIDOS":0,"NOMES_ALTERNATIVOS":[],"FONTES_JOGOS":["Meu Timão"],"LATITUDE":-34.884261789014836,"LONGITUDE":-56.15824998707433,"PAIS_ISO3":"URY"},"geometry":{"type":"Point","coordinates":[-56.15824998707433,-34.884261789014836]}},{"type":"Feature","properties":{"ESTÁDIO":"GTECH COMMUNITY STADIUM","CIDADE":"LONDRES","ESTADO":"BRENTFORD","PAÍS":"INGLATERRA","CAPACIDADE":"17250","PRIMEIRA_PARTIDA":"CORINTHIANS 1x0 GOTHAM FC","DATA_PRIMEIRA_PARTIDA":"2026-01-28","ANO_PRIMEIRA_PARTIDA":2026,"ADVERSARIO":"GOTHAM FC","PLACAR":"1x0","COMPETICAO_PRIMEIRA_PARTIDA":"Copa das Campeãs 2026","MANDO_PRIMEIRA_PARTIDA":"Sim","FONTE_PRIMEIRA_PARTIDA":"https://www.meutimao.com.br/jogo/8821/copa-das-campeas-2026/corinthians-1-x-0-gotham_fc","TOTAL_JOGOS":1,"VITÓRIAS":1,"EMPATES":0,"DERROTAS":0,"APROVEITAMENTO_PCT":100.0,"GOLS_MARCADOS":1,"GOLS_SOFRIDOS":0,"NOMES_ALTERNATIVOS":[],"FONTES_JOGOS":["Meu Timão"],"LATITUDE":51.49091800344337,"LONGITUDE":-0.288801813492398,"PAIS_ISO3":"GBR"},"geometry":{"type":"Point","coordinates":[-0.288801813492398,51.49091800344337]}},{"type":"Feature","properties":{"ESTÁDIO":"Gonzalo Pozo Ripalda","CIDADE":"QUITO","ESTADO":"PICHINCHA","PAÍS":"EQUADOR","CAPACIDADE":"18799","PRIMEIRA_PARTIDA":null,"DATA_PRIMEIRA_PARTIDA":null,"ANO_PRIMEIRA_PARTIDA":null,"ADVERSARIO":null,"PLACAR":null,"COMPETICAO_PRIMEIRA_PARTIDA":null,"MANDO_PRIMEIRA_PARTIDA":null,"FONTE_PRIMEIRA_PARTIDA":null,"TOTAL_JOGOS":0,"VITÓRIAS":0,"EMPATES":0,"DERROTAS":0,"APROVEITAMENTO_PCT":0,"GOLS_MARCADOS":0,"GOLS_SOFRIDOS":0,"NOMES_ALTERNATIVOS":["GONZALO POZO RIPALDA (CHILLOGALLO)"],"FONTES_JOGOS":[],"LATITUDE":-0.27863817534163,"LONGITUDE":-78.5457340754265,"PAIS_ISO3":"ECU"},"geometry":{"type":"Point","coordinates":[-78.5457340754265,-0.27863817534163]}},{"type":"Feature","properties":{"ESTÁDIO":"JOSÉ AMALFITANI iEL FORTÍN DE LINIERS)","CIDADE":"BUENOS AIRES","ESTADO":"BUENOS AIRES","PAÍS":"ARGENTINA","CAPACIDADE":"49540","PRIMEIRA_PARTIDA":null,"DATA_PRIMEIRA_PARTIDA":null,"ANO_PRIMEIRA_PARTIDA":null,"ADVERSARIO":null,"PLACAR":null,"COMPETICAO_PRIMEIRA_PARTIDA":null,"MANDO_PRIMEIRA_PARTIDA":null,"FONTE_PRIMEIRA_PARTIDA":null,"TOTAL_JOGOS":0,"VITÓRIAS":0,"EMPATES":0,"DERROTAS":0,"APROVEITAMENTO_PCT":0,"GOLS_MARCADOS":0,"GOLS_SOFRIDOS":0,"NOMES_ALTERNATIVOS":[],"FONTES_JOGOS":[],"LATITUDE":-34.635154380242916,"LONGITUDE":-58.51991662386432,"PAIS_ISO3":"ARG"},"geometry":{"type":"Point","coordinates":[-58.51991662386432,-34.635154380242916]}},{"type":"Feature","properties":{"ESTÁDIO":"LA ARBOLEDA","CIDADE":"ASSUNÇÃO","ESTADO":"DEPARTAMENTO CENTRAL","PAÍS":"PARAGUAI","CAPACIDADE":"8000","PRIMEIRA_PARTIDA":"SPORTIVO LIMPEÑO 0x2 CORINTHIANS","DATA_PRIMEIRA_PARTIDA":"2017-10-11","ANO_PRIMEIRA_PARTIDA":2017,"ADVERSARIO":"SPORTIVO LIMPEÑO","PLACAR":"0x2","COMPETICAO_PRIMEIRA_PARTIDA":"Libertadores Feminina 2017","MANDO_PRIMEIRA_PARTIDA":"Não","FONTE_PRIMEIRA_PARTIDA":"https://www.meutimao.com.br/jogo/5337/libertadores-feminina-2017/sportivo_limpeno-0-x-2-corinthians","TOTAL_JOGOS":3,"VITÓRIAS":3,"EMPATES":0,"DERROTAS":0,"APROVEITAMENTO_PCT":100.0,"GOLS_MARCADOS":10,"GOLS_SOFRIDOS":2,"NOMES_ALTERNATIVOS":[],"FONTES_JOGOS":["Meu Timão"],"LATITUDE":-25.257324985267747,"LONGITUDE":-57.57451669872214,"PAIS_ISO3":"PRY"},"geometry":{"type":"Point","coordinates":[-57.57451669872214,-25.257324985267747]}},{"type":"Feature","properties":{"ESTÁDIO":"LUIS ALFONSO GIAGNI","CIDADE":"VILLA ELISA","ESTADO":"DEPARTAMENTO CENTRAL","PAÍS":"PARAGUAI","CAPACIDADE":"11000","PRIMEIRA_PARTIDA":"CORINTHIANS 3x0 CERRO PORTEÑO","DATA_PRIMEIRA_PARTIDA":"2017-10-19","ANO_PRIMEIRA_PARTIDA":2017,"ADVERSARIO":"CERRO PORTEÑO","PLACAR":"3x0","COMPETICAO_PRIMEIRA_PARTIDA":"Libertadores Feminina 2017","MANDO_PRIMEIRA_PARTIDA":"Sim","FONTE_PRIMEIRA_PARTIDA":"https://www.meutimao.com.br/jogo/7128/libertadores-feminina-2017/corinthians-3-x-0-cerro_porteno","TOTAL_JOGOS":1,"VITÓRIAS":1,"EMPATES":0,"DERROTAS":0,"APROVEITAMENTO_PCT":100.0,"GOLS_MARCADOS":3,"GOLS_SOFRIDOS":0,"NOMES_ALTERNATIVOS":[],"FONTES_JOGOS":["Meu Timão"],"LATITUDE":-25.36720022210868,"LONGITUDE":-57.58427930241521,"PAIS_ISO3":"PRY"},"geometry":{"type":"Point","coordinates":[-57.58427930241521,-25.36720022210868]}},{"type":"Feature","properties":{"ESTÁDIO":"Lencho","CIDADE":"Buenos Aires","ESTADO":"Autonomous City of Buenos Aires","PAÍS":"Argentina","CAPACIDADE":"35000","PRIMEIRA_PARTIDA":"CORINTHIANS 1x1 INDEPENDIENTE DEL VALLE","DATA_PRIMEIRA_PARTIDA":"2025-10-02","ANO_PRIMEIRA_PARTIDA":2025,"ADVERSARIO":"INDEPENDIENTE DEL VALLE","PLACAR":"1x1","COMPETICAO_PRIMEIRA_PARTIDA":"Libertadores Feminina 2025","MANDO_PRIMEIRA_PARTIDA":"Sim","FONTE_PRIMEIRA_PARTIDA":"https://www.meutimao.com.br/jogo/8739/libertadores-feminina-2025/corinthians-1-x-1-independiente_del_valle","TOTAL_JOGOS":4,"VITÓRIAS":1,"EMPATES":3,"DERROTAS":0,"APROVEITAMENTO_PCT":50.0,"GOLS_MARCADOS":3,"GOLS_SOFRIDOS":2,"NOMES_ALTERNATIVOS":[],"FONTES_JOGOS":["Meu Timão"],"LATITUDE":-34.6095579,"LONGITUDE":-58.3887904,"PRECISAO_COORDENADAS":"Município (estádio exato não identificado)","FONTE_COORDENADAS":"OpenStreetMap Nominatim (localidade aproximada)","URL_FONTE_COORDENADAS":"https://www.openstreetmap.org/relation/1224652","ATRIBUICAO_COORDENADAS":"© OpenStreetMap contributors, ODbL 1.0","CAPACIDADE_FONTE":"Meu Timão","URL_FONTE_CAPACIDADE":"https://www.meutimao.com.br/estadio/lencho?genero=feminino","PAIS_ISO3":"ARG"},"geometry":{"type":"Point","coordinates":[-58.3887904,-34.6095579]}},{"type":"Feature","properties":{"ESTÁDIO":"METROPOLITANO DE TECHO","CIDADE":"BOGOTÁ","ESTADO":"DISTRITO CAPITAL","PAÍS":"COLÔMBIA","CAPACIDADE":"10000","PRIMEIRA_PARTIDA":null,"DATA_PRIMEIRA_PARTIDA":null,"ANO_PRIMEIRA_PARTIDA":null,"ADVERSARIO":null,"PLACAR":null,"COMPETICAO_PRIMEIRA_PARTIDA":null,"MANDO_PRIMEIRA_PARTIDA":null,"FONTE_PRIMEIRA_PARTIDA":null,"TOTAL_JOGOS":0,"VITÓRIAS":0,"EMPATES":0,"DERROTAS":0,"APROVEITAMENTO_PCT":0,"GOLS_MARCADOS":0,"GOLS_SOFRIDOS":0,"NOMES_ALTERNATIVOS":[],"FONTES_JOGOS":[],"LATITUDE":4.623716907161779,"LONGITUDE":-74.13634719943133,"PAIS_ISO3":"COL"},"geometry":{"type":"Point","coordinates":[-74.13634719943133,4.623716907161779]}},{"type":"Feature","properties":{"ESTÁDIO":"NUEVO FRANCISCO URBANO","CIDADE":"MORÓN","ESTADO":"BUENOS AIRES","PAÍS":"ARGENTINA","CAPACIDADE":"32000","PRIMEIRA_PARTIDA":null,"DATA_PRIMEIRA_PARTIDA":null,"ANO_PRIMEIRA_PARTIDA":null,"ADVERSARIO":null,"PLACAR":null,"COMPETICAO_PRIMEIRA_PARTIDA":null,"MANDO_PRIMEIRA_PARTIDA":null,"FONTE_PRIMEIRA_PARTIDA":null,"TOTAL_JOGOS":0,"VITÓRIAS":0,"EMPATES":0,"DERROTAS":0,"APROVEITAMENTO_PCT":0,"GOLS_MARCADOS":0,"GOLS_SOFRIDOS":0,"NOMES_ALTERNATIVOS":[],"FONTES_JOGOS":[],"LATITUDE":-34.66168741793206,"LONGITUDE":-58.63084344659128,"PAIS_ISO3":"ARG"},"geometry":{"type":"Point","coordinates":[-58.63084344659128,-34.66168741793206]}},{"type":"Feature","properties":{"ESTÁDIO":"OSVALDO DOMÍNGUEZ DIBB (ANTIGO MANUEL FERREIRA)","CIDADE":"ASSUNÇÃO","ESTADO":"DEPARTAMENTO CENTRAL","PAÍS":"PARAGUAI","CAPACIDADE":"25820","PRIMEIRA_PARTIDA":"CORINTHIANS 3x1 ALIANZA LIMA","DATA_PRIMEIRA_PARTIDA":"2021-11-13","ANO_PRIMEIRA_PARTIDA":2021,"ADVERSARIO":"ALIANZA LIMA","PLACAR":"3x1","COMPETICAO_PRIMEIRA_PARTIDA":"Libertadores Feminina 2021","MANDO_PRIMEIRA_PARTIDA":"Sim","FONTE_PRIMEIRA_PARTIDA":"https://www.meutimao.com.br/jogo/7204/libertadores-feminina-2021/quartas_de_final/corinthians-3-x-1-alianza_lima","TOTAL_JOGOS":2,"VITÓRIAS":2,"EMPATES":0,"DERROTAS":0,"APROVEITAMENTO_PCT":100.0,"GOLS_MARCADOS":11,"GOLS_SOFRIDOS":1,"NOMES_ALTERNATIVOS":[],"FONTES_JOGOS":["Meu Timão"],"LATITUDE":-25.29146924080898,"LONGITUDE":-57.60780712386432,"PAIS_ISO3":"PRY"},"geometry":{"type":"Point","coordinates":[-57.60780712386432,-25.29146924080898]}},{"type":"Feature","properties":{"ESTÁDIO":"Pascual Guerrero","CIDADE":"CALI","ESTADO":"VALLE DEL CAUCA","PAÍS":"COLÔMBIA","CAPACIDADE":"42200","PRIMEIRA_PARTIDA":"CORINTHIANS 5x0 LIBERTAD LIMPEÑO","DATA_PRIMEIRA_PARTIDA":"2023-10-12","ANO_PRIMEIRA_PARTIDA":2023,"ADVERSARIO":"LIBERTAD LIMPEÑO","PLACAR":"5x0","COMPETICAO_PRIMEIRA_PARTIDA":"Libertadores Feminina 2023","MANDO_PRIMEIRA_PARTIDA":"Sim","FONTE_PRIMEIRA_PARTIDA":"https://www.meutimao.com.br/jogo/7909/libertadores-feminina-2023/corinthians-5-x-0-libertad_limpeno","TOTAL_JOGOS":4,"VITÓRIAS":3,"EMPATES":1,"DERROTAS":0,"APROVEITAMENTO_PCT":83.3,"GOLS_MARCADOS":11,"GOLS_SOFRIDOS":1,"NOMES_ALTERNATIVOS":["OLÍMPICO PASCUAL GUERRERO (EL PASCUAL)"],"FONTES_JOGOS":["Meu Timão"],"LATITUDE":3.4299548,"LONGITUDE":-76.5412366,"CAPACIDADE_STADIUMDB":"33130","FONTE_CAPACIDADE_STADIUMDB":"StadiumDB.com","URL_CAPACIDADE_STADIUMDB":"https://stadiumdb.com/stadiums/col/estadio_pascual_guerrero","PAIS_ISO3":"COL"},"geometry":{"type":"Point","coordinates":[-76.5412366,3.4299548]}}]}