{"type":"FeatureCollection","name":"as_brabas_estadios_mandante","features":[{"type":"Feature","properties":{"ESTÁDIO":"1º DE MAIO (PRIMEIRÃO)","CIDADE":"SÃO BERNARDO DO CAMPO","ESTADO":"SÃO PAULO","PAÍS":"BRASIL","CAPACIDADE":"15759","PRIMEIRA_PARTIDA":"CORINTHIANS 1x0 ATLÉTICO-MG","DATA_PRIMEIRA_PARTIDA":"2023-05-28","ANO_PRIMEIRA_PARTIDA":2023,"ADVERSARIO":"ATLÉTICO-MG","PLACAR":"1x0","COMPETICAO_PRIMEIRA_PARTIDA":"Brasileiro Feminino 2023","MANDO_PRIMEIRA_PARTIDA":"Sim","FONTE_PRIMEIRA_PARTIDA":"https://www.meutimao.com.br/jogo/7618/brasileiro-feminino-2023/corinthians-1-x-0-atletico-mg","TOTAL_JOGOS":2,"VITÓRIAS":2,"EMPATES":0,"DERROTAS":0,"APROVEITAMENTO_PCT":100,"GOLS_MARCADOS":2,"GOLS_SOFRIDOS":0,"NOMES_ALTERNATIVOS":[],"FONTES_JOGOS":["Meu Timão"],"LATITUDE":-23.699558583592914,"LONGITUDE":-46.55493146008563,"PAIS_ISO3":"BRA"},"geometry":{"type":"Point","coordinates":[-46.55493146008563,-23.699558583592914]}},{"type":"Feature","properties":{"ESTÁDIO":"Estádio Alfredo Schürig (Fazendinha)","CIDADE":"SÃO PAULO ","ESTADO":"SÃO PAULO","PAÍS":"BRASIL","CAPACIDADE":"9800","PRIMEIRA_PARTIDA":"CORINTHIANS 12x1 PALMEIRAS","DATA_PRIMEIRA_PARTIDA":"1998-05-17","ANO_PRIMEIRA_PARTIDA":1998,"ADVERSARIO":"PALMEIRAS","PLACAR":"12x1","COMPETICAO_PRIMEIRA_PARTIDA":"CAMPEONATO PAULISTA / FPF","MANDO_PRIMEIRA_PARTIDA":"Sim","FONTE_PRIMEIRA_PARTIDA":null,"TOTAL_JOGOS":114,"VITÓRIAS":95,"EMPATES":11,"DERROTAS":8,"APROVEITAMENTO_PCT":86.5,"GOLS_MARCADOS":372,"GOLS_SOFRIDOS":74,"NOMES_ALTERNATIVOS":[],"FONTES_JOGOS":["Daniel Keppler","Meu Timão"],"LATITUDE":-23.526659630812546,"LONGITUDE":-46.5694808951696,"PAIS_ISO3":"BRA"},"geometry":{"type":"Point","coordinates":[-46.5694808951696,-23.526659630812546]}},{"type":"Feature","properties":{"ESTÁDIO":"ANTÔNIO SOARES DE OLIVEIRA","CIDADE":"GUARULHOS ","ESTADO":"SÃO PAULO","PAÍS":"BRASIL","CAPACIDADE":"6235","PRIMEIRA_PARTIDA":"CORINTHIANS 1x1 SÃO BERNARDO","DATA_PRIMEIRA_PARTIDA":"2008-05-11","ANO_PRIMEIRA_PARTIDA":2008,"ADVERSARIO":"SÃO BERNARDO","PLACAR":"1x1","COMPETICAO_PRIMEIRA_PARTIDA":"CAMPEONATO PAULISTA / FPF","MANDO_PRIMEIRA_PARTIDA":"Sim","FONTE_PRIMEIRA_PARTIDA":null,"TOTAL_JOGOS":4,"VITÓRIAS":3,"EMPATES":1,"DERROTAS":0,"APROVEITAMENTO_PCT":83.3,"GOLS_MARCADOS":15,"GOLS_SOFRIDOS":3,"NOMES_ALTERNATIVOS":[],"FONTES_JOGOS":["Daniel Keppler"],"LATITUDE":-23.47036920270418,"LONGITUDE":-46.551778361932165,"PAIS_ISO3":"BRA"},"geometry":{"type":"Point","coordinates":[-46.551778361932165,-23.47036920270418]}},{"type":"Feature","properties":{"ESTÁDIO":"ARSENIO ERICO","CIDADE":"ASSUNÇÃO","ESTADO":"DEPARTAMENTO CENTRAL","PAÍS":"PARAGUAI","CAPACIDADE":"7500","PRIMEIRA_PARTIDA":"CORINTHIANS 0x0 COLO-COLO","DATA_PRIMEIRA_PARTIDA":"2017-10-21","ANO_PRIMEIRA_PARTIDA":2017,"ADVERSARIO":"COLO-COLO","PLACAR":"0x0","COMPETICAO_PRIMEIRA_PARTIDA":"Libertadores Feminina 2017","MANDO_PRIMEIRA_PARTIDA":"Sim","FONTE_PRIMEIRA_PARTIDA":"https://www.meutimao.com.br/jogo/7127/libertadores-feminina-2017/final/corinthians-0-x-0-colo-colo","TOTAL_JOGOS":6,"VITÓRIAS":4,"EMPATES":2,"DERROTAS":0,"APROVEITAMENTO_PCT":77.8,"GOLS_MARCADOS":18,"GOLS_SOFRIDOS":2,"NOMES_ALTERNATIVOS":[],"FONTES_JOGOS":["Meu Timão"],"LATITUDE":-25.298264179462183,"LONGITUDE":-57.641082774528385,"PAIS_ISO3":"PRY"},"geometry":{"type":"Point","coordinates":[-57.641082774528385,-25.298264179462183]}},{"type":"Feature","properties":{"ESTÁDIO":"Arena Barueri","CIDADE":null,"ESTADO":null,"PAÍS":"Brasil","CAPACIDADE":"38789","PRIMEIRA_PARTIDA":"CORINTHIANS 3x2 KINDERMANN","DATA_PRIMEIRA_PARTIDA":"2017-03-20","ANO_PRIMEIRA_PARTIDA":2017,"ADVERSARIO":"KINDERMANN","PLACAR":"3x2","COMPETICAO_PRIMEIRA_PARTIDA":"Brasileirão Feminino 2017","MANDO_PRIMEIRA_PARTIDA":"Sim","FONTE_PRIMEIRA_PARTIDA":"https://www.meutimao.com.br/jogo/5153/brasileirao-feminino-2017/corinthians-3-x-2-kindermann","TOTAL_JOGOS":27,"VITÓRIAS":22,"EMPATES":4,"DERROTAS":1,"APROVEITAMENTO_PCT":86.4,"GOLS_MARCADOS":106,"GOLS_SOFRIDOS":13,"NOMES_ALTERNATIVOS":[],"FONTES_JOGOS":["Meu Timão"],"LATITUDE":-23.5124719,"LONGITUDE":-46.8995624,"CAPACIDADE_FONTE":"Meu Timão","URL_FONTE_CAPACIDADE":"https://www.meutimao.com.br/estadio/arena_barueri/","PAIS_ISO3":"BRA"},"geometry":{"type":"Point","coordinates":[-46.8995624,-23.5124719]}},{"type":"Feature","properties":{"ESTÁDIO":"CEFAN","CIDADE":null,"ESTADO":null,"PAÍS":"Brazil","CAPACIDADE":"1000","PRIMEIRA_PARTIDA":"CORINTHIANS 1x0 FLAMENGO","DATA_PRIMEIRA_PARTIDA":"2016-09-28","ANO_PRIMEIRA_PARTIDA":2016,"ADVERSARIO":"FLAMENGO","PLACAR":"1x0","COMPETICAO_PRIMEIRA_PARTIDA":"Copa do Brasil 2016","MANDO_PRIMEIRA_PARTIDA":"Sim","FONTE_PRIMEIRA_PARTIDA":"https://www.meutimao.com.br/jogo/4695/copa-do-brasil-2016/quartas_de_final/corinthians-1-x-0-flamengo","TOTAL_JOGOS":1,"VITÓRIAS":1,"EMPATES":0,"DERROTAS":0,"APROVEITAMENTO_PCT":100,"GOLS_MARCADOS":1,"GOLS_SOFRIDOS":0,"NOMES_ALTERNATIVOS":[],"FONTES_JOGOS":["Meu Timão"],"LATITUDE":-22.9110137,"LONGITUDE":-43.2093727,"PRECISAO_COORDENADAS":"Município (estádio exato não identificado)","FONTE_COORDENADAS":"OpenStreetMap Nominatim (localidade aproximada)","URL_FONTE_COORDENADAS":"https://www.openstreetmap.org/relation/2697338","ATRIBUICAO_COORDENADAS":"© OpenStreetMap contributors, ODbL 1.0","CAPACIDADE_FONTE":"Meu Timão","URL_FONTE_CAPACIDADE":"https://www.meutimao.com.br/estadio/cefan?genero=feminino","PAIS_ISO3":"BRA","FONTE_CORRECAO_PAIS":"https://data.geocode.earth/wof/dist/legacy/whosonfirst-data-country-latest.tar.bz2"},"geometry":{"type":"Point","coordinates":[-43.2093727,-22.9110137]}},{"type":"Feature","properties":{"ESTÁDIO":"CENTRO DE TREINAMENTO DOUTOR JOAQUIM GRAVA","CIDADE":"SÃO PAULO ","ESTADO":"SÃO PAULO","PAÍS":"BRASIL","CAPACIDADE":"0.0","PRIMEIRA_PARTIDA":"CORINTHIANS 3x1 SÃO JOSÉ","DATA_PRIMEIRA_PARTIDA":"2008-08-30","ANO_PRIMEIRA_PARTIDA":2008,"ADVERSARIO":"SÃO JOSÉ","PLACAR":"3x1","COMPETICAO_PRIMEIRA_PARTIDA":"CAMPEONATO PAULISTA / FPF","MANDO_PRIMEIRA_PARTIDA":"Sim","FONTE_PRIMEIRA_PARTIDA":null,"TOTAL_JOGOS":16,"VITÓRIAS":8,"EMPATES":3,"DERROTAS":4,"APROVEITAMENTO_PCT":60,"GOLS_MARCADOS":36,"GOLS_SOFRIDOS":19,"NOMES_ALTERNATIVOS":[],"FONTES_JOGOS":["Daniel Keppler"],"LATITUDE":-23.489299036314396,"LONGITUDE":-46.50748810961753,"PAIS_ISO3":"BRA"},"geometry":{"type":"Point","coordinates":[-46.50748810961753,-23.489299036314396]}},{"type":"Feature","properties":{"ESTÁDIO":"CONDE RODOLFO CRESPI (RUA JAVARI)","CIDADE":"SÃO PAULO ","ESTADO":"SÃO PAULO","PAÍS":"BRASIL","CAPACIDADE":"3800","PRIMEIRA_PARTIDA":"CORINTHIANS 2x2 SANTOS","DATA_PRIMEIRA_PARTIDA":"2008-12-19","ANO_PRIMEIRA_PARTIDA":2008,"ADVERSARIO":"SANTOS","PLACAR":"2x2","COMPETICAO_PRIMEIRA_PARTIDA":"CAMPEONATO PAULISTA / FPF","MANDO_PRIMEIRA_PARTIDA":"Sim","FONTE_PRIMEIRA_PARTIDA":null,"TOTAL_JOGOS":1,"VITÓRIAS":0,"EMPATES":1,"DERROTAS":0,"APROVEITAMENTO_PCT":33.3,"GOLS_MARCADOS":2,"GOLS_SOFRIDOS":2,"NOMES_ALTERNATIVOS":[],"FONTES_JOGOS":["Daniel Keppler"],"LATITUDE":-23.552485627232432,"LONGITUDE":-46.601420574225386,"PAIS_ISO3":"BRA"},"geometry":{"type":"Point","coordinates":[-46.601420574225386,-23.552485627232432]}},{"type":"Feature","properties":{"ESTÁDIO":"CPKC","CIDADE":null,"ESTADO":null,"PAÍS":"United States","CAPACIDADE":"11500","PRIMEIRA_PARTIDA":"CORINTHIANS 1x0 CHICAGO STARS","DATA_PRIMEIRA_PARTIDA":"2025-07-12","ANO_PRIMEIRA_PARTIDA":2025,"ADVERSARIO":"CHICAGO STARS","PLACAR":"1x0","COMPETICAO_PRIMEIRA_PARTIDA":"Teal Rising Cup 2025","MANDO_PRIMEIRA_PARTIDA":"Sim","FONTE_PRIMEIRA_PARTIDA":"https://www.meutimao.com.br/jogo/8647/teal-rising-cup-2025/amistoso/corinthians-1-x-0-chicago_stars","TOTAL_JOGOS":3,"VITÓRIAS":1,"EMPATES":0,"DERROTAS":2,"APROVEITAMENTO_PCT":33.3,"GOLS_MARCADOS":3,"GOLS_SOFRIDOS":4,"NOMES_ALTERNATIVOS":[],"FONTES_JOGOS":["Meu Timão"],"LATITUDE":39.1193789,"LONGITUDE":-94.5665908,"PRECISAO_COORDENADAS":"Estádio identificado","FONTE_COORDENADAS":"OpenStreetMap Nominatim","URL_FONTE_COORDENADAS":"https://www.openstreetmap.org/way/1351897821","ATRIBUICAO_COORDENADAS":"© OpenStreetMap contributors, ODbL 1.0","CAPACIDADE_FONTE":"Meu Timão","URL_FONTE_CAPACIDADE":"https://www.meutimao.com.br/estadio/cpkc?genero=feminino","PAIS_ISO3":"USA","FONTE_CORRECAO_PAIS":"https://data.geocode.earth/wof/dist/legacy/whosonfirst-data-country-latest.tar.bz2"},"geometry":{"type":"Point","coordinates":[-94.5665908,39.1193789]}},{"type":"Feature","properties":{"ESTÁDIO":"CT Vila Porto","CIDADE":null,"ESTADO":null,"PAÍS":"Brazil","CAPACIDADE":"500","PRIMEIRA_PARTIDA":"CORINTHIANS 3x0 PORTUGUESA","DATA_PRIMEIRA_PARTIDA":"2017-05-14","ANO_PRIMEIRA_PARTIDA":2017,"ADVERSARIO":"PORTUGUESA","PLACAR":"3x0","COMPETICAO_PRIMEIRA_PARTIDA":"Paulista Feminino 2017","MANDO_PRIMEIRA_PARTIDA":"Sim","FONTE_PRIMEIRA_PARTIDA":"https://www.meutimao.com.br/jogo/5320/paulista-feminino-2017/corinthians-3-x-0-portuguesa","TOTAL_JOGOS":1,"VITÓRIAS":1,"EMPATES":0,"DERROTAS":0,"APROVEITAMENTO_PCT":100,"GOLS_MARCADOS":3,"GOLS_SOFRIDOS":0,"NOMES_ALTERNATIVOS":[],"FONTES_JOGOS":["Meu Timão"],"LATITUDE":-23.5112184,"LONGITUDE":-46.8764612,"PRECISAO_COORDENADAS":"Município (estádio exato não identificado)","FONTE_COORDENADAS":"OpenStreetMap Nominatim (localidade aproximada)","URL_FONTE_COORDENADAS":"https://www.openstreetmap.org/relation/298021","ATRIBUICAO_COORDENADAS":"© OpenStreetMap contributors, ODbL 1.0","CAPACIDADE_FONTE":"Meu Timão","URL_FONTE_CAPACIDADE":"https://www.meutimao.com.br/estadio/ct_vila_porto?genero=feminino","PAIS_ISO3":"BRA","FONTE_CORRECAO_PAIS":"https://data.geocode.earth/wof/dist/legacy/whosonfirst-data-country-latest.tar.bz2"},"geometry":{"type":"Point","coordinates":[-46.8764612,-23.5112184]}},{"type":"Feature","properties":{"ESTÁDIO":"Canindé","CIDADE":null,"ESTADO":null,"PAÍS":"Brasil","CAPACIDADE":"16592","PRIMEIRA_PARTIDA":"CORINTHIANS 2x0 SÃO JOSÉ","DATA_PRIMEIRA_PARTIDA":"2018-04-01","ANO_PRIMEIRA_PARTIDA":2018,"ADVERSARIO":"SÃO JOSÉ","PLACAR":"2x0","COMPETICAO_PRIMEIRA_PARTIDA":"Paulista Feminino 2018","MANDO_PRIMEIRA_PARTIDA":"Sim","FONTE_PRIMEIRA_PARTIDA":"https://www.meutimao.com.br/jogo/923/paulista-feminino-2018/corinthians-2-x-0-sao_jose","TOTAL_JOGOS":16,"VITÓRIAS":14,"EMPATES":1,"DERROTAS":1,"APROVEITAMENTO_PCT":89.6,"GOLS_MARCADOS":45,"GOLS_SOFRIDOS":8,"NOMES_ALTERNATIVOS":[],"FONTES_JOGOS":["Meu Timão"],"LATITUDE":-23.5205333,"LONGITUDE":-46.6186972,"CAPACIDADE_FONTE":"Meu Timão","URL_FONTE_CAPACIDADE":"https://www.meutimao.com.br/estadio/caninde/","PAIS_ISO3":"BRA"},"geometry":{"type":"Point","coordinates":[-46.6186972,-23.5205333]}},{"type":"Feature","properties":{"ESTÁDIO":"DEFENSORES DEL CHACO","CIDADE":"ASSUNÇÃO","ESTADO":"DEPARTAMENTO CENTRAL","PAÍS":"PARAGUAI","CAPACIDADE":"42345","PRIMEIRA_PARTIDA":"CORINTHIANS 2x0 INDEPENDIENTE SANTA FE","DATA_PRIMEIRA_PARTIDA":"2024-10-19","ANO_PRIMEIRA_PARTIDA":2024,"ADVERSARIO":"INDEPENDIENTE SANTA FE","PLACAR":"2x0","COMPETICAO_PRIMEIRA_PARTIDA":"Libertadores Feminina 2024","MANDO_PRIMEIRA_PARTIDA":"Sim","FONTE_PRIMEIRA_PARTIDA":"https://www.meutimao.com.br/jogo/8355/libertadores-feminina-2024/final/corinthians-2-x-0-independiente_santa_fe","TOTAL_JOGOS":1,"VITÓRIAS":1,"EMPATES":0,"DERROTAS":0,"APROVEITAMENTO_PCT":100,"GOLS_MARCADOS":2,"GOLS_SOFRIDOS":0,"NOMES_ALTERNATIVOS":[],"FONTES_JOGOS":["Meu Timão"],"LATITUDE":-25.291906369779717,"LONGITUDE":-57.65681557623464,"PAIS_ISO3":"PRY"},"geometry":{"type":"Point","coordinates":[-57.65681557623464,-25.291906369779717]}},{"type":"Feature","properties":{"ESTÁDIO":"Deportivo Morón","CIDADE":"Buenos Aires","ESTADO":"Autonomous City of Buenos Aires","PAÍS":"Argentina","CAPACIDADE":"32000","PRIMEIRA_PARTIDA":"CORINTHIANS 16x0 EL NACIONAL","DATA_PRIMEIRA_PARTIDA":"2021-03-05","ANO_PRIMEIRA_PARTIDA":2021,"ADVERSARIO":"EL NACIONAL","PLACAR":"16x0","COMPETICAO_PRIMEIRA_PARTIDA":"Libertadores Feminina 2020","MANDO_PRIMEIRA_PARTIDA":"Sim","FONTE_PRIMEIRA_PARTIDA":"https://www.meutimao.com.br/jogo/5003/libertadores-feminina-2020/corinthians-16-x-0-el_nacional","TOTAL_JOGOS":5,"VITÓRIAS":4,"EMPATES":1,"DERROTAS":0,"APROVEITAMENTO_PCT":86.7,"GOLS_MARCADOS":40,"GOLS_SOFRIDOS":1,"NOMES_ALTERNATIVOS":[],"FONTES_JOGOS":["Meu Timão"],"LATITUDE":-34.6095579,"LONGITUDE":-58.3887904,"PRECISAO_COORDENADAS":"Município (estádio exato não identificado)","FONTE_COORDENADAS":"OpenStreetMap Nominatim (localidade aproximada)","URL_FONTE_COORDENADAS":"https://www.openstreetmap.org/relation/1224652","ATRIBUICAO_COORDENADAS":"© OpenStreetMap contributors, ODbL 1.0","CAPACIDADE_FONTE":"Meu Timão","URL_FONTE_CAPACIDADE":"https://www.meutimao.com.br/estadio/deportivo_moron?genero=feminino","PAIS_ISO3":"ARG"},"geometry":{"type":"Point","coordinates":[-58.3887904,-34.6095579]}},{"type":"Feature","properties":{"ESTÁDIO":"EMIRATES STADIUM (ARSENAL STADIUM)","CIDADE":"LONDRES","ESTADO":"HOLLOWAY","PAÍS":"INGLATERRA","CAPACIDADE":"60704","PRIMEIRA_PARTIDA":"CORINTHIANS 2x3 ARSENAL","DATA_PRIMEIRA_PARTIDA":"2026-02-01","ANO_PRIMEIRA_PARTIDA":2026,"ADVERSARIO":"ARSENAL","PLACAR":"2x3","COMPETICAO_PRIMEIRA_PARTIDA":"Copa das Campeãs 2026","MANDO_PRIMEIRA_PARTIDA":"Sim","FONTE_PRIMEIRA_PARTIDA":"https://www.meutimao.com.br/jogo/8919/copa-das-campeas-2026/final/corinthians-2-x-3-arsenal","TOTAL_JOGOS":1,"VITÓRIAS":0,"EMPATES":0,"DERROTAS":1,"APROVEITAMENTO_PCT":0,"GOLS_MARCADOS":2,"GOLS_SOFRIDOS":3,"NOMES_ALTERNATIVOS":[],"FONTES_JOGOS":["Meu Timão"],"LATITUDE":51.555162121144335,"LONGITUDE":-0.108045751715059,"PAIS_ISO3":"GBR"},"geometry":{"type":"Point","coordinates":[-0.108045751715059,51.555162121144335]}},{"type":"Feature","properties":{"ESTÁDIO":"Estadio Olímpico Atahualpa","CIDADE":"Quito","ESTADO":"Pichincha","PAÍS":"Equador","CAPACIDADE":"39816","PRIMEIRA_PARTIDA":"CORINTHIANS 3x1 AMÉRICA DE CALI","DATA_PRIMEIRA_PARTIDA":"2019-10-17","ANO_PRIMEIRA_PARTIDA":2019,"ADVERSARIO":"AMÉRICA DE CALI","PLACAR":"3x1","COMPETICAO_PRIMEIRA_PARTIDA":"Libertadores Feminina 2019","MANDO_PRIMEIRA_PARTIDA":"Sim","FONTE_PRIMEIRA_PARTIDA":"https://www.meutimao.com.br/jogo/1367/libertadores-feminina-2019/corinthians-3-x-1-america_de_cali","TOTAL_JOGOS":5,"VITÓRIAS":4,"EMPATES":1,"DERROTAS":0,"APROVEITAMENTO_PCT":86.7,"GOLS_MARCADOS":13,"GOLS_SOFRIDOS":3,"NOMES_ALTERNATIVOS":[],"FONTES_JOGOS":["Meu Timão"],"LATITUDE":-0.1775141,"LONGITUDE":-78.4766126,"PRECISAO_COORDENADAS":"Estádio identificado","FONTE_COORDENADAS":"OpenStreetMap Nominatim","URL_FONTE_COORDENADAS":"https://www.openstreetmap.org/way/24611185","ATRIBUICAO_COORDENADAS":"© OpenStreetMap contributors, ODbL 1.0","CAPACIDADE_FONTE":"StadiumDB.com","URL_FONTE_CAPACIDADE":"https://stadiumdb.com/stadiums/ecu/estadio_olimpico_atahualpa","PAIS_ISO3":"ECU"},"geometry":{"type":"Point","coordinates":[-78.4766126,-0.1775141]}},{"type":"Feature","properties":{"ESTÁDIO":"Estádio Carfem","CIDADE":"Ypané","ESTADO":"Departamento Central","PAÍS":"Paraguai","CAPACIDADE":"1000","PRIMEIRA_PARTIDA":"CORINTHIANS 2x0 OLIMPIA","DATA_PRIMEIRA_PARTIDA":"2024-10-12","ANO_PRIMEIRA_PARTIDA":2024,"ADVERSARIO":"OLIMPIA","PLACAR":"2x0","COMPETICAO_PRIMEIRA_PARTIDA":"Libertadores Feminina 2024","MANDO_PRIMEIRA_PARTIDA":"Sim","FONTE_PRIMEIRA_PARTIDA":"https://www.meutimao.com.br/jogo/8353/libertadores-feminina-2024/quartas_de_final/corinthians-2-x-0-olimpia","TOTAL_JOGOS":1,"VITÓRIAS":1,"EMPATES":0,"DERROTAS":0,"APROVEITAMENTO_PCT":100,"GOLS_MARCADOS":2,"GOLS_SOFRIDOS":0,"NOMES_ALTERNATIVOS":[],"FONTES_JOGOS":["Meu Timão"],"LATITUDE":-25.4573519,"LONGITUDE":-57.5092575,"PRECISAO_COORDENADAS":"Município (estádio exato não identificado)","FONTE_COORDENADAS":"OpenStreetMap Nominatim (localidade aproximada)","URL_FONTE_COORDENADAS":"https://www.openstreetmap.org/relation/6601486","ATRIBUICAO_COORDENADAS":"© OpenStreetMap contributors, ODbL 1.0","CAPACIDADE_FONTE":"Meu Timão","URL_FONTE_CAPACIDADE":"https://www.meutimao.com.br/estadio/estadio_carfem?genero=feminino","PAIS_ISO3":"PRY"},"geometry":{"type":"Point","coordinates":[-57.5092575,-25.4573519]}},{"type":"Feature","properties":{"ESTÁDIO":"Estádio Pozo Ripalda","CIDADE":null,"ESTADO":null,"PAÍS":"Ecuador","CAPACIDADE":"18799","PRIMEIRA_PARTIDA":"CORINTHIANS 1x2 DEPORTIVO CALI","DATA_PRIMEIRA_PARTIDA":"2022-10-13","ANO_PRIMEIRA_PARTIDA":2022,"ADVERSARIO":"DEPORTIVO CALI","PLACAR":"1x2","COMPETICAO_PRIMEIRA_PARTIDA":"Libertadores Feminina 2022","MANDO_PRIMEIRA_PARTIDA":"Sim","FONTE_PRIMEIRA_PARTIDA":"https://www.meutimao.com.br/jogo/7520/libertadores-feminina-2022/corinthians-1-x-2-deportivo_cali","TOTAL_JOGOS":3,"VITÓRIAS":2,"EMPATES":0,"DERROTAS":1,"APROVEITAMENTO_PCT":66.7,"GOLS_MARCADOS":10,"GOLS_SOFRIDOS":2,"NOMES_ALTERNATIVOS":[],"FONTES_JOGOS":["Meu Timão"],"LATITUDE":-0.2788989,"LONGITUDE":-78.5461745,"PRECISAO_COORDENADAS":"Estádio identificado","FONTE_COORDENADAS":"OpenStreetMap Nominatim","URL_FONTE_COORDENADAS":"https://www.openstreetmap.org/way/26216680","ATRIBUICAO_COORDENADAS":"© OpenStreetMap contributors, ODbL 1.0","CAPACIDADE_FONTE":"Meu Timão","URL_FONTE_CAPACIDADE":"https://www.meutimao.com.br/estadio/estadio_pozo_ripalda?genero=feminino","PAIS_ISO3":"ECU","FONTE_CORRECAO_PAIS":"https://data.geocode.earth/wof/dist/legacy/whosonfirst-data-country-latest.tar.bz2"},"geometry":{"type":"Point","coordinates":[-78.5461745,-0.2788989]}},{"type":"Feature","properties":{"ESTÁDIO":"Estádio de Techo","CIDADE":"Bogotá","ESTADO":"Bogota, Capital District","PAÍS":"Colômbia","CAPACIDADE":"10000","PRIMEIRA_PARTIDA":"CORINTHIANS 1x0 COLO-COLO","DATA_PRIMEIRA_PARTIDA":"2023-10-06","ANO_PRIMEIRA_PARTIDA":2023,"ADVERSARIO":"COLO-COLO","PLACAR":"1x0","COMPETICAO_PRIMEIRA_PARTIDA":"Libertadores Feminina 2023","MANDO_PRIMEIRA_PARTIDA":"Sim","FONTE_PRIMEIRA_PARTIDA":"https://www.meutimao.com.br/jogo/7907/libertadores-feminina-2023/corinthians-1-x-0-colo-colo","TOTAL_JOGOS":2,"VITÓRIAS":2,"EMPATES":0,"DERROTAS":0,"APROVEITAMENTO_PCT":100,"GOLS_MARCADOS":7,"GOLS_SOFRIDOS":0,"NOMES_ALTERNATIVOS":[],"FONTES_JOGOS":["Meu Timão"],"LATITUDE":4.6533817,"LONGITUDE":-74.0836331,"PRECISAO_COORDENADAS":"Município (estádio exato não identificado)","FONTE_COORDENADAS":"OpenStreetMap Nominatim (localidade aproximada)","URL_FONTE_COORDENADAS":"https://www.openstreetmap.org/relation/7426387","ATRIBUICAO_COORDENADAS":"© OpenStreetMap contributors, ODbL 1.0","CAPACIDADE_FONTE":"Meu Timão","URL_FONTE_CAPACIDADE":"https://www.meutimao.com.br/estadio/estadio_de_techo?genero=feminino","PAIS_ISO3":"COL"},"geometry":{"type":"Point","coordinates":[-74.0836331,4.6533817]}},{"type":"Feature","properties":{"ESTÁDIO":"GENERAL ADRIÁN JARA (CONMEBOL)","CIDADE":"LUQUE","ESTADO":"DEPARTAMENTO CENTRAL","PAÍS":"PARAGUAI","CAPACIDADE":"4000","PRIMEIRA_PARTIDA":"CORINTHIANS 1x0 BOCA JUNIORS","DATA_PRIMEIRA_PARTIDA":"2024-10-15","ANO_PRIMEIRA_PARTIDA":2024,"ADVERSARIO":"BOCA JUNIORS","PLACAR":"1x0","COMPETICAO_PRIMEIRA_PARTIDA":"Libertadores Feminina 2024","MANDO_PRIMEIRA_PARTIDA":"Sim","FONTE_PRIMEIRA_PARTIDA":"https://www.meutimao.com.br/jogo/8354/libertadores-feminina-2024/corinthians-1-x-0-boca_juniors","TOTAL_JOGOS":1,"VITÓRIAS":1,"EMPATES":0,"DERROTAS":0,"APROVEITAMENTO_PCT":100,"GOLS_MARCADOS":1,"GOLS_SOFRIDOS":0,"NOMES_ALTERNATIVOS":[],"FONTES_JOGOS":["Meu Timão"],"LATITUDE":-25.26300146495579,"LONGITUDE":-57.51814001406302,"PAIS_ISO3":"PRY"},"geometry":{"type":"Point","coordinates":[-57.51814001406302,-25.26300146495579]}},{"type":"Feature","properties":{"ESTÁDIO":"GRAN PARQUE CENTRAL","CIDADE":"MONTEVIDÉU","ESTADO":"DEPARTAMENTO MONTEVIDÉU","PAÍS":"URUGUAI","CAPACIDADE":"37000","PRIMEIRA_PARTIDA":"CORINTHIANS 2x0 INDEPENDIENTE SANTA FE","DATA_PRIMEIRA_PARTIDA":"2021-11-21","ANO_PRIMEIRA_PARTIDA":2021,"ADVERSARIO":"INDEPENDIENTE SANTA FE","PLACAR":"2x0","COMPETICAO_PRIMEIRA_PARTIDA":"Libertadores Feminina 2021","MANDO_PRIMEIRA_PARTIDA":"Sim","FONTE_PRIMEIRA_PARTIDA":"https://www.meutimao.com.br/jogo/7206/libertadores-feminina-2021/final/corinthians-2-x-0-independiente_santa_fe","TOTAL_JOGOS":1,"VITÓRIAS":1,"EMPATES":0,"DERROTAS":0,"APROVEITAMENTO_PCT":100,"GOLS_MARCADOS":2,"GOLS_SOFRIDOS":0,"NOMES_ALTERNATIVOS":[],"FONTES_JOGOS":["Meu Timão"],"LATITUDE":-34.884261789014836,"LONGITUDE":-56.15824998707433,"PAIS_ISO3":"URY"},"geometry":{"type":"Point","coordinates":[-56.15824998707433,-34.884261789014836]}},{"type":"Feature","properties":{"ESTÁDIO":"GTECH COMMUNITY STADIUM","CIDADE":"LONDRES","ESTADO":"BRENTFORD","PAÍS":"INGLATERRA","CAPACIDADE":"17250","PRIMEIRA_PARTIDA":"CORINTHIANS 1x0 GOTHAM FC","DATA_PRIMEIRA_PARTIDA":"2026-01-28","ANO_PRIMEIRA_PARTIDA":2026,"ADVERSARIO":"GOTHAM FC","PLACAR":"1x0","COMPETICAO_PRIMEIRA_PARTIDA":"Copa das Campeãs 2026","MANDO_PRIMEIRA_PARTIDA":"Sim","FONTE_PRIMEIRA_PARTIDA":"https://www.meutimao.com.br/jogo/8821/copa-das-campeas-2026/corinthians-1-x-0-gotham_fc","TOTAL_JOGOS":1,"VITÓRIAS":1,"EMPATES":0,"DERROTAS":0,"APROVEITAMENTO_PCT":100,"GOLS_MARCADOS":1,"GOLS_SOFRIDOS":0,"NOMES_ALTERNATIVOS":[],"FONTES_JOGOS":["Meu Timão"],"LATITUDE":51.49091800344337,"LONGITUDE":-0.288801813492398,"PAIS_ISO3":"GBR"},"geometry":{"type":"Point","coordinates":[-0.288801813492398,51.49091800344337]}},{"type":"Feature","properties":{"ESTÁDIO":"JOSÉ BATISTA PEREIRA FERNANDES (DISTRITAL DO INAMAR)","CIDADE":"DIADEMA","ESTADO":"SÃO PAULO","PAÍS":"BRASIL","CAPACIDADE":"8075","PRIMEIRA_PARTIDA":"CORINTHIANS 1x0 ATLÉTICO-MG","DATA_PRIMEIRA_PARTIDA":"2023-02-05","ANO_PRIMEIRA_PARTIDA":2023,"ADVERSARIO":"ATLÉTICO-MG","PLACAR":"1x0","COMPETICAO_PRIMEIRA_PARTIDA":"Supercopa Feminina 2023","MANDO_PRIMEIRA_PARTIDA":"Sim","FONTE_PRIMEIRA_PARTIDA":"https://www.meutimao.com.br/jogo/7603/supercopa-feminina-2023/quartas_de_final/corinthians-1-x-0-atletico-mg","TOTAL_JOGOS":1,"VITÓRIAS":1,"EMPATES":0,"DERROTAS":0,"APROVEITAMENTO_PCT":100,"GOLS_MARCADOS":1,"GOLS_SOFRIDOS":0,"NOMES_ALTERNATIVOS":[],"FONTES_JOGOS":["Meu Timão"],"LATITUDE":-23.72265991128569,"LONGITUDE":-46.61270155300039,"PAIS_ISO3":"BRA"},"geometry":{"type":"Point","coordinates":[-46.61270155300039,-23.72265991128569]}},{"type":"Feature","properties":{"ESTÁDIO":"Joaquim de Morais Filho","CIDADE":null,"ESTADO":null,"PAÍS":"Brasil","CAPACIDADE":null,"PRIMEIRA_PARTIDA":"CORINTHIANS 10x0 NACIONAL-AM","DATA_PRIMEIRA_PARTIDA":"1997-11-08","ANO_PRIMEIRA_PARTIDA":1997,"ADVERSARIO":"NACIONAL-AM","PLACAR":"10x0","COMPETICAO_PRIMEIRA_PARTIDA":"TAÇA BRASIL","MANDO_PRIMEIRA_PARTIDA":"Sim","FONTE_PRIMEIRA_PARTIDA":null,"TOTAL_JOGOS":9,"VITÓRIAS":6,"EMPATES":2,"DERROTAS":1,"APROVEITAMENTO_PCT":74.1,"GOLS_MARCADOS":35,"GOLS_SOFRIDOS":8,"NOMES_ALTERNATIVOS":[],"FONTES_JOGOS":["Daniel Keppler"],"LATITUDE":-23.028033,"LONGITUDE":-45.5703466,"PAIS_ISO3":"BRA"},"geometry":{"type":"Point","coordinates":[-45.5703466,-23.028033]}},{"type":"Feature","properties":{"ESTÁDIO":"José Liberatti","CIDADE":null,"ESTADO":null,"PAÍS":"Brazil","CAPACIDADE":"17430","PRIMEIRA_PARTIDA":"CORINTHIANS 2x1 RIO PRETO","DATA_PRIMEIRA_PARTIDA":"2016-01-27","ANO_PRIMEIRA_PARTIDA":2016,"ADVERSARIO":"RIO PRETO","PLACAR":"2x1","COMPETICAO_PRIMEIRA_PARTIDA":"Brasileirão 2016","MANDO_PRIMEIRA_PARTIDA":"Sim","FONTE_PRIMEIRA_PARTIDA":"https://www.meutimao.com.br/jogo/4700/brasileirao-2016/corinthians-2-x-1-rio_preto","TOTAL_JOGOS":17,"VITÓRIAS":14,"EMPATES":2,"DERROTAS":1,"APROVEITAMENTO_PCT":86.3,"GOLS_MARCADOS":59,"GOLS_SOFRIDOS":7,"NOMES_ALTERNATIVOS":[],"FONTES_JOGOS":["Meu Timão"],"LATITUDE":-23.5112728,"LONGITUDE":-46.7763584,"PRECISAO_COORDENADAS":"Estádio identificado","FONTE_COORDENADAS":"OpenStreetMap Nominatim","URL_FONTE_COORDENADAS":"https://www.openstreetmap.org/way/161555648","ATRIBUICAO_COORDENADAS":"© OpenStreetMap contributors, ODbL 1.0","CAPACIDADE_FONTE":"Meu Timão","URL_FONTE_CAPACIDADE":"https://www.meutimao.com.br/estadio/jose_liberatti?genero=feminino","PAIS_ISO3":"BRA","FONTE_CORRECAO_PAIS":"https://data.geocode.earth/wof/dist/legacy/whosonfirst-data-country-latest.tar.bz2"},"geometry":{"type":"Point","coordinates":[-46.7763584,-23.5112728]}},{"type":"Feature","properties":{"ESTÁDIO":"LA ARBOLEDA","CIDADE":"ASSUNÇÃO","ESTADO":"DEPARTAMENTO CENTRAL","PAÍS":"PARAGUAI","CAPACIDADE":"8000","PRIMEIRA_PARTIDA":"CORINTHIANS 6x1 DEPORTIVO ITA","DATA_PRIMEIRA_PARTIDA":"2017-10-14","ANO_PRIMEIRA_PARTIDA":2017,"ADVERSARIO":"DEPORTIVO ITA","PLACAR":"6x1","COMPETICAO_PRIMEIRA_PARTIDA":"Libertadores Feminina 2017","MANDO_PRIMEIRA_PARTIDA":"Sim","FONTE_PRIMEIRA_PARTIDA":"https://www.meutimao.com.br/jogo/7125/libertadores-feminina-2017/corinthians-6-x-1-deportivo_ita","TOTAL_JOGOS":2,"VITÓRIAS":2,"EMPATES":0,"DERROTAS":0,"APROVEITAMENTO_PCT":100,"GOLS_MARCADOS":8,"GOLS_SOFRIDOS":2,"NOMES_ALTERNATIVOS":[],"FONTES_JOGOS":["Meu Timão"],"LATITUDE":-25.257324985267747,"LONGITUDE":-57.57451669872214,"PAIS_ISO3":"PRY"},"geometry":{"type":"Point","coordinates":[-57.57451669872214,-25.257324985267747]}},{"type":"Feature","properties":{"ESTÁDIO":"LUIS ALFONSO GIAGNI","CIDADE":"VILLA ELISA","ESTADO":"DEPARTAMENTO CENTRAL","PAÍS":"PARAGUAI","CAPACIDADE":"11000","PRIMEIRA_PARTIDA":"CORINTHIANS 3x0 CERRO PORTEÑO","DATA_PRIMEIRA_PARTIDA":"2017-10-19","ANO_PRIMEIRA_PARTIDA":2017,"ADVERSARIO":"CERRO PORTEÑO","PLACAR":"3x0","COMPETICAO_PRIMEIRA_PARTIDA":"Libertadores Feminina 2017","MANDO_PRIMEIRA_PARTIDA":"Sim","FONTE_PRIMEIRA_PARTIDA":"https://www.meutimao.com.br/jogo/7128/libertadores-feminina-2017/corinthians-3-x-0-cerro_porteno","TOTAL_JOGOS":1,"VITÓRIAS":1,"EMPATES":0,"DERROTAS":0,"APROVEITAMENTO_PCT":100,"GOLS_MARCADOS":3,"GOLS_SOFRIDOS":0,"NOMES_ALTERNATIVOS":[],"FONTES_JOGOS":["Meu Timão"],"LATITUDE":-25.36720022210868,"LONGITUDE":-57.58427930241521,"PAIS_ISO3":"PRY"},"geometry":{"type":"Point","coordinates":[-57.58427930241521,-25.36720022210868]}},{"type":"Feature","properties":{"ESTÁDIO":"Lencho","CIDADE":"Buenos Aires","ESTADO":"Autonomous City of Buenos Aires","PAÍS":"Argentina","CAPACIDADE":"35000","PRIMEIRA_PARTIDA":"CORINTHIANS 1x1 INDEPENDIENTE DEL VALLE","DATA_PRIMEIRA_PARTIDA":"2025-10-02","ANO_PRIMEIRA_PARTIDA":2025,"ADVERSARIO":"INDEPENDIENTE DEL VALLE","PLACAR":"1x1","COMPETICAO_PRIMEIRA_PARTIDA":"Libertadores Feminina 2025","MANDO_PRIMEIRA_PARTIDA":"Sim","FONTE_PRIMEIRA_PARTIDA":"https://www.meutimao.com.br/jogo/8739/libertadores-feminina-2025/corinthians-1-x-1-independiente_del_valle","TOTAL_JOGOS":4,"VITÓRIAS":1,"EMPATES":3,"DERROTAS":0,"APROVEITAMENTO_PCT":50,"GOLS_MARCADOS":3,"GOLS_SOFRIDOS":2,"NOMES_ALTERNATIVOS":[],"FONTES_JOGOS":["Meu Timão"],"LATITUDE":-34.6095579,"LONGITUDE":-58.3887904,"PRECISAO_COORDENADAS":"Município (estádio exato não identificado)","FONTE_COORDENADAS":"OpenStreetMap Nominatim (localidade aproximada)","URL_FONTE_COORDENADAS":"https://www.openstreetmap.org/relation/1224652","ATRIBUICAO_COORDENADAS":"© OpenStreetMap contributors, ODbL 1.0","CAPACIDADE_FONTE":"Meu Timão","URL_FONTE_CAPACIDADE":"https://www.meutimao.com.br/estadio/lencho?genero=feminino","PAIS_ISO3":"ARG"},"geometry":{"type":"Point","coordinates":[-58.3887904,-34.6095579]}},{"type":"Feature","properties":{"ESTÁDIO":"MARCOS EDUARDO CAMARGO TRUVILHO (SERRA DA COLINA)","CIDADE":"IBIÚNA ","ESTADO":"SÃO PAULO","PAÍS":"BRASIL","CAPACIDADE":"3720","PRIMEIRA_PARTIDA":"CORINTHIANS 4x2 JAGUARIÚNA","DATA_PRIMEIRA_PARTIDA":"2009-08-15","ANO_PRIMEIRA_PARTIDA":2009,"ADVERSARIO":"JAGUARIÚNA","PLACAR":"4x2","COMPETICAO_PRIMEIRA_PARTIDA":"CAMPEONATO PAULISTA / FPF","MANDO_PRIMEIRA_PARTIDA":"Sim","FONTE_PRIMEIRA_PARTIDA":null,"TOTAL_JOGOS":2,"VITÓRIAS":1,"EMPATES":0,"DERROTAS":1,"APROVEITAMENTO_PCT":50,"GOLS_MARCADOS":6,"GOLS_SOFRIDOS":5,"NOMES_ALTERNATIVOS":[],"FONTES_JOGOS":["Daniel Keppler"],"LATITUDE":-23.650985481738065,"LONGITUDE":-47.19294393125041,"PAIS_ISO3":"BRA"},"geometry":{"type":"Point","coordinates":[-47.19294393125041,-23.650985481738065]}},{"type":"Feature","properties":{"ESTÁDIO":"MARTINS PEREIRA","CIDADE":"SÃO JOSÉ DOS CAMPOS ","ESTADO":"SÃO PAULO","PAÍS":"BRASIL","CAPACIDADE":"16500","PRIMEIRA_PARTIDA":"CORINTHIANS 8x0 PINHEIRENSE","DATA_PRIMEIRA_PARTIDA":"2018-05-16","ANO_PRIMEIRA_PARTIDA":2018,"ADVERSARIO":"PINHEIRENSE","PLACAR":"8x0","COMPETICAO_PRIMEIRA_PARTIDA":"Brasileiro Feminino 2018","MANDO_PRIMEIRA_PARTIDA":"Sim","FONTE_PRIMEIRA_PARTIDA":"https://www.meutimao.com.br/jogo/909/brasileiro-feminino-2018/corinthians-8-x-0-pinheirense","TOTAL_JOGOS":1,"VITÓRIAS":1,"EMPATES":0,"DERROTAS":0,"APROVEITAMENTO_PCT":100,"GOLS_MARCADOS":8,"GOLS_SOFRIDOS":0,"NOMES_ALTERNATIVOS":[],"FONTES_JOGOS":["Meu Timão"],"LATITUDE":-23.1884912615151,"LONGITUDE":-45.869827477202776,"PAIS_ISO3":"BRA"},"geometry":{"type":"Point","coordinates":[-45.869827477202776,-23.1884912615151]}},{"type":"Feature","properties":{"ESTÁDIO":"NICOLAU ALAYON (COMENDADOR SOUZA)","CIDADE":"SÃO PAULO ","ESTADO":"SÃO PAULO","PAÍS":"BRASIL","CAPACIDADE":"10723","PRIMEIRA_PARTIDA":"CORINTHIANS 7x2 PAULISTA","DATA_PRIMEIRA_PARTIDA":"2008-04-21","ANO_PRIMEIRA_PARTIDA":2008,"ADVERSARIO":"PAULISTA","PLACAR":"7x2","COMPETICAO_PRIMEIRA_PARTIDA":"CAMPEONATO PAULISTA / FPF","MANDO_PRIMEIRA_PARTIDA":"Sim","FONTE_PRIMEIRA_PARTIDA":null,"TOTAL_JOGOS":2,"VITÓRIAS":2,"EMPATES":0,"DERROTAS":0,"APROVEITAMENTO_PCT":100,"GOLS_MARCADOS":9,"GOLS_SOFRIDOS":2,"NOMES_ALTERNATIVOS":[],"FONTES_JOGOS":["Daniel Keppler"],"LATITUDE":-23.518152537113252,"LONGITUDE":-46.68525286396975,"PAIS_ISO3":"BRA"},"geometry":{"type":"Point","coordinates":[-46.68525286396975,-23.518152537113252]}},{"type":"Feature","properties":{"ESTÁDIO":"Neo Química Arena","CIDADE":null,"ESTADO":null,"PAÍS":"Brasil","CAPACIDADE":"49085","PRIMEIRA_PARTIDA":"CORINTHIANS 4x1 SÃO FRANCISCO","DATA_PRIMEIRA_PARTIDA":"2018-04-25","ANO_PRIMEIRA_PARTIDA":2018,"ADVERSARIO":"SÃO FRANCISCO","PLACAR":"4x1","COMPETICAO_PRIMEIRA_PARTIDA":"Brasileiro Feminino 2018","MANDO_PRIMEIRA_PARTIDA":"Sim","FONTE_PRIMEIRA_PARTIDA":"https://www.meutimao.com.br/jogo/906/brasileiro-feminino-2018/corinthians-4-x-1-sao_francisco","TOTAL_JOGOS":33,"VITÓRIAS":29,"EMPATES":3,"DERROTAS":1,"APROVEITAMENTO_PCT":90.9,"GOLS_MARCADOS":82,"GOLS_SOFRIDOS":20,"NOMES_ALTERNATIVOS":[],"FONTES_JOGOS":["Meu Timão"],"LATITUDE":-23.5453221,"LONGITUDE":-46.4742676,"CAPACIDADE_FONTE":"Meu Timão","URL_FONTE_CAPACIDADE":"https://www.meutimao.com.br/estadio/neo_quimica_arena/","PAIS_ISO3":"BRA"},"geometry":{"type":"Point","coordinates":[-46.4742676,-23.5453221]}},{"type":"Feature","properties":{"ESTÁDIO":"Ninho do Corvo","CIDADE":null,"ESTADO":null,"PAÍS":"Brazil","CAPACIDADE":"6235","PRIMEIRA_PARTIDA":"CORINTHIANS 3x0 PORTUGUESA","DATA_PRIMEIRA_PARTIDA":"2019-05-26","ANO_PRIMEIRA_PARTIDA":2019,"ADVERSARIO":"PORTUGUESA","PLACAR":"3x0","COMPETICAO_PRIMEIRA_PARTIDA":"Paulista Feminino 2019","MANDO_PRIMEIRA_PARTIDA":"Sim","FONTE_PRIMEIRA_PARTIDA":"https://www.meutimao.com.br/jogo/1152/paulista-feminino-2019/corinthians-3-x-0-portuguesa","TOTAL_JOGOS":1,"VITÓRIAS":1,"EMPATES":0,"DERROTAS":0,"APROVEITAMENTO_PCT":100,"GOLS_MARCADOS":3,"GOLS_SOFRIDOS":0,"NOMES_ALTERNATIVOS":[],"FONTES_JOGOS":["Meu Timão"],"LATITUDE":-23.4675941,"LONGITUDE":-46.5277704,"PRECISAO_COORDENADAS":"Município (estádio exato não identificado)","FONTE_COORDENADAS":"OpenStreetMap Nominatim (localidade aproximada)","URL_FONTE_COORDENADAS":"https://www.openstreetmap.org/relation/298165","ATRIBUICAO_COORDENADAS":"© OpenStreetMap contributors, ODbL 1.0","CAPACIDADE_FONTE":"Meu Timão","URL_FONTE_CAPACIDADE":"https://www.meutimao.com.br/estadio/ninho_do_corvo?genero=feminino","PAIS_ISO3":"BRA","FONTE_CORRECAO_PAIS":"https://data.geocode.earth/wof/dist/legacy/whosonfirst-data-country-latest.tar.bz2"},"geometry":{"type":"Point","coordinates":[-46.5277704,-23.4675941]}},{"type":"Feature","properties":{"ESTÁDIO":"Nogueirão","CIDADE":null,"ESTADO":null,"PAÍS":"Brazil","CAPACIDADE":"14384","PRIMEIRA_PARTIDA":"CORINTHIANS 3x2 SANTOS","DATA_PRIMEIRA_PARTIDA":"2018-05-27","ANO_PRIMEIRA_PARTIDA":2018,"ADVERSARIO":"SANTOS","PLACAR":"3x2","COMPETICAO_PRIMEIRA_PARTIDA":"Paulista Feminino 2018","MANDO_PRIMEIRA_PARTIDA":"Sim","FONTE_PRIMEIRA_PARTIDA":"https://www.meutimao.com.br/jogo/930/paulista-feminino-2018/corinthians-3-x-2-santos","TOTAL_JOGOS":5,"VITÓRIAS":3,"EMPATES":0,"DERROTAS":2,"APROVEITAMENTO_PCT":60,"GOLS_MARCADOS":19,"GOLS_SOFRIDOS":6,"NOMES_ALTERNATIVOS":[],"FONTES_JOGOS":["Meu Timão"],"LATITUDE":-23.5187203,"LONGITUDE":-46.2060118,"CAPACIDADE_FONTE":"Meu Timão","URL_FONTE_CAPACIDADE":"https://www.meutimao.com.br/estadio/nogueirao/","PAIS_ISO3":"BRA","FONTE_CORRECAO_PAIS":"https://data.geocode.earth/wof/dist/legacy/whosonfirst-data-country-latest.tar.bz2"},"geometry":{"type":"Point","coordinates":[-46.2060118,-23.5187203]}},{"type":"Feature","properties":{"ESTÁDIO":"Novelli Junior","CIDADE":null,"ESTADO":null,"PAÍS":"Brazil","CAPACIDADE":"16405","PRIMEIRA_PARTIDA":"CORINTHIANS 2x1 FRANCANA","DATA_PRIMEIRA_PARTIDA":"2016-06-11","ANO_PRIMEIRA_PARTIDA":2016,"ADVERSARIO":"FRANCANA","PLACAR":"2x1","COMPETICAO_PRIMEIRA_PARTIDA":"Paulista 2016","MANDO_PRIMEIRA_PARTIDA":"Sim","FONTE_PRIMEIRA_PARTIDA":"https://www.meutimao.com.br/jogo/4717/paulista-2016/corinthians-2-x-1-francana","TOTAL_JOGOS":1,"VITÓRIAS":1,"EMPATES":0,"DERROTAS":0,"APROVEITAMENTO_PCT":100,"GOLS_MARCADOS":2,"GOLS_SOFRIDOS":1,"NOMES_ALTERNATIVOS":[],"FONTES_JOGOS":["Meu Timão"],"LATITUDE":-23.2808026,"LONGITUDE":-47.2877526,"CAPACIDADE_FONTE":"Meu Timão","URL_FONTE_CAPACIDADE":"https://www.meutimao.com.br/estadio/novelli_junior/","PAIS_ISO3":"BRA","FONTE_CORRECAO_PAIS":"https://data.geocode.earth/wof/dist/legacy/whosonfirst-data-country-latest.tar.bz2"},"geometry":{"type":"Point","coordinates":[-47.2877526,-23.2808026]}},{"type":"Feature","properties":{"ESTÁDIO":"OSVALDO DOMÍNGUEZ DIBB (ANTIGO MANUEL FERREIRA)","CIDADE":"ASSUNÇÃO","ESTADO":"DEPARTAMENTO CENTRAL","PAÍS":"PARAGUAI","CAPACIDADE":"25820","PRIMEIRA_PARTIDA":"CORINTHIANS 3x1 ALIANZA LIMA","DATA_PRIMEIRA_PARTIDA":"2021-11-13","ANO_PRIMEIRA_PARTIDA":2021,"ADVERSARIO":"ALIANZA LIMA","PLACAR":"3x1","COMPETICAO_PRIMEIRA_PARTIDA":"Libertadores Feminina 2021","MANDO_PRIMEIRA_PARTIDA":"Sim","FONTE_PRIMEIRA_PARTIDA":"https://www.meutimao.com.br/jogo/7204/libertadores-feminina-2021/quartas_de_final/corinthians-3-x-1-alianza_lima","TOTAL_JOGOS":2,"VITÓRIAS":2,"EMPATES":0,"DERROTAS":0,"APROVEITAMENTO_PCT":100,"GOLS_MARCADOS":11,"GOLS_SOFRIDOS":1,"NOMES_ALTERNATIVOS":[],"FONTES_JOGOS":["Meu Timão"],"LATITUDE":-25.29146924080898,"LONGITUDE":-57.60780712386432,"PAIS_ISO3":"PRY"},"geometry":{"type":"Point","coordinates":[-57.60780712386432,-25.29146924080898]}},{"type":"Feature","properties":{"ESTÁDIO":"PAULO MACHADO DE CARVALHO (MERCADO LIVRE ARENA PACAEMBU)","CIDADE":"SÃO PAULO ","ESTADO":"SÃO PAULO","PAÍS":"BRASIL","CAPACIDADE":"37730","PRIMEIRA_PARTIDA":"CORINTHIANS 3x1 NACIONAL-SP","DATA_PRIMEIRA_PARTIDA":"2008-05-17","ANO_PRIMEIRA_PARTIDA":2008,"ADVERSARIO":"NACIONAL-SP","PLACAR":"3x1","COMPETICAO_PRIMEIRA_PARTIDA":"CAMPEONATO PAULISTA / FPF","MANDO_PRIMEIRA_PARTIDA":"Sim","FONTE_PRIMEIRA_PARTIDA":null,"TOTAL_JOGOS":4,"VITÓRIAS":2,"EMPATES":1,"DERROTAS":1,"APROVEITAMENTO_PCT":58.3,"GOLS_MARCADOS":11,"GOLS_SOFRIDOS":8,"NOMES_ALTERNATIVOS":[],"FONTES_JOGOS":["Daniel Keppler"],"LATITUDE":-23.548265580968636,"LONGITUDE":-46.66537788892085,"CAPACIDADE_STADIUMDB":"26000","FONTE_CAPACIDADE_STADIUMDB":"StadiumDB.com","URL_CAPACIDADE_STADIUMDB":"https://stadiumdb.com/stadiums/bra/estadio_do_pacaembu","PAIS_ISO3":"BRA"},"geometry":{"type":"Point","coordinates":[-46.66537788892085,-23.548265580968636]}},{"type":"Feature","properties":{"ESTÁDIO":"Pacaembu","CIDADE":null,"ESTADO":null,"PAÍS":"Brazil","CAPACIDADE":"37952","PRIMEIRA_PARTIDA":"CORINTHIANS 2x1 IRANDUBA","DATA_PRIMEIRA_PARTIDA":"2018-06-01","ANO_PRIMEIRA_PARTIDA":2018,"ADVERSARIO":"IRANDUBA","PLACAR":"2x1","COMPETICAO_PRIMEIRA_PARTIDA":"Brasileiro Feminino 2018","MANDO_PRIMEIRA_PARTIDA":"Sim","FONTE_PRIMEIRA_PARTIDA":"https://www.meutimao.com.br/jogo/913/brasileiro-feminino-2018/corinthians-2-x-1-iranduba","TOTAL_JOGOS":4,"VITÓRIAS":4,"EMPATES":0,"DERROTAS":0,"APROVEITAMENTO_PCT":100,"GOLS_MARCADOS":9,"GOLS_SOFRIDOS":2,"NOMES_ALTERNATIVOS":[],"FONTES_JOGOS":["Meu Timão"],"LATITUDE":-23.5473429,"LONGITUDE":-46.6652465,"CAPACIDADE_FONTE":"Meu Timão","URL_FONTE_CAPACIDADE":"https://www.meutimao.com.br/estadio/pacaembu/","PAIS_ISO3":"BRA","FONTE_CORRECAO_PAIS":"https://data.geocode.earth/wof/dist/legacy/whosonfirst-data-country-latest.tar.bz2"},"geometry":{"type":"Point","coordinates":[-46.6652465,-23.5473429]}},{"type":"Feature","properties":{"ESTÁDIO":"Pascual Guerrero","CIDADE":null,"ESTADO":null,"PAÍS":"Colombia","CAPACIDADE":null,"PRIMEIRA_PARTIDA":"CORINTHIANS 5x0 LIBERTAD LIMPEÑO","DATA_PRIMEIRA_PARTIDA":"2023-10-12","ANO_PRIMEIRA_PARTIDA":2023,"ADVERSARIO":"LIBERTAD LIMPEÑO","PLACAR":"5x0","COMPETICAO_PRIMEIRA_PARTIDA":"Libertadores Feminina 2023","MANDO_PRIMEIRA_PARTIDA":"Sim","FONTE_PRIMEIRA_PARTIDA":"https://www.meutimao.com.br/jogo/7909/libertadores-feminina-2023/corinthians-5-x-0-libertad_limpeno","TOTAL_JOGOS":4,"VITÓRIAS":3,"EMPATES":1,"DERROTAS":0,"APROVEITAMENTO_PCT":83.3,"GOLS_MARCADOS":11,"GOLS_SOFRIDOS":1,"NOMES_ALTERNATIVOS":[],"FONTES_JOGOS":["Meu Timão"],"LATITUDE":3.4299548,"LONGITUDE":-76.5412366,"PAIS_ISO3":"COL","FONTE_CORRECAO_PAIS":"https://data.geocode.earth/wof/dist/legacy/whosonfirst-data-country-latest.tar.bz2"},"geometry":{"type":"Point","coordinates":[-76.5412366,3.4299548]}},{"type":"Feature","properties":{"ESTÁDIO":"Rua Comendador Souza","CIDADE":null,"ESTADO":null,"PAÍS":"Brazil","CAPACIDADE":null,"PRIMEIRA_PARTIDA":"CORINTHIANS 0x3 RIO PRETO","DATA_PRIMEIRA_PARTIDA":"2016-05-25","ANO_PRIMEIRA_PARTIDA":2016,"ADVERSARIO":"RIO PRETO","PLACAR":"0x3","COMPETICAO_PRIMEIRA_PARTIDA":"Paulista 2016","MANDO_PRIMEIRA_PARTIDA":"Sim","FONTE_PRIMEIRA_PARTIDA":"https://www.meutimao.com.br/jogo/4715/paulista-2016/corinthians-0-x-3-rio_preto","TOTAL_JOGOS":2,"VITÓRIAS":1,"EMPATES":0,"DERROTAS":1,"APROVEITAMENTO_PCT":50,"GOLS_MARCADOS":4,"GOLS_SOFRIDOS":4,"NOMES_ALTERNATIVOS":[],"FONTES_JOGOS":["Meu Timão"],"LATITUDE":-23.5180229,"LONGITUDE":-46.6852378,"PAIS_ISO3":"BRA","FONTE_CORRECAO_PAIS":"https://data.geocode.earth/wof/dist/legacy/whosonfirst-data-country-latest.tar.bz2"},"geometry":{"type":"Point","coordinates":[-46.6852378,-23.5180229]}},{"type":"Feature","properties":{"ESTÁDIO":"Vélez Sarsfield","CIDADE":"Buenos Aires","ESTADO":"Autonomous City of Buenos Aires","PAÍS":"Argentina","CAPACIDADE":"50540","PRIMEIRA_PARTIDA":"CORINTHIANS 7x0 SANTIAGO MORNING","DATA_PRIMEIRA_PARTIDA":"2021-03-14","ANO_PRIMEIRA_PARTIDA":2021,"ADVERSARIO":"SANTIAGO MORNING","PLACAR":"7x0","COMPETICAO_PRIMEIRA_PARTIDA":"Libertadores Feminina 2020","MANDO_PRIMEIRA_PARTIDA":"Sim","FONTE_PRIMEIRA_PARTIDA":"https://www.meutimao.com.br/jogo/5080/libertadores-feminina-2020/quartas_de_final/corinthians-7-x-0-santiago_morning","TOTAL_JOGOS":2,"VITÓRIAS":2,"EMPATES":0,"DERROTAS":0,"APROVEITAMENTO_PCT":100,"GOLS_MARCADOS":11,"GOLS_SOFRIDOS":0,"NOMES_ALTERNATIVOS":[],"FONTES_JOGOS":["Meu Timão"],"LATITUDE":-34.6095579,"LONGITUDE":-58.3887904,"PRECISAO_COORDENADAS":"Município (estádio exato não identificado)","FONTE_COORDENADAS":"OpenStreetMap Nominatim (localidade aproximada)","URL_FONTE_COORDENADAS":"https://www.openstreetmap.org/relation/1224652","ATRIBUICAO_COORDENADAS":"© OpenStreetMap contributors, ODbL 1.0","CAPACIDADE_FONTE":"Meu Timão","URL_FONTE_CAPACIDADE":"https://www.meutimao.com.br/estadio/velez_sarsfield?genero=feminino","PAIS_ISO3":"ARG"},"geometry":{"type":"Point","coordinates":[-58.3887904,-34.6095579]}},{"type":"Feature","properties":{"ESTÁDIO":"ÍCARO DE CASTRO MELO (OLÍMPICO DO IBIRAPUERA)","CIDADE":"SÃO PAULO ","ESTADO":"SÃO PAULO","PAÍS":"BRASIL","CAPACIDADE":"13400","PRIMEIRA_PARTIDA":"CORINTHIANS 3x2 USP","DATA_PRIMEIRA_PARTIDA":"1997-03-19","ANO_PRIMEIRA_PARTIDA":1997,"ADVERSARIO":"USP","PLACAR":"3x2","COMPETICAO_PRIMEIRA_PARTIDA":"CAMPEONATO PAULISTA / FPF","MANDO_PRIMEIRA_PARTIDA":"Sim","FONTE_PRIMEIRA_PARTIDA":null,"TOTAL_JOGOS":3,"VITÓRIAS":1,"EMPATES":0,"DERROTAS":2,"APROVEITAMENTO_PCT":33.3,"GOLS_MARCADOS":7,"GOLS_SOFRIDOS":9,"NOMES_ALTERNATIVOS":[],"FONTES_JOGOS":["Daniel Keppler"],"LATITUDE":-23.578112052013303,"LONGITUDE":-46.65369778153475,"PAIS_ISO3":"BRA"},"geometry":{"type":"Point","coordinates":[-46.65369778153475,-23.578112052013303]}}]}